{"type":"FeatureCollection","features":[{"type":"Feature","geometry":{"type":"Point","coordinates":[-58.750014,-35.057527]},"properties":{"id":"IND-MOL-001","empresa":"Molino Cañuelas (Grupo Navilli)","planta":"Planta Cañuelas","categoria":"Molinería y Alimentos Básicos a Granel","categoria_cod":"MOL","subsector":"Molinería","tipo":"PLANTA","producto_principal":"Harina de trigo, premezclas","capacidad_declarada":"Molino Cañuelas procesa ~28,5% de la molienda total de trigo del país (grupo, 11 plantas + 2 de Molinos Florencia)","origen_materia_prima":"Trigo nacional","estado_operativo":"ACTIVA","ubicacion_texto":"Cañuelas, Bs. As. (sede fundacional, 1976)","localidad":"Cañuelas","provincia":"Buenos Aires","notas":"","sin_ubicar":false,"lat":-35.057527,"lon":-58.750014,"precision_ubicacion":"EXACTA","metodo_geocodificacion":"Nominatim/OSM: Molino Cañuelas, Cañuelas, Partido de Cañuelas, Buenos Aires, Argentina (landuse/industrial)","capacidad_estimada":null,"confianza_estimacion":null,"fuente_capacidad_estimada":"DOCUMENTO"}},{"type":"Feature","geometry":{"type":"Point","coordinates":[-58.593117,-34.910424]},"properties":{"id":"IND-MOL-002","empresa":"Molino Cañuelas (Grupo Navilli)","planta":"Planta Carlos Spegazzini (Ezeiza)","categoria":"Molinería y Alimentos Básicos a Granel","categoria_cod":"MOL","subsector":"Molinería","tipo":"PLANTA","producto_principal":"Harinas, aceites, congelados, galletitas","capacidad_declarada":"Parte de la expansión financiada con crédito IFC/Banco Mundial de US$80M","origen_materia_prima":"Trigo/oleaginosas nacionales","estado_operativo":"ACTIVA","ubicacion_texto":"Carlos Spegazzini, Ezeiza, Bs. As.","localidad":"Carlos Spegazzini","provincia":"Buenos Aires","notas":"","sin_ubicar":false,"lat":-34.910424,"lon":-58.593117,"precision_ubicacion":"ESTIMADA","metodo_geocodificacion":"Nominatim/OSM: Carlos Spegazzini, Partido de Ezeiza, Buenos Aires, Argentina (boundary/administrative)","capacidad_estimada":null,"confianza_estimacion":null,"fuente_capacidad_estimada":"DOCUMENTO"}},{"type":"Feature","geometry":{"type":"Point","coordinates":[-58.914161,-34.457092]},"properties":{"id":"IND-MOL-003","empresa":"Molino Cañuelas (Grupo Navilli)","planta":"Planta Pilar","categoria":"Molinería y Alimentos Básicos a Granel","categoria_cod":"MOL","subsector":"Molinería","tipo":"PLANTA","producto_principal":"Molienda de trigo","capacidad_declarada":"Incluida en el total de 11 plantas bonaerenses del grupo","origen_materia_prima":"Trigo nacional","estado_operativo":"ACTIVA","ubicacion_texto":"Bs. As. (varias localidades)","localidad":"Pilar","provincia":"Buenos Aires","notas":"","sin_ubicar":false,"lat":-34.457092,"lon":-58.914161,"precision_ubicacion":"ESTIMADA","metodo_geocodificacion":"Nominatim/OSM: Pilar, Partido del Pilar, Buenos Aires, Argentina (boundary/administrative)","capacidad_estimada":null,"confianza_estimacion":null,"fuente_capacidad_estimada":"DOCUMENTO"}},{"type":"Feature","geometry":{"type":"Point","coordinates":[-60.470185,-34.629704]},"properties":{"id":"IND-MOL-004","empresa":"Molino Cañuelas (Grupo Navilli)","planta":"Planta Chacabuco","categoria":"Molinería y Alimentos Básicos a Granel","categoria_cod":"MOL","subsector":"Molinería","tipo":"PLANTA","producto_principal":"Molienda de trigo","capacidad_declarada":"Incluida en el total de 11 plantas bonaerenses del grupo","origen_materia_prima":"Trigo nacional","estado_operativo":"ACTIVA","ubicacion_texto":"Bs. As. (varias localidades)","localidad":"Chacabuco","provincia":"Buenos Aires","notas":"","sin_ubicar":false,"lat":-34.629704,"lon":-60.470185,"precision_ubicacion":"ESTIMADA","metodo_geocodificacion":"Nominatim/OSM: Chacabuco, Acceso a la estación, Chacabuco, Partido de Chacabuco, Buenos Aires, 6740, Argentina (railway/station)","capacidad_estimada":null,"confianza_estimacion":null,"fuente_capacidad_estimada":"DOCUMENTO"}},{"type":"Feature","geometry":{"type":"Point","coordinates":[-58.560784,-34.677419]},"properties":{"id":"IND-MOL-005","empresa":"Molino Cañuelas (Grupo Navilli)","planta":"Planta San Justo","categoria":"Molinería y Alimentos Básicos a Granel","categoria_cod":"MOL","subsector":"Molinería","tipo":"PLANTA","producto_principal":"Molienda de trigo","capacidad_declarada":"Incluida en el total de 11 plantas bonaerenses del grupo","origen_materia_prima":"Trigo nacional","estado_operativo":"ACTIVA","ubicacion_texto":"Bs. As. (varias localidades)","localidad":"San Justo","provincia":"Buenos Aires","notas":"","sin_ubicar":false,"lat":-34.677419,"lon":-58.560784,"precision_ubicacion":"ESTIMADA","metodo_geocodificacion":"Nominatim/OSM: San Justo, Partido de La Matanza, Buenos Aires, Argentina (boundary/administrative)","capacidad_estimada":null,"confianza_estimacion":null,"fuente_capacidad_estimada":"DOCUMENTO"}},{"type":"Feature","geometry":{"type":"Point","coordinates":[-60.275568,-38.377001]},"properties":{"id":"IND-MOL-006","empresa":"Molino Cañuelas (Grupo Navilli)","planta":"Planta Tres Arroyos","categoria":"Molinería y Alimentos Básicos a Granel","categoria_cod":"MOL","subsector":"Molinería","tipo":"PLANTA","producto_principal":"Molienda de trigo","capacidad_declarada":"Incluida en el total de 11 plantas bonaerenses del grupo","origen_materia_prima":"Trigo nacional","estado_operativo":"ACTIVA","ubicacion_texto":"Bs. As. (varias localidades)","localidad":"Tres Arroyos","provincia":"Buenos Aires","notas":"","sin_ubicar":false,"lat":-38.377001,"lon":-60.275568,"precision_ubicacion":"ESTIMADA","metodo_geocodificacion":"Nominatim/OSM: Tres Arroyos, Partido de Tres Arroyos, Buenos Aires, B7500, Argentina (boundary/administrative)","capacidad_estimada":null,"confianza_estimacion":null,"fuente_capacidad_estimada":"DOCUMENTO"}},{"type":"Feature","geometry":{"type":"Point","coordinates":[-62.411696,-37.605171]},"properties":{"id":"IND-MOL-007","empresa":"Molino Cañuelas (Grupo Navilli)","planta":"Planta Pigüé","categoria":"Molinería y Alimentos Básicos a Granel","categoria_cod":"MOL","subsector":"Molinería","tipo":"PLANTA","producto_principal":"Molienda de trigo","capacidad_declarada":"Incluida en el total de 11 plantas bonaerenses del grupo","origen_materia_prima":"Trigo nacional","estado_operativo":"ACTIVA","ubicacion_texto":"Bs. As. (varias localidades)","localidad":"Pigüé","provincia":"Buenos Aires","notas":"","sin_ubicar":false,"lat":-37.605171,"lon":-62.411696,"precision_ubicacion":"EXACTA","metodo_geocodificacion":"Nominatim/OSM: Molino Cañuelas, Ducós, Pigüé, Cuartel II, Partido de Saavedra, Buenos Aires, Argentina (landuse/industrial)","capacidad_estimada":null,"confianza_estimacion":null,"fuente_capacidad_estimada":"DOCUMENTO"}},{"type":"Feature","geometry":{"type":"Point","coordinates":[-60.661702,-32.959361]},"properties":{"id":"IND-MOL-008","empresa":"Molino Cañuelas (Grupo Navilli)","planta":"Planta Rosario","categoria":"Molinería y Alimentos Básicos a Granel","categoria_cod":"MOL","subsector":"Molinería","tipo":"PLANTA","producto_principal":"Molienda de trigo","capacidad_declarada":"Incluida en el total de plantas del grupo","origen_materia_prima":"Trigo nacional","estado_operativo":"ACTIVA","ubicacion_texto":"Rosario y Santa Fe Capital","localidad":"Rosario","provincia":"Santa Fe","notas":"","sin_ubicar":false,"lat":-32.959361,"lon":-60.661702,"precision_ubicacion":"ESTIMADA","metodo_geocodificacion":"Nominatim/OSM: Rosario, Municipio de Rosario, Gran Rosario, Departamento Rosario, Santa Fe, S2000, Argentina (boundary/administrative)","capacidad_estimada":null,"confianza_estimacion":null,"fuente_capacidad_estimada":"DOCUMENTO"}},{"type":"Feature","geometry":{"type":"Point","coordinates":[-60.642856,-31.647491]},"properties":{"id":"IND-MOL-009","empresa":"Molino Cañuelas (Grupo Navilli)","planta":"Planta Santa Fe Capital","categoria":"Molinería y Alimentos Básicos a Granel","categoria_cod":"MOL","subsector":"Molinería","tipo":"PLANTA","producto_principal":"Molienda de trigo","capacidad_declarada":"Incluida en el total de plantas del grupo","origen_materia_prima":"Trigo nacional","estado_operativo":"ACTIVA","ubicacion_texto":"Rosario y Santa Fe Capital","localidad":"Santa Fe","provincia":"Santa Fe","notas":"","sin_ubicar":false,"lat":-31.647491,"lon":-60.642856,"precision_ubicacion":"ESTIMADA","metodo_geocodificacion":"Nominatim/OSM: Santa Fe Capital, Departamento La Capital, Santa Fe, S3000, Argentina (boundary/administrative)","capacidad_estimada":null,"confianza_estimacion":null,"fuente_capacidad_estimada":"DOCUMENTO"}},{"type":"Feature","geometry":{"type":"Point","coordinates":[-58.986508,-27.451143]},"properties":{"id":"IND-MOL-010","empresa":"Molino Cañuelas (Grupo Navilli)","planta":"Planta Resistencia","categoria":"Molinería y Alimentos Básicos a Granel","categoria_cod":"MOL","subsector":"Molinería","tipo":"PLANTA","producto_principal":"Molienda de trigo","capacidad_declarada":"Incluida en el total de plantas del grupo","origen_materia_prima":"Trigo nacional","estado_operativo":"ACTIVA","ubicacion_texto":"Resistencia, Chaco","localidad":"Resistencia","provincia":"Chaco","notas":"","sin_ubicar":false,"lat":-27.451143,"lon":-58.986508,"precision_ubicacion":"ESTIMADA","metodo_geocodificacion":"Nominatim/OSM: Plaza 25 de Mayo de 1810, Resistencia, Municipio de Resistencia, Departamento San Fernando, Chaco, Argentina (leisure/park)","capacidad_estimada":null,"confianza_estimacion":null,"fuente_capacidad_estimada":"DOCUMENTO"}},{"type":"Feature","geometry":{"type":"Point","coordinates":[-64.234563,-35.030159]},"properties":{"id":"IND-MOL-011","empresa":"Molino Cañuelas (Grupo Navilli)","planta":"Planta Realicó","categoria":"Molinería y Alimentos Básicos a Granel","categoria_cod":"MOL","subsector":"Molinería","tipo":"PLANTA","producto_principal":"Molienda de trigo","capacidad_declarada":"Incluida en el total de plantas del grupo","origen_materia_prima":"Trigo nacional","estado_operativo":"ACTIVA","ubicacion_texto":"Realicó, La Pampa","localidad":"Realicó","provincia":"La Pampa","notas":"","sin_ubicar":false,"lat":-35.030159,"lon":-64.234563,"precision_ubicacion":"EXACTA","metodo_geocodificacion":"Nominatim/OSM: Planta Industrial Molino Cañuelas Realicó, Quintas Norte, Realicó, Municipio de Realicó, Departamento Realicó, La Pampa, L6200, Argentina (landuse/industrial)","capacidad_estimada":null,"confianza_estimacion":null,"fuente_capacidad_estimada":"DOCUMENTO"}},{"type":"Feature","geometry":{"type":"Point","coordinates":[-65.410319,-24.789295]},"properties":{"id":"IND-MOL-012","empresa":"Molino Cañuelas (Grupo Navilli)","planta":"Planta Salta Capital","categoria":"Molinería y Alimentos Básicos a Granel","categoria_cod":"MOL","subsector":"Molinería","tipo":"PLANTA","producto_principal":"Molienda de trigo","capacidad_declarada":"Incluida en el total de plantas del grupo","origen_materia_prima":"Trigo nacional","estado_operativo":"ACTIVA","ubicacion_texto":"Salta Capital","localidad":"Salta","provincia":"Salta","notas":"","sin_ubicar":false,"lat":-24.789295,"lon":-65.410319,"precision_ubicacion":"ESTIMADA","metodo_geocodificacion":"Nominatim/OSM: Salta, Capital, Salta, Argentina (boundary/administrative)","capacidad_estimada":null,"confianza_estimacion":null,"fuente_capacidad_estimada":"DOCUMENTO"}},{"type":"Feature","geometry":{"type":"Point","coordinates":[-64.030275,-33.625095]},"properties":{"id":"IND-MOL-013","empresa":"Molino Cañuelas (Grupo Navilli)","planta":"Planta Adelia María","categoria":"Molinería y Alimentos Básicos a Granel","categoria_cod":"MOL","subsector":"Molinería","tipo":"PLANTA","producto_principal":"Molienda de trigo (una de las mayores del país por t/día)","capacidad_declarada":"Entre las 4 mayores plantas harineras del país","origen_materia_prima":"Trigo nacional","estado_operativo":"ACTIVA","ubicacion_texto":"Adelia María, Córdoba","localidad":"Adelia María","provincia":"Córdoba","notas":"","sin_ubicar":false,"lat":-33.625095,"lon":-64.030275,"precision_ubicacion":"EXACTA","metodo_geocodificacion":"Nominatim/OSM: Molino Cañuelas S.A.C.I.F.I.A., Roque Sáenz Peña, Adelia María, Municipio de Adelia María, Pedanía Cautiva, Departamento Río Cuarto, Córdoba, X5800, Argentina (man_made/works)","capacidad_estimada":null,"confianza_estimacion":null,"fuente_capacidad_estimada":"DOCUMENTO"}},{"type":"Feature","geometry":{"type":"Point","coordinates":[-63.390583,-34.128637]},"properties":{"id":"IND-MOL-014","empresa":"Molino Florencia (Grupo Cañuelas)","planta":"Planta Laboulaye","categoria":"Molinería y Alimentos Básicos a Granel","categoria_cod":"MOL","subsector":"Molinería","tipo":"PLANTA","producto_principal":"Harina de trigo","capacidad_declarada":"~720 t/día de molienda","origen_materia_prima":"Trigo nacional","estado_operativo":"ACTIVA","ubicacion_texto":"Laboulaye, Córdoba","localidad":"Laboulaye","provincia":"Córdoba","notas":"","sin_ubicar":false,"lat":-34.128637,"lon":-63.390583,"precision_ubicacion":"ESTIMADA","metodo_geocodificacion":"Nominatim/OSM: Municipio de Laboulaye, Pedanía La Amarga, Departamento Presidente Roque Sáenz Peña, Córdoba, X6120, Argentina (boundary/administrative)","capacidad_estimada":null,"confianza_estimacion":null,"fuente_capacidad_estimada":"DOCUMENTO"}},{"type":"Feature","geometry":{"type":"Point","coordinates":[-64.183419,-31.416687]},"properties":{"id":"IND-MOL-015","empresa":"Molino Florencia (Grupo Cañuelas)","planta":"Planta Córdoba Capital","categoria":"Molinería y Alimentos Básicos a Granel","categoria_cod":"MOL","subsector":"Molinería","tipo":"PLANTA","producto_principal":"Harina de trigo","capacidad_declarada":"Sin dato público oficial","origen_materia_prima":"Trigo nacional","estado_operativo":"ACTIVA","ubicacion_texto":"Córdoba Capital","localidad":"Córdoba","provincia":"Córdoba","notas":"","sin_ubicar":false,"lat":-31.416687,"lon":-64.183419,"precision_ubicacion":"ESTIMADA","metodo_geocodificacion":"Nominatim/OSM: Córdoba, Municipio de Córdoba, Pedanía Capital, Departamento Capital, Córdoba, X5000, Argentina (boundary/administrative)","capacidad_estimada":"Grupo Molino Cañuelas + Molinos Florencia: 130.000-140.000 t/mes de harina de trigo en conjunto (30% de la producción nacional); sin cifra específica para Córdoba Capital","confianza_estimacion":"BAJA","fuente_capacidad_estimada":"ESTIMACION_EXTERNA: infonegocios.info ('Molino Cañuelas, un gigante nacido en el sur cordobés') y molinocanuelas.com/florencia; la única cifra de planta (720 t/día) corresponde a Laboulaye."}},{"type":"Feature","geometry":{"type":"Point","coordinates":[-59.02451,-34.095471]},"properties":{"id":"IND-MOL-016","empresa":"Molino Cañuelas (Grupo Navilli)","planta":"Terminal Las Palmas (puerto propio)","categoria":"Molinería y Alimentos Básicos a Granel","categoria_cod":"MOL","subsector":"Puerto cerealero","tipo":"PUERTO","producto_principal":"Puerto cerealero y de carga general (exportación)","capacidad_declarada":"Sin dato público oficial","origen_materia_prima":"Sin dato público oficial","estado_operativo":"ACTIVA","ubicacion_texto":"Zárate, Bs. As. (predio de 85 ha sobre el Paraná de las Palmas)","localidad":"Zárate","provincia":"Buenos Aires","notas":"","sin_ubicar":false,"lat":-34.095471,"lon":-59.02451,"precision_ubicacion":"ESTIMADA","metodo_geocodificacion":"Nominatim/OSM: Zárate, Partido de Zárate, Buenos Aires, 2800, Argentina (place/city)","capacidad_estimada":null,"confianza_estimacion":null,"fuente_capacidad_estimada":"NO_DISPONIBLE"}},{"type":"Feature","geometry":{"type":"Point","coordinates":[-58.976984,-34.400247]},"properties":{"id":"IND-MOL-017","empresa":"Cargill SACI","planta":"Planta Pilar","categoria":"Molinería y Alimentos Básicos a Granel","categoria_cod":"MOL","subsector":"Molinería","tipo":"PLANTA","producto_principal":"Molienda de trigo","capacidad_declarada":"1.400 t/día — el molino más grande del país","origen_materia_prima":"Trigo nacional","estado_operativo":"ACTIVA","ubicacion_texto":"Pilar, Bs. As.","localidad":"Pilar","provincia":"Buenos Aires","notas":"","sin_ubicar":false,"lat":-34.400247,"lon":-58.976984,"precision_ubicacion":"EXACTA","metodo_geocodificacion":"Nominatim/OSM: Cargill Pilar, 3467, Calle 9, Parque industrial Pilar, Fátima, Partido del Pilar, Buenos Aires, B1629MXA, Argentina (man_made/works)","capacidad_estimada":null,"confianza_estimacion":null,"fuente_capacidad_estimada":"DOCUMENTO"}},{"type":"Feature","geometry":{"type":"Point","coordinates":[-64.219883,-31.449128]},"properties":{"id":"IND-MOL-018","empresa":"José Minetti y Cía. Ltda.","planta":"Planta Córdoba","categoria":"Molinería y Alimentos Básicos a Granel","categoria_cod":"MOL","subsector":"Molinería","tipo":"PLANTA","producto_principal":"Molienda de trigo","capacidad_declarada":"820 t/día","origen_materia_prima":"Trigo nacional","estado_operativo":"ACTIVA","ubicacion_texto":"Córdoba Capital","localidad":"Córdoba","provincia":"Córdoba","notas":"","sin_ubicar":false,"lat":-31.449128,"lon":-64.219883,"precision_ubicacion":"EXACTA","metodo_geocodificacion":"Nominatim/OSM: Molino José Minetti, Villa La Lonja, SMATA, Córdoba, Municipio de Córdoba, Pedanía Capital, Departamento Capital, Córdoba, X5000, Argentina (landuse/industrial)","capacidad_estimada":null,"confianza_estimacion":null,"fuente_capacidad_estimada":"DOCUMENTO"}},{"type":"Feature","geometry":{"type":"Point","coordinates":[-58.362207,-34.610376]},"properties":{"id":"IND-MOL-019","empresa":"Molinos Río de la Plata","planta":"Planta histórica Puerto Madero","categoria":"Molinería y Alimentos Básicos a Granel","categoria_cod":"MOL","subsector":"Molinería","tipo":"PLANTA","producto_principal":"Molienda de trigo (origen histórico; verificar operación actual)","capacidad_declarada":"Molinos participa con ~35-38% de la molienda de trigo candeal","origen_materia_prima":"Trigo nacional","estado_operativo":"ACTIVA","ubicacion_texto":"Dique III, Puerto Madero, CABA","localidad":"Puerto Madero","provincia":"Ciudad Autónoma de Buenos Aires","notas":"Origen 1902. El propio documento sugiere verificar si la molienda sigue operativa en el sitio.","sin_ubicar":false,"lat":-34.610376,"lon":-58.362207,"precision_ubicacion":"ESTIMADA","metodo_geocodificacion":"Nominatim/OSM: Puerto Madero, Buenos Aires, Comuna 1, Ciudad Autónoma de Buenos Aires, Argentina (boundary/administrative)","capacidad_estimada":null,"confianza_estimacion":null,"fuente_capacidad_estimada":"DOCUMENTO"}},{"type":"Feature","geometry":{"type":"Point","coordinates":[-62.265487,-38.717652]},"properties":{"id":"IND-MOL-020","empresa":"Compañía Molinera del Sur SACEI","planta":"Planta Bahía Blanca","categoria":"Molinería y Alimentos Básicos a Granel","categoria_cod":"MOL","subsector":"Molinería","tipo":"PLANTA","producto_principal":"Molienda de trigo candeal","capacidad_declarada":"~26-27% de participación en trigo candeal (6.500-7.000 t/mes)","origen_materia_prima":"Trigo candeal del sur bonaerense","estado_operativo":"ACTIVA","ubicacion_texto":"Bahía Blanca, Bs. As.","localidad":"Bahía Blanca","provincia":"Buenos Aires","notas":"","sin_ubicar":false,"lat":-38.717652,"lon":-62.265487,"precision_ubicacion":"ESTIMADA","metodo_geocodificacion":"Nominatim/OSM: Bahía Blanca, Cuartel I, Partido de Bahía Blanca, Buenos Aires, Argentina (boundary/administrative)","capacidad_estimada":null,"confianza_estimacion":null,"fuente_capacidad_estimada":"DOCUMENTO"}},{"type":"Feature","geometry":{"type":"Point","coordinates":[-60.275568,-38.377001]},"properties":{"id":"IND-MOL-021","empresa":"Molino Tres Arroyos","planta":"Planta Tres Arroyos","categoria":"Molinería y Alimentos Básicos a Granel","categoria_cod":"MOL","subsector":"Molinería","tipo":"PLANTA","producto_principal":"Molienda de trigo candeal","capacidad_declarada":"~12-13% de participación en trigo candeal (3.500-3.800 t/mes)","origen_materia_prima":"Trigo candeal","estado_operativo":"ACTIVA","ubicacion_texto":"Tres Arroyos, Bs. As.","localidad":"Tres Arroyos","provincia":"Buenos Aires","notas":"La consulta por nombre de planta resolvía a otro molino del partido (Micaela Cascallares); se usa el centroide de la ciudad.","sin_ubicar":false,"lat":-38.377001,"lon":-60.275568,"precision_ubicacion":"ESTIMADA","metodo_geocodificacion":"Nominatim/OSM: Tres Arroyos, Partido de Tres Arroyos, Buenos Aires, B7500, Argentina (boundary/administrative)","capacidad_estimada":null,"confianza_estimacion":null,"fuente_capacidad_estimada":"DOCUMENTO"}},{"type":"Feature","geometry":{"type":"Point","coordinates":[-60.743091,-32.745486]},"properties":{"id":"IND-MOL-022","empresa":"Nodos Up-River (acopio y molienda de granos)","planta":"Terminales portuarias Up-River","categoria":"Molinería y Alimentos Básicos a Granel","categoria_cod":"MOL","subsector":"Agroexportación","tipo":"POLO_REGIONAL","producto_principal":"Acopio, molienda y exportación de granos y subproductos","capacidad_declarada":"Mayor polo agroexportador de granos y oleaginosas del país","origen_materia_prima":"Soja, maíz, trigo del área núcleo pampeana","estado_operativo":"ACTIVA","ubicacion_texto":"San Lorenzo, Puerto General San Martín y Timbúes, Santa Fe","localidad":"San Lorenzo","provincia":"Santa Fe","notas":"Nodo regional agregado (San Lorenzo - Puerto General San Martín - Timbúes), referenciado en San Lorenzo.","sin_ubicar":false,"lat":-32.745486,"lon":-60.743091,"precision_ubicacion":"ESTIMADA","metodo_geocodificacion":"Nominatim/OSM: San Lorenzo, Municipio de San Lorenzo, Gran Rosario, Departamento San Lorenzo, Santa Fe, Argentina (boundary/administrative)","capacidad_estimada":null,"confianza_estimacion":null,"fuente_capacidad_estimada":"DOCUMENTO"}},{"type":"Feature","geometry":{"type":"Point","coordinates":[-61.491676,-31.252692]},"properties":{"id":"IND-MOL-023","empresa":"Cuenca lechera Santa Fe centro","planta":"Polo de usinas lácteas","categoria":"Molinería y Alimentos Básicos a Granel","categoria_cod":"MOL","subsector":"Lácteos","tipo":"POLO_REGIONAL","producto_principal":"Leche fluida y productos lácteos","capacidad_declarada":"Una de las tres principales cuencas lecheras del país","origen_materia_prima":"Leche de tambos de la región","estado_operativo":"ACTIVA","ubicacion_texto":"Zona centro de Santa Fe (Rafaela y alrededores)","localidad":"Rafaela","provincia":"Santa Fe","notas":"Nodo regional agregado, referenciado en Rafaela.","sin_ubicar":false,"lat":-31.252692,"lon":-61.491676,"precision_ubicacion":"ESTIMADA","metodo_geocodificacion":"Nominatim/OSM: Rafaela, Municipio de Rafaela, Departamento Castellanos, Santa Fe, S2300, Argentina (boundary/administrative)","capacidad_estimada":null,"confianza_estimacion":null,"fuente_capacidad_estimada":"DOCUMENTO"}},{"type":"Feature","geometry":{"type":"Point","coordinates":[-63.243581,-32.410624]},"properties":{"id":"IND-MOL-024","empresa":"Cuenca lechera Córdoba este","planta":"Polo de usinas lácteas","categoria":"Molinería y Alimentos Básicos a Granel","categoria_cod":"MOL","subsector":"Lácteos","tipo":"POLO_REGIONAL","producto_principal":"Leche fluida y productos lácteos","capacidad_declarada":"Sin dato público oficial","origen_materia_prima":"Leche de tambos de la región","estado_operativo":"ACTIVA","ubicacion_texto":"Este de Córdoba (Villa María, San Francisco y alrededores)","localidad":"Villa María","provincia":"Córdoba","notas":"Nodo regional agregado, referenciado en Villa María.","sin_ubicar":false,"lat":-32.410624,"lon":-63.243581,"precision_ubicacion":"ESTIMADA","metodo_geocodificacion":"Nominatim/OSM: Villa María, Municipio de Villa María, Pedanía Villa María, Departamento General San Martín, Córdoba, X5900, Argentina (boundary/administrative)","capacidad_estimada":null,"confianza_estimacion":null,"fuente_capacidad_estimada":"NO_DISPONIBLE"}},{"type":"Feature","geometry":{"type":"Point","coordinates":[-58.761738,-35.054025]},"properties":{"id":"IND-MOL-025","empresa":"Cuenca lechera Buenos Aires (abasto y oeste)","planta":"Polo de usinas lácteas","categoria":"Molinería y Alimentos Básicos a Granel","categoria_cod":"MOL","subsector":"Lácteos","tipo":"POLO_REGIONAL","producto_principal":"Leche fluida y productos lácteos","capacidad_declarada":"Sin dato público oficial","origen_materia_prima":"Leche de tambos de la región","estado_operativo":"ACTIVA","ubicacion_texto":"Oeste bonaerense y cuenca de abasto (Cañuelas, Chascomús, Lincoln, etc.)","localidad":"Cañuelas","provincia":"Buenos Aires","notas":"Nodo regional agregado, referenciado en Cañuelas.","sin_ubicar":false,"lat":-35.054025,"lon":-58.761738,"precision_ubicacion":"ESTIMADA","metodo_geocodificacion":"Nominatim/OSM: Cañuelas, Partido de Cañuelas, Buenos Aires, Argentina (boundary/administrative)","capacidad_estimada":null,"confianza_estimacion":null,"fuente_capacidad_estimada":"NO_DISPONIBLE"}},{"type":"Feature","geometry":{"type":"Point","coordinates":[-58.952259,-34.594324]},"properties":{"id":"IND-MOL-026","empresa":"Mastellone Hnos. S.A. (La Serenísima)","planta":"Complejo Industrial Pascual Mastellone","categoria":"Molinería y Alimentos Básicos a Granel","categoria_cod":"MOL","subsector":"Lácteos","tipo":"PLANTA","producto_principal":"Leche fluida, yogures, postres (planta insignia del grupo)","capacidad_declarada":"Grupo recibe 3.500.000 litros/día a nivel nacional","origen_materia_prima":"Leche de tambos del corredor bonaerense","estado_operativo":"ACTIVA","ubicacion_texto":"Almirante Brown 957, General Rodríguez, Bs. As. (52 km de CABA)","localidad":"General Rodríguez","provincia":"Buenos Aires","notas":"Bajo control conjunto Arcor/Danone.","sin_ubicar":false,"lat":-34.594324,"lon":-58.952259,"precision_ubicacion":"EXACTA","metodo_geocodificacion":"Nominatim/OSM: La Serenísima, Parque Irigoyen, General Rodríguez, Partido de General Rodríguez, Buenos Aires, Argentina (landuse/industrial)","capacidad_estimada":null,"confianza_estimacion":null,"fuente_capacidad_estimada":"DOCUMENTO"}},{"type":"Feature","geometry":{"type":"Point","coordinates":[-58.388146,-34.85803]},"properties":{"id":"IND-MOL-027","empresa":"Mastellone Hnos. S.A. (La Serenísima)","planta":"Planta Longchamps","categoria":"Molinería y Alimentos Básicos a Granel","categoria_cod":"MOL","subsector":"Lácteos","tipo":"PLANTA","producto_principal":"Productos lácteos","capacidad_declarada":"Incluida en el total del grupo","origen_materia_prima":"Leche de tambos bonaerenses","estado_operativo":"ACTIVA","ubicacion_texto":"Longchamps, Bs. As.","localidad":"Longchamps","provincia":"Buenos Aires","notas":"","sin_ubicar":false,"lat":-34.85803,"lon":-58.388146,"precision_ubicacion":"ESTIMADA","metodo_geocodificacion":"Nominatim/OSM: Longchamps, Partido de Almirante Brown, Buenos Aires, Argentina (boundary/administrative)","capacidad_estimada":null,"confianza_estimacion":null,"fuente_capacidad_estimada":"DOCUMENTO"}},{"type":"Feature","geometry":{"type":"Point","coordinates":[-62.732879,-35.973107]},"properties":{"id":"IND-MOL-028","empresa":"Mastellone Hnos. S.A. (La Serenísima)","planta":"Planta Trenque Lauquen","categoria":"Molinería y Alimentos Básicos a Granel","categoria_cod":"MOL","subsector":"Lácteos","tipo":"PLANTA","producto_principal":"Productos lácteos","capacidad_declarada":"Incluida en el total del grupo","origen_materia_prima":"Leche de tambos del oeste bonaerense","estado_operativo":"ACTIVA","ubicacion_texto":"Trenque Lauquen, Bs. As.","localidad":"Trenque Lauquen","provincia":"Buenos Aires","notas":"","sin_ubicar":false,"lat":-35.973107,"lon":-62.732879,"precision_ubicacion":"ESTIMADA","metodo_geocodificacion":"Nominatim/OSM: Trenque Lauquen, Partido de Trenque Lauquen, Buenos Aires, Argentina (boundary/administrative)","capacidad_estimada":null,"confianza_estimacion":null,"fuente_capacidad_estimada":"DOCUMENTO"}},{"type":"Feature","geometry":{"type":"Point","coordinates":[-63.039867,-36.872184]},"properties":{"id":"IND-MOL-029","empresa":"Mastellone Hnos. S.A. (La Serenísima)","planta":"Planta Leubucó","categoria":"Molinería y Alimentos Básicos a Granel","categoria_cod":"MOL","subsector":"Lácteos","tipo":"PLANTA","producto_principal":"Productos lácteos","capacidad_declarada":"Incluida en el total del grupo","origen_materia_prima":"Leche de tambos bonaerenses","estado_operativo":"ACTIVA","ubicacion_texto":"Leubucó, Bs. As.","localidad":"Leubucó","provincia":"Buenos Aires","notas":"El documento no consigna el partido; OSM resuelve el paraje Leubucó en el partido de Adolfo Alsina.","sin_ubicar":false,"lat":-36.872184,"lon":-63.039867,"precision_ubicacion":"EXACTA","metodo_geocodificacion":"Nominatim/OSM: Leubucó, Partido de Adolfo Alsina, Buenos Aires, Argentina (place/hamlet)","capacidad_estimada":null,"confianza_estimacion":null,"fuente_capacidad_estimada":"DOCUMENTO"}},{"type":"Feature","geometry":{"type":"Point","coordinates":[-59.135696,-37.328289]},"properties":{"id":"IND-MOL-030","empresa":"Mastellone Hnos. S.A. (La Serenísima)","planta":"Planta Tandil","categoria":"Molinería y Alimentos Básicos a Granel","categoria_cod":"MOL","subsector":"Lácteos","tipo":"PLANTA","producto_principal":"Productos lácteos","capacidad_declarada":"Incluida en el total del grupo","origen_materia_prima":"Leche de tambos bonaerenses","estado_operativo":"ACTIVA","ubicacion_texto":"Tandil, Bs. As.","localidad":"Tandil","provincia":"Buenos Aires","notas":"","sin_ubicar":false,"lat":-37.328289,"lon":-59.135696,"precision_ubicacion":"ESTIMADA","metodo_geocodificacion":"Nominatim/OSM: Tandil, Partido de Tandil, Buenos Aires, Argentina (boundary/administrative)","capacidad_estimada":null,"confianza_estimacion":null,"fuente_capacidad_estimada":"DOCUMENTO"}},{"type":"Feature","geometry":{"type":"Point","coordinates":[-62.859152,-33.589224]},"properties":{"id":"IND-MOL-031","empresa":"Mastellone Hnos. S.A. (La Serenísima)","planta":"Planta Canals","categoria":"Molinería y Alimentos Básicos a Granel","categoria_cod":"MOL","subsector":"Lácteos","tipo":"PLANTA","producto_principal":"Productos lácteos","capacidad_declarada":"Incluida en el total del grupo","origen_materia_prima":"Leche de tambos cordobeses","estado_operativo":"ACTIVA","ubicacion_texto":"Canals, Córdoba","localidad":"Canals","provincia":"Córdoba","notas":"","sin_ubicar":false,"lat":-33.589224,"lon":-62.859152,"precision_ubicacion":"EXACTA","metodo_geocodificacion":"Nominatim/OSM: Mastellone Hermanos, T-34-07, Municipio de Canals, Pedanía Loboy, Departamento Unión, Córdoba, X2550, Argentina (building/yes)","capacidad_estimada":null,"confianza_estimacion":null,"fuente_capacidad_estimada":"DOCUMENTO"}},{"type":"Feature","geometry":{"type":"Point","coordinates":[-65.548658,-33.631345]},"properties":{"id":"IND-MOL-032","empresa":"Mastellone Hnos. S.A. (La Serenísima)","planta":"Planta Villa Mercedes","categoria":"Molinería y Alimentos Básicos a Granel","categoria_cod":"MOL","subsector":"Lácteos","tipo":"PLANTA","producto_principal":"Productos lácteos","capacidad_declarada":"Incluida en el total del grupo","origen_materia_prima":"Leche de tambos regionales","estado_operativo":"ACTIVA","ubicacion_texto":"Villa Mercedes, San Luis","localidad":"Villa Mercedes","provincia":"San Luis","notas":"","sin_ubicar":false,"lat":-33.631345,"lon":-65.548658,"precision_ubicacion":"EXACTA","metodo_geocodificacion":"Nominatim/OSM: Mastellone San Luis, Camino Interfábrica, Altos de Chacabuco, Ciudad Jardín I, Municipio de Villa Mercedes, General Pedernera, San Luis, Argentina (building/industrial)","capacidad_estimada":null,"confianza_estimacion":null,"fuente_capacidad_estimada":"DOCUMENTO"}},{"type":"Feature","geometry":{"type":"Point","coordinates":[-58.647972,-34.962257]},"properties":{"id":"IND-MOL-033","empresa":"Mastellone Hnos. S.A. (La Serenísima)","planta":"Planta histórica La Martona (ex Vicente Casares)","categoria":"Molinería y Alimentos Básicos a Granel","categoria_cod":"MOL","subsector":"Lácteos","tipo":"PLANTA","producto_principal":"Marca histórica (primera láctea argentina, 1889; adquirida en 1978)","capacidad_declarada":"Sin dato público oficial","origen_materia_prima":"Sin dato público oficial","estado_operativo":"ACTIVA","ubicacion_texto":"Vicente Casares, Cañuelas, Bs. As.","localidad":"Vicente Casares","provincia":"Buenos Aires","notas":"Valor patrimonial de marca; el pueblo de Vicente Casares nació alrededor de la usina.","sin_ubicar":false,"lat":-34.962257,"lon":-58.647972,"precision_ubicacion":"EXACTA","metodo_geocodificacion":"Nominatim/OSM: Vicente Casares, Ruta Provincial 205, Partido de Cañuelas, Buenos Aires, 1808, Argentina (railway/station)","capacidad_estimada":null,"confianza_estimacion":null,"fuente_capacidad_estimada":"NO_DISPONIBLE"}},{"type":"Feature","geometry":{"type":"Point","coordinates":[-61.560807,-30.945089]},"properties":{"id":"IND-MOL-034","empresa":"SanCor Cooperativas Unidas Ltda.","planta":"Planta Sunchales (sede central)","categoria":"Molinería y Alimentos Básicos a Granel","categoria_cod":"MOL","subsector":"Lácteos","tipo":"PLANTA","producto_principal":"Leche UAT, leche en polvo, dulce de leche (llegó a procesar 2.000.000 l/día; hoy <10% de utilización)","capacidad_declarada":"Valuada en US$2,4M (subasta 2026)","origen_materia_prima":"Leche de tambos de Santa Fe/Córdoba","estado_operativo":"EN_QUIEBRA/SUBASTA","ubicacion_texto":"Sunchales, Santa Fe","localidad":"Sunchales","provincia":"Santa Fe","notas":"En quiebra desde 2026; subasta judicial en curso (base US$52,1M por 6 plantas + marcas).","sin_ubicar":false,"lat":-30.945089,"lon":-61.560807,"precision_ubicacion":"ESTIMADA","metodo_geocodificacion":"Nominatim/OSM: Municipio de Sunchales, Departamento Castellanos, Santa Fe, Argentina (boundary/administrative)","capacidad_estimada":null,"confianza_estimacion":null,"fuente_capacidad_estimada":"DOCUMENTO"}},{"type":"Feature","geometry":{"type":"Point","coordinates":[-61.215409,-32.041639]},"properties":{"id":"IND-MOL-035","empresa":"SanCor Cooperativas Unidas Ltda.","planta":"Planta Gálvez","categoria":"Molinería y Alimentos Básicos a Granel","categoria_cod":"MOL","subsector":"Lácteos","tipo":"PLANTA","producto_principal":"Maduración y fraccionamiento/empaque de quesos","capacidad_declarada":"Valuada en US$5,5M (subasta 2026)","origen_materia_prima":"Leche de tambos regionales","estado_operativo":"EN_QUIEBRA/SUBASTA","ubicacion_texto":"Gálvez, Santa Fe","localidad":"Gálvez","provincia":"Santa Fe","notas":"","sin_ubicar":false,"lat":-32.041639,"lon":-61.215409,"precision_ubicacion":"EXACTA","metodo_geocodificacion":"Nominatim/OSM: Sancor cooperativa limitada, 450, Bulevar Argentino, Florida, Gálvez, Municipio de Gálvez, Departamento San Jerónimo, Santa Fe, S2252, Argentina (man_made/works)","capacidad_estimada":null,"confianza_estimacion":null,"fuente_capacidad_estimada":"DOCUMENTO"}},{"type":"Feature","geometry":{"type":"Point","coordinates":[-61.924112,-30.363067]},"properties":{"id":"IND-MOL-036","empresa":"SanCor Cooperativas Unidas Ltda.","planta":"Planta San Guillermo","categoria":"Molinería y Alimentos Básicos a Granel","categoria_cod":"MOL","subsector":"Lácteos","tipo":"PLANTA","producto_principal":"Queso en barra y mozzarella","capacidad_declarada":"Valuada en US$2,5M (subasta 2026); paralizada desde dic. 2025","origen_materia_prima":"Leche de tambos regionales","estado_operativo":"EN_QUIEBRA/SUBASTA","ubicacion_texto":"San Guillermo, Depto. San Cristóbal, Santa Fe","localidad":"San Guillermo","provincia":"Santa Fe","notas":"","sin_ubicar":false,"lat":-30.363067,"lon":-61.924112,"precision_ubicacion":"EXACTA","metodo_geocodificacion":"Nominatim/OSM: Sancor, Presidente General Roca, Municipio de San Guillermo, Departamento San Cristóbal, Santa Fe, 2347, Argentina (man_made/works)","capacidad_estimada":null,"confianza_estimacion":null,"fuente_capacidad_estimada":"DOCUMENTO"}},{"type":"Feature","geometry":{"type":"Point","coordinates":[-62.290809,-31.405361]},"properties":{"id":"IND-MOL-037","empresa":"SanCor Cooperativas Unidas Ltda.","planta":"Planta Devoto","categoria":"Molinería y Alimentos Básicos a Granel","categoria_cod":"MOL","subsector":"Lácteos","tipo":"PLANTA","producto_principal":"Crema, manteca y queso untable (Mendicrim)","capacidad_declarada":"Valuada en US$7M (subasta 2026)","origen_materia_prima":"Leche de tambos cordobeses","estado_operativo":"EN_QUIEBRA/SUBASTA","ubicacion_texto":"Devoto, Córdoba","localidad":"Devoto","provincia":"Córdoba","notas":"","sin_ubicar":false,"lat":-31.405361,"lon":-62.290809,"precision_ubicacion":"EXACTA","metodo_geocodificacion":"Nominatim/OSM: Industria Láctea SanCor, Bulevar 25 de Mayo, Municipio de Devoto, Pedanía Juárez Celman, Departamento San Justo, Córdoba, X2400, Argentina (man_made/works)","capacidad_estimada":null,"confianza_estimacion":null,"fuente_capacidad_estimada":"DOCUMENTO"}},{"type":"Feature","geometry":{"type":"Point","coordinates":[-62.665413,-31.012826]},"properties":{"id":"IND-MOL-038","empresa":"SanCor Cooperativas Unidas Ltda.","planta":"Planta Balnearia","categoria":"Molinería y Alimentos Básicos a Granel","categoria_cod":"MOL","subsector":"Lácteos","tipo":"PLANTA","producto_principal":"Quesos semiduros (pategrás, danbo, fontina, sardo)","capacidad_declarada":"Valuada en US$5M (subasta 2026)","origen_materia_prima":"Leche de tambos cordobeses","estado_operativo":"EN_QUIEBRA/SUBASTA","ubicacion_texto":"Balnearia, Córdoba","localidad":"Balnearia","provincia":"Córdoba","notas":"","sin_ubicar":false,"lat":-31.012826,"lon":-62.665413,"precision_ubicacion":"ESTIMADA","metodo_geocodificacion":"Nominatim/OSM: Balnearia, Municipio de Balnearia, Pedanía Concepción, Departamento San Justo, Córdoba, X2400, Argentina (boundary/administrative)","capacidad_estimada":null,"confianza_estimacion":null,"fuente_capacidad_estimada":"DOCUMENTO"}},{"type":"Feature","geometry":{"type":"Point","coordinates":[-63.293495,-33.417936]},"properties":{"id":"IND-MOL-039","empresa":"SanCor Cooperativas Unidas Ltda.","planta":"Planta La Carlota","categoria":"Molinería y Alimentos Básicos a Granel","categoria_cod":"MOL","subsector":"Lácteos","tipo":"PLANTA","producto_principal":"Quesos duros y de rallar","capacidad_declarada":"Valuada en US$5M (subasta 2026)","origen_materia_prima":"Leche de tambos cordobeses","estado_operativo":"EN_QUIEBRA/SUBASTA","ubicacion_texto":"La Carlota, Córdoba","localidad":"La Carlota","provincia":"Córdoba","notas":"","sin_ubicar":false,"lat":-33.417936,"lon":-63.293495,"precision_ubicacion":"ESTIMADA","metodo_geocodificacion":"Nominatim/OSM: La Carlota, Municipio de La Carlota, Pedanía La Carlota, Departamento Juárez Celman, Córdoba, X2670, Argentina (boundary/administrative)","capacidad_estimada":null,"confianza_estimacion":null,"fuente_capacidad_estimada":"DOCUMENTO"}},{"type":"Feature","geometry":{"type":"Point","coordinates":[-60.007572,-34.936462]},"properties":{"id":"IND-MOL-040","empresa":"Adecoagro (Grupo Lácteo)","planta":"Planta Chivilcoy (ex SanCor)","categoria":"Molinería y Alimentos Básicos a Granel","categoria_cod":"MOL","subsector":"Lácteos","tipo":"PLANTA","producto_principal":"Productos lácteos (marcas Las Tres Niñas, Angelita, Apóstoles)","capacidad_declarada":"1.100.000 litros/día de recepción a nivel grupo","origen_materia_prima":"Leche de tambos propios y de terceros","estado_operativo":"ACTIVA","ubicacion_texto":"Chivilcoy, Bs. As.","localidad":"Chivilcoy","provincia":"Buenos Aires","notas":"Comprada a SanCor en 2018 (operación conjunta con Morteros, US$45M).","sin_ubicar":false,"lat":-34.936462,"lon":-60.007572,"precision_ubicacion":"EXACTA","metodo_geocodificacion":"Nominatim/OSM: Adecoagro, Chivilcoy, Partido de Chivilcoy, Buenos Aires, Argentina (landuse/industrial)","capacidad_estimada":null,"confianza_estimacion":null,"fuente_capacidad_estimada":"DOCUMENTO"}},{"type":"Feature","geometry":{"type":"Point","coordinates":[-62.006706,-30.710704]},"properties":{"id":"IND-MOL-041","empresa":"Adecoagro (Grupo Lácteo)","planta":"Planta Morteros (ex SanCor)","categoria":"Molinería y Alimentos Básicos a Granel","categoria_cod":"MOL","subsector":"Lácteos","tipo":"PLANTA","producto_principal":"Productos lácteos","capacidad_declarada":"Incluida en el total del grupo","origen_materia_prima":"Leche de tambos regionales","estado_operativo":"ACTIVA","ubicacion_texto":"Morteros, Córdoba","localidad":"Morteros","provincia":"Córdoba","notas":"Comprada a SanCor en 2018 (operación conjunta con Chivilcoy, US$45M).","sin_ubicar":false,"lat":-30.710704,"lon":-62.006706,"precision_ubicacion":"ESTIMADA","metodo_geocodificacion":"Nominatim/OSM: Morteros, Municipio de Morteros, Pedanía Libertad, Departamento San Justo, Córdoba, X2421, Argentina (boundary/administrative)","capacidad_estimada":null,"confianza_estimacion":null,"fuente_capacidad_estimada":"DOCUMENTO"}},{"type":"Feature","geometry":{"type":"Point","coordinates":[-60.932471,-31.586866]},"properties":{"id":"IND-MOL-042","empresa":"Savencia Fromage & Dairy (ex Bongrain) — Milkaut","planta":"Planta Milkaut — Franck","categoria":"Molinería y Alimentos Básicos a Granel","categoria_cod":"MOL","subsector":"Lácteos","tipo":"PLANTA","producto_principal":"Quesos, leche en polvo y derivados","capacidad_declarada":"Grupo recibe 1.700.000 litros/día a nivel nacional","origen_materia_prima":"Leche de tambos santafesinos","estado_operativo":"ACTIVA","ubicacion_texto":"Franck, Santa Fe","localidad":"Franck","provincia":"Santa Fe","notas":"","sin_ubicar":false,"lat":-31.586866,"lon":-60.932471,"precision_ubicacion":"EXACTA","metodo_geocodificacion":"Nominatim/OSM: Milkaut, 1602, Sarmiento, Franck, Municipio de Franck, Departamento Las Colonias, Santa Fe, S3009, Argentina (man_made/works)","capacidad_estimada":null,"confianza_estimacion":null,"fuente_capacidad_estimada":"DOCUMENTO"}},{"type":"Feature","geometry":{"type":"Point","coordinates":[-61.491676,-31.252692]},"properties":{"id":"IND-MOL-043","empresa":"Savencia Fromage & Dairy — Ilolay (ex Suc. de Alfredo Williner)","planta":"Planta Ilolay — Rafaela","categoria":"Molinería y Alimentos Básicos a Granel","categoria_cod":"MOL","subsector":"Lácteos","tipo":"PLANTA","producto_principal":"Quesos, yogures, leche larga vida y en polvo (25% de ventas al exterior)","capacidad_declarada":"Incluida en el total del grupo Savencia","origen_materia_prima":"Leche de tambos santafesinos","estado_operativo":"ACTIVA","ubicacion_texto":"Rafaela, Santa Fe","localidad":"Rafaela","provincia":"Santa Fe","notas":"","sin_ubicar":false,"lat":-31.252692,"lon":-61.491676,"precision_ubicacion":"ESTIMADA","metodo_geocodificacion":"Nominatim/OSM: Rafaela, Municipio de Rafaela, Departamento Castellanos, Santa Fe, S2300, Argentina (boundary/administrative)","capacidad_estimada":null,"confianza_estimacion":null,"fuente_capacidad_estimada":"DOCUMENTO"}},{"type":"Feature","geometry":{"type":"Point","coordinates":[-61.491676,-31.252692]},"properties":{"id":"IND-MOL-044","empresa":"Saputo Argentina (canadiense, ex Vicentín/CityLab)","planta":"Planta Rafaela","categoria":"Molinería y Alimentos Básicos a Granel","categoria_cod":"MOL","subsector":"Lácteos","tipo":"PLANTA","producto_principal":"Productos lácteos","capacidad_declarada":"Líder del ranking 2025-2026: 3.800.000 litros/día de recepción","origen_materia_prima":"Leche de tambos santafesinos","estado_operativo":"ACTIVA","ubicacion_texto":"Rafaela, Santa Fe","localidad":"Rafaela","provincia":"Santa Fe","notas":"","sin_ubicar":false,"lat":-31.252692,"lon":-61.491676,"precision_ubicacion":"ESTIMADA","metodo_geocodificacion":"Nominatim/OSM: Rafaela, Municipio de Rafaela, Departamento Castellanos, Santa Fe, S2300, Argentina (boundary/administrative)","capacidad_estimada":null,"confianza_estimacion":null,"fuente_capacidad_estimada":"DOCUMENTO"}},{"type":"Feature","geometry":{"type":"Point","coordinates":[-63.463883,-32.164132]},"properties":{"id":"IND-MOL-045","empresa":"Punta del Agua S.A.","planta":"Planta Punta del Agua","categoria":"Molinería y Alimentos Básicos a Granel","categoria_cod":"MOL","subsector":"Lácteos","tipo":"PLANTA","producto_principal":"Productos lácteos","capacidad_declarada":"1.300.000 litros/día de recepción","origen_materia_prima":"Leche de tambos cordobeses","estado_operativo":"ACTIVA","ubicacion_texto":"Córdoba (zona a confirmar)","localidad":"Punta del Agua","provincia":"Córdoba","notas":"Grupo cordobés; el documento marca la zona como no confirmada. La coordenada corresponde al paraje Punta del Agua (Depto. Río Cuarto) y debe verificarse contra la empresa. Ubicación aportada por investigación externa (capacidades_estimadas.json): Planta industrial en James Craik, Córdoba (Bv. San Martín esq. Salta); sede administrativa en Villa María. Fuentes: https://cordobainteriorinforma.com/2019/03/27/en-james-craik-avanzan-las-obras-de-la-futura-planta-fabril-de-punta-del-agua/ y https://www.todoagro.com.ar/punta-del-agua-se-convirtio-en-la-cuarta-empresa-lactea-de-argentina/","sin_ubicar":false,"lat":-32.164132,"lon":-63.463883,"precision_ubicacion":"ESTIMADA","metodo_geocodificacion":"Nominatim/OSM: James Craik, Boulevard San Martín, James Craik, Municipio de James Craik, Pedanía Zorros, Departamento Tercero Arriba, Córdoba, X5980, Argentina (railway/station)","capacidad_estimada":"entre 1.020.000 y 1.050.000 litros de leche/día de recepción y procesamiento","confianza_estimacion":"MEDIA","fuente_capacidad_estimada":"ESTIMACION_EXTERNA: todoagro.com.ar ('Punta del Agua se convirtió en la cuarta empresa láctea de Argentina') y cordobainteriorinforma.com (obras de la planta en James Craik); cifra algo menor a la del documento (1.300.000 l/día), posiblemente por diferencia temporal."}}]}