{"type":"FeatureCollection","features":[{"type":"Feature","geometry":{"type":"Point","coordinates":[-58.417409,-34.79938]},"properties":{"id":"IND-VID-001","empresa":"VASA - Vidriería Argentina S.A. (NSG-Pilkington + Saint-Gobain)","planta":"Planta Llavallol","categoria":"Vidrio y Aislaciones","categoria_cod":"VID","subsector":"Vidrio plano","tipo":"PLANTA","producto_principal":"Vidrio plano para arquitectura, automotriz, espejos, laminado","capacidad_declarada":"s/d (en modernización, inversión de US$40M)","origen_materia_prima":"Arena silícea, soda, caliza","estado_operativo":"ACTIVA","ubicacion_texto":"Llavallol, Lomas de Zamora, Bs. As. (73 años de operación)","localidad":"Llavallol","provincia":"Buenos Aires","notas":"","sin_ubicar":false,"lat":-34.79938,"lon":-58.417409,"precision_ubicacion":"EXACTA","metodo_geocodificacion":"Nominatim/OSM: Vidriería Argentina S.A. / Air Liquide, Avenida Antártida Argentina, Llavallol, Partido de Lomas de Zamora, Buenos Aires, 1836, Argentina (man_made/works)","capacidad_estimada":null,"confianza_estimacion":null,"fuente_capacidad_estimada":"DOCUMENTO"}},{"type":"Feature","geometry":{"type":"Point","coordinates":[-58.987449,-34.330888]},"properties":{"id":"IND-VID-002","empresa":"VASA - Vidriería Argentina S.A. (NSG-Pilkington + Saint-Gobain)","planta":"Planta Los Cardales / Exaltación de la Cruz","categoria":"Vidrio y Aislaciones","categoria_cod":"VID","subsector":"Vidrio plano","tipo":"PLANTA","producto_principal":"Vidrio plano flotado transparente","capacidad_declarada":"800-1.000 t/día (según etapa del proyecto, inversión de US$215M)","origen_materia_prima":"Arena silícea, soda, caliza","estado_operativo":"ACTIVA","ubicacion_texto":"Km 179, Ruta 6, Exaltación de la Cruz, Bs. As. (predio de 33 ha)","localidad":"Los Cardales","provincia":"Buenos Aires","notas":"Reemplaza a la ex planta de Campana.","sin_ubicar":false,"lat":-34.330888,"lon":-58.987449,"precision_ubicacion":"EXACTA","metodo_geocodificacion":"Nominatim/OSM: Los Cardales, Urquiza, Los Cardales, Partido de Exaltación de la Cruz, Buenos Aires, B2814CMN, Argentina (railway/station)","capacidad_estimada":null,"confianza_estimacion":null,"fuente_capacidad_estimada":"DOCUMENTO"}},{"type":"Feature","geometry":{"type":"Point","coordinates":[-58.430178,-34.796574]},"properties":{"id":"IND-VID-003","empresa":"Saint-Gobain Isover","planta":"Planta de lana de vidrio Llavallol","categoria":"Vidrio y Aislaciones","categoria_cod":"VID","subsector":"Aislaciones","tipo":"PLANTA","producto_principal":"Lana de vidrio (aislación térmica/acústica)","capacidad_declarada":"Sin dato público oficial","origen_materia_prima":"Vidrio reciclado, arena silícea","estado_operativo":"ACTIVA","ubicacion_texto":"Llavallol, Bs. As. (más de 60 años en el país)","localidad":"Llavallol","provincia":"Buenos Aires","notas":"Único fabricante nacional de lana de vidrio; no existe producción local de lana de roca.","sin_ubicar":false,"lat":-34.796574,"lon":-58.430178,"precision_ubicacion":"ESTIMADA","metodo_geocodificacion":"Nominatim/OSM: Llavallol, Partido de Lomas de Zamora, Buenos Aires, Argentina (boundary/administrative)","capacidad_estimada":null,"confianza_estimacion":null,"fuente_capacidad_estimada":"NO_DISPONIBLE"}},{"type":"Feature","geometry":{"type":"Point","coordinates":[-58.914161,-34.457092]},"properties":{"id":"IND-VID-004","empresa":"Grupo Estisol","planta":"Planta EPS Isopor (Novapol) — Pilar","categoria":"Vidrio y Aislaciones","categoria_cod":"VID","subsector":"Aislaciones","tipo":"PLANTA","producto_principal":"Poliestireno expandido (EPS/Isopor) para construcción, embalaje y agro","capacidad_declarada":"Parte de las 7 plantas del grupo (700+ empleados en total)","origen_materia_prima":"Poliestireno expandible importado","estado_operativo":"ACTIVA","ubicacion_texto":"Pilar, Bs. As.","localidad":"Pilar","provincia":"Buenos Aires","notas":"","sin_ubicar":false,"lat":-34.457092,"lon":-58.914161,"precision_ubicacion":"ESTIMADA","metodo_geocodificacion":"Nominatim/OSM: Pilar, Partido del Pilar, Buenos Aires, Argentina (boundary/administrative)","capacidad_estimada":null,"confianza_estimacion":null,"fuente_capacidad_estimada":"DOCUMENTO"}},{"type":"Feature","geometry":{"type":"Point","coordinates":[-58.914161,-34.457092]},"properties":{"id":"IND-VID-005","empresa":"Grupo Estisol","planta":"Planta Edilteco Sudamericana — Pilar","categoria":"Vidrio y Aislaciones","categoria_cod":"VID","subsector":"Aislaciones","tipo":"PLANTA","producto_principal":"Mezclas aislantes cementicias para la construcción","capacidad_declarada":"Incluida en el total del grupo","origen_materia_prima":"Cemento y EPS","estado_operativo":"ACTIVA","ubicacion_texto":"Pilar, Bs. As.","localidad":"Pilar","provincia":"Buenos Aires","notas":"","sin_ubicar":false,"lat":-34.457092,"lon":-58.914161,"precision_ubicacion":"ESTIMADA","metodo_geocodificacion":"Nominatim/OSM: Pilar, Partido del Pilar, Buenos Aires, Argentina (boundary/administrative)","capacidad_estimada":null,"confianza_estimacion":null,"fuente_capacidad_estimada":"DOCUMENTO"}},{"type":"Feature","geometry":{"type":"Point","coordinates":[-58.872131,-34.416259]},"properties":{"id":"IND-VID-006","empresa":"Grupo Estisol","planta":"Planta Concrehaus / Modus Building Panels — Pilar","categoria":"Vidrio y Aislaciones","categoria_cod":"VID","subsector":"Aislaciones","tipo":"PLANTA","producto_principal":"Paneles térmicos modulares para construcción (sistema Concrehaus/Modus)","capacidad_declarada":"Ampliación de >5.000 m² en 2022 (US$10M, tecnología italiana)","origen_materia_prima":"EPS + cemento","estado_operativo":"ACTIVA","ubicacion_texto":"Pilar (Villa Rosa), Bs. As.","localidad":"Villa Rosa","provincia":"Buenos Aires","notas":"","sin_ubicar":false,"lat":-34.416259,"lon":-58.872131,"precision_ubicacion":"ESTIMADA","metodo_geocodificacion":"Nominatim/OSM: Villa Rosa, Hipólito Yrigoyen, Luchetti, Villa Rosa, Partido del Pilar, Buenos Aires, 1631, Argentina (railway/station)","capacidad_estimada":null,"confianza_estimacion":null,"fuente_capacidad_estimada":"DOCUMENTO"}},{"type":"Feature","geometry":{"type":"Point","coordinates":[-58.914161,-34.457092]},"properties":{"id":"IND-VID-007","empresa":"Grupo Estisol","planta":"Planta Paperfood — Pilar","categoria":"Vidrio y Aislaciones","categoria_cod":"VID","subsector":"Envases","tipo":"PLANTA","producto_principal":"Vasos y contenedores de papel (Polipapel)","capacidad_declarada":"11.500.000 unidades/mes (línea Polipapel)","origen_materia_prima":"Papel/cartón","estado_operativo":"ACTIVA","ubicacion_texto":"Pilar, Bs. As.","localidad":"Pilar","provincia":"Buenos Aires","notas":"","sin_ubicar":false,"lat":-34.457092,"lon":-58.914161,"precision_ubicacion":"ESTIMADA","metodo_geocodificacion":"Nominatim/OSM: Pilar, Partido del Pilar, Buenos Aires, Argentina (boundary/administrative)","capacidad_estimada":null,"confianza_estimacion":null,"fuente_capacidad_estimada":"DOCUMENTO"}},{"type":"Feature","geometry":{"type":"Point","coordinates":[-58.406315,-34.638495]},"properties":{"id":"IND-VID-008","empresa":"Grupo Estisol","planta":"Planta Estisol Capital Federal","categoria":"Vidrio y Aislaciones","categoria_cod":"VID","subsector":"Aislaciones","tipo":"PLANTA","producto_principal":"EPS / productos derivados","capacidad_declarada":"Incluida en el total del grupo","origen_materia_prima":"Poliestireno expandible","estado_operativo":"ACTIVA","ubicacion_texto":"Parque Patricios, CABA","localidad":"Parque Patricios","provincia":"Ciudad Autónoma de Buenos Aires","notas":"","sin_ubicar":false,"lat":-34.638495,"lon":-58.406315,"precision_ubicacion":"ESTIMADA","metodo_geocodificacion":"Nominatim/OSM: Parque Patricios, Monteagudo, Parque Patricios, Buenos Aires, Distrito Tecnológico, Comuna 4, Ciudad Autónoma de Buenos Aires, C1437EYD, Argentina (railway/station)","capacidad_estimada":null,"confianza_estimacion":null,"fuente_capacidad_estimada":"DOCUMENTO"}},{"type":"Feature","geometry":{"type":"Point","coordinates":[-66.371061,-33.317509]},"properties":{"id":"IND-VID-009","empresa":"Grupo Estisol","planta":"Planta Estisol San Luis","categoria":"Vidrio y Aislaciones","categoria_cod":"VID","subsector":"Aislaciones","tipo":"PLANTA","producto_principal":"EPS para construcción y agro","capacidad_declarada":"Incluida en el total del grupo","origen_materia_prima":"Poliestireno expandible","estado_operativo":"ACTIVA","ubicacion_texto":"Parque Industrial, San Luis Capital, San Luis","localidad":"San Luis","provincia":"San Luis","notas":"","sin_ubicar":false,"lat":-33.317509,"lon":-66.371061,"precision_ubicacion":"EXACTA","metodo_geocodificacion":"Nominatim/OSM: Parque Industrial Norte, San Luis, Municipio de San Luis, Juan Martín de Pueyrredón, San Luis, Argentina (boundary/administrative)","capacidad_estimada":null,"confianza_estimacion":null,"fuente_capacidad_estimada":"DOCUMENTO"}},{"type":"Feature","geometry":{"type":"Point","coordinates":[-67.701856,-53.785828]},"properties":{"id":"IND-VID-010","empresa":"Grupo Estisol","planta":"Planta Ecosol","categoria":"Vidrio y Aislaciones","categoria_cod":"VID","subsector":"Aislaciones","tipo":"PLANTA","producto_principal":"EPS","capacidad_declarada":"Incluida en el total del grupo","origen_materia_prima":"Poliestireno expandible","estado_operativo":"ACTIVA","ubicacion_texto":"Río Grande, Tierra del Fuego","localidad":"Río Grande","provincia":"Tierra del Fuego","notas":"","sin_ubicar":false,"lat":-53.785828,"lon":-67.701856,"precision_ubicacion":"ESTIMADA","metodo_geocodificacion":"Nominatim/OSM: Municipio de Río Grande, Departamento Río Grande, Tierra del Fuego, V9420, Argentina (boundary/administrative)","capacidad_estimada":null,"confianza_estimacion":null,"fuente_capacidad_estimada":"DOCUMENTO"}},{"type":"Feature","geometry":{"type":"Point","coordinates":[-65.402044,-27.054364]},"properties":{"id":"IND-VID-011","empresa":"Grupo Estisol","planta":"Planta Estisol Famaillá","categoria":"Vidrio y Aislaciones","categoria_cod":"VID","subsector":"Aislaciones","tipo":"PLANTA","producto_principal":"EPS","capacidad_declarada":"Incluida en el total del grupo","origen_materia_prima":"Poliestireno expandible","estado_operativo":"ACTIVA","ubicacion_texto":"Famaillá, Tucumán","localidad":"Famaillá","provincia":"Tucumán","notas":"","sin_ubicar":false,"lat":-27.054364,"lon":-65.402044,"precision_ubicacion":"ESTIMADA","metodo_geocodificacion":"Nominatim/OSM: Municipio de Famaillá, Departamento Famaillá, Tucumán, T4132, Argentina (boundary/administrative)","capacidad_estimada":null,"confianza_estimacion":null,"fuente_capacidad_estimada":"DOCUMENTO"}}]}