{"type":"FeatureCollection","features":[{"type":"Feature","geometry":{"type":"Point","coordinates":[-60.178143,-33.379082]},"properties":{"id":"IND-SID-001","empresa":"Ternium Argentina (ex Siderar/Somisa)","planta":"Planta Savio / San Nicolás","categoria":"Siderurgia, Metalurgia y Perfilería","categoria_cod":"SID","subsector":"Acero plano","tipo":"PLANTA","producto_principal":"Acero plano integrado (arrabio, planchones, laminados en caliente y frío)","capacidad_declarada":"Capacidad histórica ampliada desde 2,5 Mt (1974); nueva colada continua +500.000 t/año planchones","origen_materia_prima":"Mineral de hierro y carbón importados (puerto propio sobre el Paraná)","estado_operativo":"ACTIVA","ubicacion_texto":"Av. Savio s/n, San Nicolás de los Arroyos, Bs. As.","localidad":"San Nicolás de los Arroyos","provincia":"Buenos Aires","notas":"Único complejo siderúrgico integrado del país (alto horno).","sin_ubicar":false,"lat":-33.379082,"lon":-60.178143,"precision_ubicacion":"EXACTA","metodo_geocodificacion":"Nominatim/OSM: Somisa, San Nicolás de los Arroyos, Partido de San Nicolás, Buenos Aires, Argentina (boundary/administrative)","capacidad_estimada":null,"confianza_estimacion":null,"fuente_capacidad_estimada":"DOCUMENTO"}},{"type":"Feature","geometry":{"type":"Point","coordinates":[-58.610293,-34.638736]},"properties":{"id":"IND-SID-002","empresa":"Ternium Argentina (ex Siderar/Somisa)","planta":"Planta Haedo","categoria":"Siderurgia, Metalurgia y Perfilería","categoria_cod":"SID","subsector":"Acero plano","tipo":"PLANTA","producto_principal":"Laminados / productos terminados","capacidad_declarada":"Sin dato público oficial","origen_materia_prima":"Semielaborados de San Nicolás","estado_operativo":"ACTIVA","ubicacion_texto":"Haedo, Bs. As.","localidad":"Haedo","provincia":"Buenos Aires","notas":"","sin_ubicar":false,"lat":-34.638736,"lon":-58.610293,"precision_ubicacion":"EXACTA","metodo_geocodificacion":"Nominatim/OSM: Ternium, Valentín Gómez, Haedo, Partido de Morón, Buenos Aires, B1706CGO, Argentina (man_made/works)","capacidad_estimada":null,"confianza_estimacion":null,"fuente_capacidad_estimada":"NO_DISPONIBLE"}},{"type":"Feature","geometry":{"type":"Point","coordinates":[-58.5116,-34.877464]},"properties":{"id":"IND-SID-003","empresa":"Ternium Argentina (ex Siderar/Somisa)","planta":"Planta Canning","categoria":"Siderurgia, Metalurgia y Perfilería","categoria_cod":"SID","subsector":"Acero plano","tipo":"PLANTA","producto_principal":"Productos de acero","capacidad_declarada":"Sin dato público oficial","origen_materia_prima":"Semielaborados de San Nicolás","estado_operativo":"ACTIVA","ubicacion_texto":"Canning, Bs. As.","localidad":"Canning","provincia":"Buenos Aires","notas":"","sin_ubicar":false,"lat":-34.877464,"lon":-58.5116,"precision_ubicacion":"EXACTA","metodo_geocodificacion":"Nominatim/OSM: Ternium Siderar Planta Canning, Canning, Partido de Ezeiza, Buenos Aires, Argentina (landuse/industrial)","capacidad_estimada":null,"confianza_estimacion":null,"fuente_capacidad_estimada":"NO_DISPONIBLE"}},{"type":"Feature","geometry":{"type":"Point","coordinates":[-57.94096,-34.857406]},"properties":{"id":"IND-SID-004","empresa":"Ternium Argentina (ex Siderar/Somisa)","planta":"Planta Ensenada","categoria":"Siderurgia, Metalurgia y Perfilería","categoria_cod":"SID","subsector":"Acero plano","tipo":"PLANTA","producto_principal":"Laminación en frío","capacidad_declarada":"Sin dato público oficial","origen_materia_prima":"Semielaborados de San Nicolás","estado_operativo":"ACTIVA","ubicacion_texto":"Ensenada, Bs. As. (ex Propulsora Siderúrgica, 1961)","localidad":"Ensenada","provincia":"Buenos Aires","notas":"","sin_ubicar":false,"lat":-34.857406,"lon":-57.94096,"precision_ubicacion":"EXACTA","metodo_geocodificacion":"Nominatim/OSM: Ternium Siderar Ensenada, Ensenada, Partido de Ensenada, Buenos Aires, B1925, Argentina (landuse/industrial)","capacidad_estimada":"~1.360.000 t/año (cifra histórica del Plan Siderúrgico Nacional para Propulsora, no confirmada para la planta actual)","confianza_estimacion":"BAJA","fuente_capacidad_estimada":"ESTIMACION_EXTERNA: Cuadernos FHyCS-UNJu sobre el Plan Siderúrgico Nacional (http://revista.fhycs.unju.edu.ar/revistacuadernos/index.php/cuadernos/rt/printerFriendly/26/59) y El Día (2001). Cifra planificada de integración siderúrgica de Propulsora, no la laminación en frío vigente."}},{"type":"Feature","geometry":{"type":"Point","coordinates":[-58.278322,-34.804438]},"properties":{"id":"IND-SID-005","empresa":"Ternium Argentina (ex Siderar/Somisa)","planta":"Planta Florencio Varela","categoria":"Siderurgia, Metalurgia y Perfilería","categoria_cod":"SID","subsector":"Acero plano","tipo":"PLANTA","producto_principal":"Productos de acero","capacidad_declarada":"Sin dato público oficial","origen_materia_prima":"Semielaborados de San Nicolás","estado_operativo":"ACTIVA","ubicacion_texto":"Florencio Varela, Bs. As.","localidad":"Florencio Varela","provincia":"Buenos Aires","notas":"","sin_ubicar":false,"lat":-34.804438,"lon":-58.278322,"precision_ubicacion":"ESTIMADA","metodo_geocodificacion":"Nominatim/OSM: San Juan Bautista, Partido de Florencio Varela, Buenos Aires, Argentina (boundary/administrative)","capacidad_estimada":null,"confianza_estimacion":null,"fuente_capacidad_estimada":"NO_DISPONIBLE"}},{"type":"Feature","geometry":{"type":"Point","coordinates":[-60.28519,-33.257168]},"properties":{"id":"IND-SID-006","empresa":"Acindar (ArcelorMittal)","planta":"Planta Villa Constitución","categoria":"Siderurgia, Metalurgia y Perfilería","categoria_cod":"SID","subsector":"Acero largo","tipo":"PLANTA","producto_principal":"Acero no plano (barras, alambrón)","capacidad_declarada":"~60% de la capacidad instalada nacional en laminados no planos","origen_materia_prima":"Chatarra (horno eléctrico)","estado_operativo":"ACTIVA","ubicacion_texto":"Villa Constitución, Santa Fe","localidad":"Villa Constitución","provincia":"Santa Fe","notas":"","sin_ubicar":false,"lat":-33.257168,"lon":-60.28519,"precision_ubicacion":"EXACTA","metodo_geocodificacion":"Nominatim/OSM: Acindar Villa Constitucion, Villa Constitución, Municipio de Villa Constitución, Departamento Constitución, Santa Fe, Argentina (landuse/industrial)","capacidad_estimada":null,"confianza_estimacion":null,"fuente_capacidad_estimada":"DOCUMENTO"}},{"type":"Feature","geometry":{"type":"Point","coordinates":[-60.257175,-33.346726]},"properties":{"id":"IND-SID-007","empresa":"Acindar (ArcelorMittal)","planta":"Planta San Nicolás","categoria":"Siderurgia, Metalurgia y Perfilería","categoria_cod":"SID","subsector":"Acero largo","tipo":"PLANTA","producto_principal":"Acero no plano","capacidad_declarada":"Sin dato público oficial","origen_materia_prima":"Chatarra","estado_operativo":"ACTIVA","ubicacion_texto":"San Nicolás de los Arroyos, Bs. As.","localidad":"San Nicolás de los Arroyos","provincia":"Buenos Aires","notas":"","sin_ubicar":false,"lat":-33.346726,"lon":-60.257175,"precision_ubicacion":"EXACTA","metodo_geocodificacion":"Nominatim/OSM: Acindar San Nicolás (Perfiles Livianos), Lares, San Nicolás de los Arroyos, Partido de San Nicolás, Buenos Aires, Argentina (landuse/industrial)","capacidad_estimada":"Cifra grupal ArcelorMittal Acindar (5 plantas): entre 1.350.000 y 1.750.000 t/año de acero","confianza_estimacion":"BAJA","fuente_capacidad_estimada":"ESTIMACION_EXTERNA: El Cronista (2025, https://www.cronista.com/negocios/acindar-frena-su-planta-por-un-mes-y-proyecta-otro-ano-de-baja-produccion/) menciona 1,75 Mt/año; presentación institucional ArcelorMittal Acindar (2023, https://www.cpcesfe2.org.ar/wp-content/uploads/2023/10/Andrea-Dala-ArcelorMittal-Acindar.pdf) indica 1,35 Mt/año. Cifras de grupo, no de la planta."}},{"type":"Feature","geometry":{"type":"Point","coordinates":[-58.541902,-34.692638]},"properties":{"id":"IND-SID-008","empresa":"Acindar (ArcelorMittal)","planta":"Planta La Tablada","categoria":"Siderurgia, Metalurgia y Perfilería","categoria_cod":"SID","subsector":"Acero largo","tipo":"PLANTA","producto_principal":"Productos de acero","capacidad_declarada":"Sin dato público oficial","origen_materia_prima":"Semielaborados propios","estado_operativo":"ACTIVA","ubicacion_texto":"La Tablada, Bs. As.","localidad":"La Tablada","provincia":"Buenos Aires","notas":"","sin_ubicar":false,"lat":-34.692638,"lon":-58.541902,"precision_ubicacion":"EXACTA","metodo_geocodificacion":"Nominatim/OSM: Acindar, Doctor Ignacio Arieta, Villa Giardino, La Tablada, Partido de La Matanza, Buenos Aires, 1751, Argentina (highway/bus_stop)","capacidad_estimada":"Cifra grupal ArcelorMittal Acindar (5 plantas): ~1.350.000-1.750.000 t/año de acero","confianza_estimacion":"BAJA","fuente_capacidad_estimada":"ESTIMACION_EXTERNA: mismas fuentes que San Nicolás (El Cronista 2025 y presentación ArcelorMittal Acindar 2023). La Tablada es la planta de productos terminados/trefilados; sin capacidad desagregada."}},{"type":"Feature","geometry":{"type":"Point","coordinates":[-58.976535,-34.152206]},"properties":{"id":"IND-SID-009","empresa":"Tenaris Siderca","planta":"Planta Campana","categoria":"Siderurgia, Metalurgia y Perfilería","categoria_cod":"SID","subsector":"Tubos sin costura","tipo":"PLANTA","producto_principal":"Tubos de acero sin costura","capacidad_declarada":"900.000 t/año","origen_materia_prima":"Chatarra / palanquilla","estado_operativo":"ACTIVA","ubicacion_texto":"Campana, Bs. As. (centro de producción desde 1954)","localidad":"Campana","provincia":"Buenos Aires","notas":"","sin_ubicar":false,"lat":-34.152206,"lon":-58.976535,"precision_ubicacion":"EXACTA","metodo_geocodificacion":"Nominatim/OSM: Tenaris Siderca, 250, Campana, Partido de Campana, Buenos Aires, B2804MHA, Argentina (landuse/industrial)","capacidad_estimada":null,"confianza_estimacion":null,"fuente_capacidad_estimada":"DOCUMENTO"}},{"type":"Feature","geometry":{"type":"Point","coordinates":[-58.409894,-34.662216]},"properties":{"id":"IND-SID-010","empresa":"Tenaris (Siat)","planta":"Planta Valentín Alsina","categoria":"Siderurgia, Metalurgia y Perfilería","categoria_cod":"SID","subsector":"Tubos con costura","tipo":"PLANTA","producto_principal":"Tubos de acero con costura (soldado)","capacidad_declarada":"Sin dato público oficial","origen_materia_prima":"Chapa laminada","estado_operativo":"ACTIVA","ubicacion_texto":"Valentín Alsina, Bs. As.","localidad":"Valentín Alsina","provincia":"Buenos Aires","notas":"","sin_ubicar":false,"lat":-34.662216,"lon":-58.409894,"precision_ubicacion":"EXACTA","metodo_geocodificacion":"Nominatim/OSM: Tenaris SIAT, Paso de Burgos, Valentín Alsina, Partido de Lanús, Buenos Aires, Argentina (landuse/industrial)","capacidad_estimada":"~350.000 t/año de tubos soldados de gran diámetro","confianza_estimacion":"MEDIA","fuente_capacidad_estimada":"ESTIMACION_EXTERNA: Agencia Comunas (2022, https://www.agenciacomunas.com.ar/grindetti-visito-la-planta-de-siat-tenaris-en-valentin-alsina/): mayor fábrica de tubos soldados de gran diámetro del país, 350.000 t sobre 30 ha. Fuente periodística local, no reporte corporativo."}},{"type":"Feature","geometry":{"type":"Point","coordinates":[-60.289357,-33.264697]},"properties":{"id":"IND-SID-011","empresa":"Tenaris (Siat, ex línea de Acindar)","planta":"Planta Villa Constitución","categoria":"Siderurgia, Metalurgia y Perfilería","categoria_cod":"SID","subsector":"Tubos con costura","tipo":"PLANTA","producto_principal":"Tubos con costura","capacidad_declarada":"80.000 t/año (capacidad de la línea adquirida a Acindar en 2006)","origen_materia_prima":"Chapa laminada","estado_operativo":"ACTIVA","ubicacion_texto":"Villa Constitución, Santa Fe","localidad":"Villa Constitución","provincia":"Santa Fe","notas":"","sin_ubicar":false,"lat":-33.264697,"lon":-60.289357,"precision_ubicacion":"EXACTA","metodo_geocodificacion":"Nominatim/OSM: Tenaris SIAT, Villa Constitución, Municipio de Villa Constitución, Departamento Constitución, Santa Fe, Argentina (landuse/industrial)","capacidad_estimada":null,"confianza_estimacion":null,"fuente_capacidad_estimada":"DOCUMENTO"}},{"type":"Feature","geometry":{"type":"Point","coordinates":[-65.398872,-33.713807]},"properties":{"id":"IND-SID-012","empresa":"Tenaris","planta":"Planta Villa Mercedes","categoria":"Siderurgia, Metalurgia y Perfilería","categoria_cod":"SID","subsector":"Tubos de acero","tipo":"PLANTA","producto_principal":"Tubos de acero","capacidad_declarada":"Sin dato público oficial","origen_materia_prima":"Chapa/palanquilla","estado_operativo":"ACTIVA","ubicacion_texto":"Villa Mercedes, San Luis","localidad":"Villa Mercedes","provincia":"San Luis","notas":"","sin_ubicar":false,"lat":-33.713807,"lon":-65.398872,"precision_ubicacion":"EXACTA","metodo_geocodificacion":"Nominatim/OSM: Tenaris Metalmecanica, Ruta Provincial 24, La Adolfina, Municipio de Villa Mercedes, General Pedernera, San Luis, D5733, Argentina (building/industrial)","capacidad_estimada":null,"confianza_estimacion":null,"fuente_capacidad_estimada":"NO_DISPONIBLE"}},{"type":"Feature","geometry":{"type":"Point","coordinates":[-60.489771,-35.115577]},"properties":{"id":"IND-SID-013","empresa":"Acerbrag S.A.","planta":"Planta Bragado","categoria":"Siderurgia, Metalurgia y Perfilería","categoria_cod":"SID","subsector":"Acero largo","tipo":"PLANTA","producto_principal":"Acero no plano (construcción y agro)","capacidad_declarada":"Sin dato público oficial","origen_materia_prima":"Chatarra (horno eléctrico)","estado_operativo":"ACTIVA","ubicacion_texto":"Bragado, Bs. As.","localidad":"Bragado","provincia":"Buenos Aires","notas":"","sin_ubicar":false,"lat":-35.115577,"lon":-60.489771,"precision_ubicacion":"ESTIMADA","metodo_geocodificacion":"Nominatim/OSM: Bragado, Partido de Bragado, Buenos Aires, Argentina (boundary/administrative)","capacidad_estimada":"~250.000 t/año de acero largo (capacidad instalada histórica; planta suspendida desde agosto 2025)","confianza_estimacion":"MEDIA","fuente_capacidad_estimada":"ESTIMACION_EXTERNA: SiderDato (https://siderdato.com/noticia/acerbrag-usina-acero-largo-bragado-argentina): 250.000 t/año y 25% del mercado (2007); Infobae (2025, https://www.infobae.com/economia/2025/08/06/la-principal-fabrica-de-bragado-suspendio-su-produccion-y-hay-600-empleos-en-riesgo/) confirma ~23.000 t/mes antes de suspender operaciones."}},{"type":"Feature","geometry":{"type":"Point","coordinates":[-60.815673,-33.007266]},"properties":{"id":"IND-SID-014","empresa":"Sipar Gerdau","planta":"Planta Pérez","categoria":"Siderurgia, Metalurgia y Perfilería","categoria_cod":"SID","subsector":"Acero largo","tipo":"PLANTA","producto_principal":"Barras de acero para hormigón","capacidad_declarada":"Parte del total nacional de 7 Mt/año de acero crudo (capacidad instalada país)","origen_materia_prima":"Chatarra","estado_operativo":"ACTIVA","ubicacion_texto":"Perez, Santa Fe (predio a confirmar)","localidad":"Pérez","provincia":"Santa Fe","notas":"El documento marca el predio exacto como no confirmado.","sin_ubicar":false,"lat":-33.007266,"lon":-60.815673,"precision_ubicacion":"EXACTA","metodo_geocodificacion":"Nominatim/OSM: GERDAU, Pérez, Municipio de Pérez, Gran Rosario, Departamento Rosario, Santa Fe, S2121, Argentina (landuse/industrial)","capacidad_estimada":"~650.000 t/año de laminación de barras; ~250.000 t/año de acero crudo (acería eléctrica 2017)","confianza_estimacion":"ALTA","fuente_capacidad_estimada":"ESTIMACION_EXTERNA: Global Energy Monitor (https://www.gem.wiki/Gerdau_Sipar_P%C3%A9rez_steel_plant), El Cronista (2017, https://www.cronista.com/negocios/Gerdau-invirtio-us-232-millones-en-Santa-Fe-para-sustituir-importaciones-20171101-0024.html) y Gobierno de Santa Fe (https://www.santafe.gob.ar/noticias/noticia/259751/). Cifras de la propia planta corroboradas por prensa y fuente gubernamental."}},{"type":"Feature","geometry":{"type":"Point","coordinates":[-65.197676,-24.247617]},"properties":{"id":"IND-SID-015","empresa":"Aceros Zapla","planta":"Planta Palpalá","categoria":"Siderurgia, Metalurgia y Perfilería","categoria_cod":"SID","subsector":"Acero largo","tipo":"PLANTA","producto_principal":"Acero para automotriz y petróleo/gas","capacidad_declarada":"Sin dato público oficial","origen_materia_prima":"Chatarra / arrabio","estado_operativo":"ACTIVA","ubicacion_texto":"Palpalá, Jujuy","localidad":"Palpalá","provincia":"Jujuy","notas":"","sin_ubicar":false,"lat":-24.247617,"lon":-65.197676,"precision_ubicacion":"EXACTA","metodo_geocodificacion":"Nominatim/OSM: Aceros Zapla, El Brete, Municipio de Palpalá, Departamento Palpalá, Jujuy, Argentina (landuse/industrial)","capacidad_estimada":"~180.000 t/año de acero","confianza_estimacion":"MEDIA","fuente_capacidad_estimada":"ESTIMACION_EXTERNA: Wikipedia - Aceros Zapla (https://es.wikipedia.org/wiki/Aceros_Zapla): capacidad instalada de 180.000 t/año del complejo de Palpalá; fuente enciclopédica sin cita primaria verificada."}},{"type":"Feature","geometry":{"type":"Point","coordinates":[-65.053381,-42.739023]},"properties":{"id":"IND-SID-016","empresa":"Aluar Aluminio Argentino S.A.I.C.","planta":"Planta Puerto Madryn","categoria":"Siderurgia, Metalurgia y Perfilería","categoria_cod":"SID","subsector":"Aluminio","tipo":"PLANTA","producto_principal":"Aluminio primario (placas, lingotes, barrotes, alambrón)","capacidad_declarada":"460.000 t/año de aluminio primario (única planta de aluminio primario del país)","origen_materia_prima":"Alúmina importada; energía de Central Hidroeléctrica Futaleufú (560 MW) + eólica (246 MW)","estado_operativo":"ACTIVA","ubicacion_texto":"Puerto Madryn, Chubut","localidad":"Puerto Madryn","provincia":"Chubut","notas":"","sin_ubicar":false,"lat":-42.739023,"lon":-65.053381,"precision_ubicacion":"EXACTA","metodo_geocodificacion":"Nominatim/OSM: Aluar (Puerto Madryn) Power Plant, Parque Industrial Pesado, Municipio de Puerto Madryn, Departamento Biedma, Chubut, U9120, Argentina (landuse/industrial)","capacidad_estimada":null,"confianza_estimacion":null,"fuente_capacidad_estimada":"DOCUMENTO"}},{"type":"Feature","geometry":{"type":"Point","coordinates":[-58.119491,-35.001062]},"properties":{"id":"IND-SID-017","empresa":"Aluar Aluminio Argentino S.A.I.C.","planta":"Planta Abasto","categoria":"Siderurgia, Metalurgia y Perfilería","categoria_cod":"SID","subsector":"Aluminio","tipo":"PLANTA","producto_principal":"Aluminio elaborado (extrudidos y laminados, perfiles de aberturas)","capacidad_declarada":"32.000 t/año de elaborados","origen_materia_prima":"Aluminio primario de Puerto Madryn","estado_operativo":"ACTIVA","ubicacion_texto":"Abasto, La Plata, Bs. As.","localidad":"Abasto","provincia":"Buenos Aires","notas":"","sin_ubicar":false,"lat":-35.001062,"lon":-58.119491,"precision_ubicacion":"EXACTA","metodo_geocodificacion":"Nominatim/OSM: ALUAR, Abasto, Partido de La Plata, Buenos Aires, Argentina (landuse/industrial)","capacidad_estimada":null,"confianza_estimacion":null,"fuente_capacidad_estimada":"DOCUMENTO"}},{"type":"Feature","geometry":{"type":"Point","coordinates":[-58.41241,-34.846092]},"properties":{"id":"IND-SID-018","empresa":"Barbieri","planta":"Planta de perfiles de acero galvanizado liviano","categoria":"Siderurgia, Metalurgia y Perfilería","categoria_cod":"SID","subsector":"Perfilería galvanizada","tipo":"PLANTA","producto_principal":"Perfiles galvanizados para steel frame y drywall","capacidad_declarada":"Sin dato público oficial","origen_materia_prima":"Chapa galvanizada de Ternium","estado_operativo":"ACTIVA","ubicacion_texto":"Argentina (predio a confirmar; líder del segmento)","localidad":"","provincia":"","notas":"El documento no consigna localidad. Requiere consulta a CASS. Ubicación aportada por investigación externa (capacidades_estimadas.json): Planta 'Arduín Darío Barbieri', Parque Industrial Almirante Brown, Burzaco (42.000 m²). Fuente: https://www.adbarbieri.com/empresa y Forbes Argentina.","sin_ubicar":false,"lat":-34.846092,"lon":-58.41241,"precision_ubicacion":"ESTIMADA","metodo_geocodificacion":"Nominatim/OSM: Parque Industrial Almirante Brown, Villa Hogar Alemán, Burzaco, Partido de Almirante Brown, Buenos Aires, B1852EMM, Argentina (landuse/industrial)","capacidad_estimada":"~60.000 t/año de acero procesado en perfiles galvanizados (steel frame/drywall)","confianza_estimacion":"MEDIA","fuente_capacidad_estimada":"ESTIMACION_EXTERNA: Forbes Argentina (https://www.forbesargentina.com/liderazgo/barbieri-empresa-familiar-lidera-negocio-perfiles-construccion-seco-procesa-60000-toneladas-acero-n1545): procesa 60.000 t de acero al año; prensa de negocios, no reporte corporativo."}}]}