{"type":"FeatureCollection","features":[{"type":"Feature","geometry":{"type":"Point","coordinates":[-58.549438,-34.681183]},"properties":{"id":"IND-HID-001","empresa":"Grupo DEMA","planta":"Planta industrial San Justo","categoria":"Infraestructura Hídrica y Polímeros de Conducción","categoria_cod":"HID","subsector":"Tubos poliméricos","tipo":"PLANTA","producto_principal":"Tubos y accesorios en polímeros (agua, gas, cloaca — sistema Sigas Thermofusión), autopartes y accesorios de fundición","capacidad_declarada":"Sin dato público oficial","origen_materia_prima":"Resinas PVC/PP/PE (nacionales e importadas)","estado_operativo":"ACTIVA","ubicacion_texto":"Av. Pres. Juan Domingo Perón 3750 (predio principal; oficinas también en Vicente López, Córdoba Capital y Mar del Plata)","localidad":"San Justo","provincia":"Buenos Aires","notas":"El documento da la calle y altura sin localidad; se resolvió como San Justo (La Matanza) según el domicilio corporativo publicado.","sin_ubicar":false,"lat":-34.681183,"lon":-58.549438,"precision_ubicacion":"EXACTA","metodo_geocodificacion":"Nominatim/OSM: Grupo Dema, 3750, Avenida Presidente Juan Domingo Perón, Villa Sahores, San Justo, Partido de La Matanza, Buenos Aires, 1754, Argentina (building/industrial)","capacidad_estimada":null,"confianza_estimacion":null,"fuente_capacidad_estimada":"NO_DISPONIBLE"}},{"type":"Feature","geometry":{"type":"Point","coordinates":[-58.973669,-34.407454]},"properties":{"id":"IND-HID-002","empresa":"Industrias Saladillo S.A.","planta":"Planta Parque Industrial Pilar","categoria":"Infraestructura Hídrica y Polímeros de Conducción","categoria_cod":"HID","subsector":"Tubos poliméricos","tipo":"PLANTA","producto_principal":"Sistemas de conducción de agua, desagüe, calefacción y gas (líneas Hidro 3, Awaduct, Hidroflex)","capacidad_declarada":"s/d — empresa líder del segmento sanitario nacional","origen_materia_prima":"Resinas PVC/PP-R","estado_operativo":"ACTIVA","ubicacion_texto":"Calle 9 N° 2639, Parque Industrial Pilar, Bs. As.","localidad":"Pilar","provincia":"Buenos Aires","notas":"","sin_ubicar":false,"lat":-34.407454,"lon":-58.973669,"precision_ubicacion":"EXACTA","metodo_geocodificacion":"Nominatim/OSM: Industrias Saladillo S.A., 2639, Calle 9, Parque industrial Pilar, Fátima, Partido del Pilar, Buenos Aires, B1629MXA, Argentina (man_made/works)","capacidad_estimada":null,"confianza_estimacion":null,"fuente_capacidad_estimada":"DOCUMENTO"}},{"type":"Feature","geometry":{"type":"Point","coordinates":[-58.609732,-34.579758]},"properties":{"id":"IND-HID-003","empresa":"Amanco Wavin Argentina (Orbia)","planta":"Planta Pablo Podestá","categoria":"Infraestructura Hídrica y Polímeros de Conducción","categoria_cod":"HID","subsector":"Tubos poliméricos","tipo":"PLANTA","producto_principal":"Caños de PVC y PEAD para agua, cloaca, drenaje y gas (línea Novafort hasta 1 m de diámetro)","capacidad_declarada":"Sin dato público oficial","origen_materia_prima":"Resinas PVC/PEAD","estado_operativo":"ACTIVA","ubicacion_texto":"Av. Pérez Galdós 8760, Pablo Podestá, Bs. As. (San Martín)","localidad":"Pablo Podestá","provincia":"Buenos Aires","notas":"","sin_ubicar":false,"lat":-34.579758,"lon":-58.609732,"precision_ubicacion":"ESTIMADA","metodo_geocodificacion":"Nominatim/OSM: Pablo Podestá, Partido de Tres de Febrero, Buenos Aires, Argentina (boundary/administrative)","capacidad_estimada":null,"confianza_estimacion":null,"fuente_capacidad_estimada":"NO_DISPONIBLE"}},{"type":"Feature","geometry":{"type":"Point","coordinates":[-58.983029,-34.391368]},"properties":{"id":"IND-HID-004","empresa":"Grupo Rotoplas (mexicano)","planta":"Planta Parque Industrial Pilar","categoria":"Infraestructura Hídrica y Polímeros de Conducción","categoria_cod":"HID","subsector":"Tanques y termotanques","tipo":"PLANTA","producto_principal":"Termotanques (línea Señorial); tanques, cisternas y plantas de tratamiento de agua","capacidad_declarada":"1 termotanque cada 20 segundos; planta de 6.500 m² cubiertos sobre lote de 12.000 m²; 200 empleados","origen_materia_prima":"Polietileno / chapa (termotanques)","estado_operativo":"ACTIVA","ubicacion_texto":"Parque Industrial Pilar, Bs. As.","localidad":"Pilar","provincia":"Buenos Aires","notas":"Inaugurada en 2022; concebida como polo exportador regional del grupo.","sin_ubicar":false,"lat":-34.391368,"lon":-58.983029,"precision_ubicacion":"EXACTA","metodo_geocodificacion":"Nominatim/OSM: Rotoplas, 358, Calle 22, Parque industrial Pilar, Fátima, Partido del Pilar, Buenos Aires, B1629MXA, Argentina (man_made/works)","capacidad_estimada":null,"confianza_estimacion":null,"fuente_capacidad_estimada":"DOCUMENTO"}},{"type":"Feature","geometry":{"type":"Point","coordinates":[-58.593791,-34.562693]},"properties":{"id":"IND-HID-005","empresa":"Grupo Rotoplas (mexicano)","planta":"Planta IPS","categoria":"Infraestructura Hídrica y Polímeros de Conducción","categoria_cod":"HID","subsector":"Tubos poliméricos","tipo":"PLANTA","producto_principal":"Tuberías y conexiones para agua y gas domiciliario","capacidad_declarada":"Exporta a más de 35 países","origen_materia_prima":"Resinas plásticas","estado_operativo":"ACTIVA","ubicacion_texto":"Argentina (predio a confirmar; empresa con +70 años en el país)","localidad":"","provincia":"","notas":"El documento no consigna localidad. Ubicación aportada por investigación externa (capacidades_estimadas.json): Planta IPS (adquirida por Rotoplas en 2018), Calle 70 N° 4467/4505, San Martín; segunda planta en Loma Hermosa. Fuentes: https://www.arquimaster.com.ar/web/grupo-rotoplas-invierte-us-5-millones-en-una-nueva-planta-en-argentina/ y https://www.baenegocios.com/negocios/El-fabricante-mexicano-de-tanques-de-agua-Rotoplas-compra-la-empresa-argentina-IPS-20180823-0079.html","sin_ubicar":false,"lat":-34.562693,"lon":-58.593791,"precision_ubicacion":"ESTIMADA","metodo_geocodificacion":"Nominatim/OSM: General San Martín, Metrobús Ruta 8, Uta, Villa Ciudad Jardín El Libertador, Partido de General San Martín, Buenos Aires, B1657, Argentina (highway/bus_stop)","capacidad_estimada":null,"confianza_estimacion":null,"fuente_capacidad_estimada":"DOCUMENTO"}},{"type":"Feature","geometry":{"type":"Point","coordinates":[-58.4122,-34.700789]},"properties":{"id":"IND-HID-006","empresa":"Waterplast (Unike Group)","planta":"Planta y sede Lanús Oeste","categoria":"Infraestructura Hídrica y Polímeros de Conducción","categoria_cod":"HID","subsector":"Tanques","tipo":"PLANTA","producto_principal":"Tanques, cisternas y biodigestores de agua","capacidad_declarada":"Sin dato público oficial","origen_materia_prima":"Polietileno rotomoldeado","estado_operativo":"ACTIVA","ubicacion_texto":"Av. San Martín 2768, Lanús Oeste, Bs. As.","localidad":"Lanús Oeste","provincia":"Buenos Aires","notas":"","sin_ubicar":false,"lat":-34.700789,"lon":-58.4122,"precision_ubicacion":"EXACTA","metodo_geocodificacion":"Nominatim/OSM: 2768, Avenida General José de San Martín, Villa Albariños, Lanús Oeste, Partido de Lanús, Buenos Aires, 1824, Argentina (place/house)","capacidad_estimada":null,"confianza_estimacion":null,"fuente_capacidad_estimada":"NO_DISPONIBLE"}},{"type":"Feature","geometry":{"type":"Point","coordinates":[-58.690769,-34.477508]},"properties":{"id":"IND-HID-007","empresa":"Tuboforte / Plásticos Tigre","planta":"Planta industrial","categoria":"Infraestructura Hídrica y Polímeros de Conducción","categoria_cod":"HID","subsector":"Tubos poliméricos","tipo":"PLANTA","producto_principal":"Caños y conexiones plásticas","capacidad_declarada":"Sin dato público oficial","origen_materia_prima":"Resinas plásticas","estado_operativo":"ACTIVA","ubicacion_texto":"Argentina (predio a confirmar)","localidad":"","provincia":"","notas":"El documento declara explícitamente que no se pudo confirmar la localidad. Ubicación aportada por investigación externa (capacidades_estimadas.json): Planta en el Área de Promoción 'El Triángulo', calle Stephenson 3075 (CP 1667), Malvinas Argentinas. Fuente: http://www.tuboforte.com.ar/contacto.html","sin_ubicar":false,"lat":-34.477508,"lon":-58.690769,"precision_ubicacion":"ESTIMADA","metodo_geocodificacion":"Nominatim/OSM: Jorge Stephenson, Pablo Nogués, Partido de Malvinas Argentinas, Buenos Aires, B1614ICA, Argentina (highway/residential)","capacidad_estimada":null,"confianza_estimacion":null,"fuente_capacidad_estimada":"NO_DISPONIBLE"}}]}