{"type":"FeatureCollection","features":[{"type":"Feature","geometry":{"type":"Point","coordinates":[-60.323168,-36.893875]},"properties":{"id":"IND-ARI-001","empresa":"Polo de canteras Tandilia/Ventania","planta":"Canteras de granito y basalto","categoria":"Áridos, Cerámica Roja y Pisos","categoria_cod":"ARI","subsector":"Áridos","tipo":"POLO_REGIONAL","producto_principal":"Áridos triturados (granito, basalto)","capacidad_declarada":"s/d — mayor polo de trituración de rocas del país","origen_materia_prima":"Yacimientos de rocas ígneas y metamórficas de Tandilia","estado_operativo":"ACTIVA","ubicacion_texto":"Olavarría y Azul (Tandilia); zona de Azul-Barker (Ventania), Bs. As.","localidad":"Olavarría","provincia":"Buenos Aires","notas":"Nodo regional agregado: representa el conjunto de canteras de Tandilia/Ventania, referenciado en Olavarría.","sin_ubicar":false,"lat":-36.893875,"lon":-60.323168,"precision_ubicacion":"ESTIMADA","metodo_geocodificacion":"Nominatim/OSM: Olavarría, Partido de Olavarría, Buenos Aires, B7400, Argentina (place/city)","capacidad_estimada":null,"confianza_estimacion":null,"fuente_capacidad_estimada":"DOCUMENTO"}},{"type":"Feature","geometry":{"type":"Point","coordinates":[-59.855709,-36.743724]},"properties":{"id":"IND-ARI-002","empresa":"Cerámica San Lorenzo (Grupo Lamosa)","planta":"Planta Azul (porcelanato) — dos líneas","categoria":"Áridos, Cerámica Roja y Pisos","categoria_cod":"ARI","subsector":"Porcelanato","tipo":"PLANTA","producto_principal":"Porcelanato","capacidad_declarada":"Producción anual del grupo: 15.000.000 m²/año (conjunto de plantas)","origen_materia_prima":"Arcillas y feldespatos","estado_operativo":"ACTIVA","ubicacion_texto":"Azul, Bs. As.","localidad":"Azul","provincia":"Buenos Aires","notas":"","sin_ubicar":false,"lat":-36.743724,"lon":-59.855709,"precision_ubicacion":"EXACTA","metodo_geocodificacion":"Nominatim/OSM: Cerámica San Lorenzo, Chacras de Bruno, Azul, Partido de Azul, Buenos Aires, Argentina (landuse/industrial)","capacidad_estimada":null,"confianza_estimacion":null,"fuente_capacidad_estimada":"DOCUMENTO"}},{"type":"Feature","geometry":{"type":"Point","coordinates":[-68.46399,-31.689169]},"properties":{"id":"IND-ARI-003","empresa":"Cerámica San Lorenzo (Grupo Lamosa)","planta":"Planta San Juan (cerámicos)","categoria":"Áridos, Cerámica Roja y Pisos","categoria_cod":"ARI","subsector":"Cerámicos","tipo":"PLANTA","producto_principal":"Cerámicos esmaltados","capacidad_declarada":"Incluida en los 15.000.000 m²/año del grupo","origen_materia_prima":"Arcillas locales","estado_operativo":"ACTIVA","ubicacion_texto":"San Juan (predio a confirmar)","localidad":"San Juan","provincia":"San Juan","notas":"El documento sólo da la provincia; se referencia en la capital provincial. Ubicación aportada por investigación externa (capacidades_estimadas.json): Ex planta Cerámica SCOP (adquirida a fines de 1997), Calle Vidart s/n, Rawson, San Juan. Fuentes: https://vymaps.com/AR/Ceramica-Scop-15454/ y https://diariodecuyo.com.ar/economia/Ceramica-San-Lorenzo-cerro-dos-fabricas-y-asegura-que-sostendra-la-planta-sanjuanina-20170210-0039.html","sin_ubicar":false,"lat":-31.689169,"lon":-68.46399,"precision_ubicacion":"ESTIMADA","metodo_geocodificacion":"Nominatim/OSM: Rawson, San Juan, Argentina (boundary/administrative)","capacidad_estimada":null,"confianza_estimacion":null,"fuente_capacidad_estimada":"DOCUMENTO"}},{"type":"Feature","geometry":{"type":"Point","coordinates":[-60.323168,-36.893875]},"properties":{"id":"IND-ARI-004","empresa":"Cerro Negro (Sociedad Comercial del Plata)","planta":"Planta industrial Buenos Aires","categoria":"Áridos, Cerámica Roja y Pisos","categoria_cod":"ARI","subsector":"Cerámicos","tipo":"PLANTA","producto_principal":"Cerámicos y porcelanatos","capacidad_declarada":"Sin dato público oficial","origen_materia_prima":"Arcillas y feldespatos","estado_operativo":"ACTIVA","ubicacion_texto":"Buenos Aires y Córdoba (predios a confirmar)","localidad":"","provincia":"Buenos Aires","notas":"El documento no da localidad; sólo provincia. No se georreferencia. Ubicación aportada por investigación externa (capacidades_estimadas.json): Planta/cantera de cerámicos en Olavarría (con suspensiones reportadas en 2024-2025) y planta de mampuestos Cormela en Campana. Fuentes: https://cerronegro.com.ar/institucional/, https://www.scp.com.ar/empresa?id=59, https://www.lanoticia1.com/noticia/empresa-de-ceramica-de-olavarria-suspende-a-180-trabajadores-por-dos-meses-recibiran-un-80-de-su-salario","sin_ubicar":false,"lat":-36.893875,"lon":-60.323168,"precision_ubicacion":"ESTIMADA","metodo_geocodificacion":"Nominatim/OSM: Olavarría, Partido de Olavarría, Buenos Aires, B7400, Argentina (place/city)","capacidad_estimada":null,"confianza_estimacion":null,"fuente_capacidad_estimada":"NO_DISPONIBLE"}},{"type":"Feature","geometry":{"type":"Point","coordinates":[-58.986508,-27.451143]},"properties":{"id":"IND-ARI-006","empresa":"Ladrilleras y cavas de arcilla NEA","planta":"Polo de extracción y cocción de ladrillo hueco","categoria":"Áridos, Cerámica Roja y Pisos","categoria_cod":"ARI","subsector":"Cerámica roja","tipo":"POLO_REGIONAL","producto_principal":"Ladrillo cerámico hueco y macizo","capacidad_declarada":"Sector altamente atomizado en pequeñas y medianas ladrilleras; sin dato agregado confiable de capacidad por planta","origen_materia_prima":"Arcillas aluvionales del Litoral/NEA","estado_operativo":"ACTIVA","ubicacion_texto":"Chaco, Formosa y Corrientes (múltiples parajes y hornos de campaña, muy atomizado)","localidad":"Resistencia","provincia":"Chaco","notas":"Nodo regional agregado del NEA, referenciado en Resistencia.","sin_ubicar":false,"lat":-27.451143,"lon":-58.986508,"precision_ubicacion":"ESTIMADA","metodo_geocodificacion":"Nominatim/OSM: Plaza 25 de Mayo de 1810, Resistencia, Municipio de Resistencia, Departamento San Fernando, Chaco, Argentina (leisure/park)","capacidad_estimada":null,"confianza_estimacion":null,"fuente_capacidad_estimada":"DOCUMENTO"}}]}