{"type":"FeatureCollection","features":[{"type":"Feature","geometry":{"type":"Point","coordinates":[-60.295513,-37.039669]},"properties":{"id":"IND-CEM-001","empresa":"Loma Negra CIASA (Grupo InterCement)","planta":"L'Amalí (I y II)","categoria":"Cemento, Cal y Yeso","categoria_cod":"CEM","subsector":"Cemento","tipo":"PLANTA","producto_principal":"Clinker y cemento portland","capacidad_declarada":"Línea 2 (\"L'Amalí II\", 2021, US$350M) sumó ~25% a la producción nacional de la empresa","origen_materia_prima":"Caliza de canteras propias en Olavarría (Sierras de Tandilia)","estado_operativo":"ACTIVA","ubicacion_texto":"Camino Real s/n, Villa Alfredo Fortabat, Olavarría, Bs. As.","localidad":"Olavarría","provincia":"Buenos Aires","notas":"Planta de clinker más grande del país tras la ampliación de 2021.","sin_ubicar":false,"lat":-37.039669,"lon":-60.295513,"precision_ubicacion":"EXACTA","metodo_geocodificacion":"Nominatim/OSM: Fábrica L'Amalí, Partido de Olavarría, Buenos Aires, Argentina (landuse/industrial)","capacidad_estimada":null,"confianza_estimacion":null,"fuente_capacidad_estimada":"DOCUMENTO"}},{"type":"Feature","geometry":{"type":"Point","coordinates":[-59.387895,-37.683105]},"properties":{"id":"IND-CEM-002","empresa":"Loma Negra CIASA (Grupo InterCement)","planta":"Planta Barker","categoria":"Cemento, Cal y Yeso","categoria_cod":"CEM","subsector":"Cemento","tipo":"PLANTA","producto_principal":"Cemento portland","capacidad_declarada":"Sin dato público oficial","origen_materia_prima":"Caliza local","estado_operativo":"ACTIVA","ubicacion_texto":"Est. Alfredo Fortabat (e/Barker y Loma Negra), Benito Juárez, Bs. As.","localidad":"Barker","provincia":"Buenos Aires","notas":"","sin_ubicar":false,"lat":-37.683105,"lon":-59.387895,"precision_ubicacion":"EXACTA","metodo_geocodificacion":"Nominatim/OSM: Fábrica Barker - Loma Negra, Villa Cacique, Partido de Benito Juárez, Buenos Aires, 7005, Argentina (landuse/industrial)","capacidad_estimada":"~500.000 t/año de cemento (dato histórico de la línea integral); desde 2019 reconvertida a molienda, embolsado y despacho, sin cifra vigente","confianza_estimacion":"BAJA","fuente_capacidad_estimada":"ESTIMACION_EXTERNA: Infoeme (2007, https://www.infoeme.com/nota/2007-2-21-0-0-0-loma-negra-reactivara-la-planta-de-barker-con-carbon-importado) para la cifra histórica; Ámbito (2019, https://www.ambito.com/negocios/loma-negra/fin-al-conflicto-planta-barker-seguira-operando-160-trabajadores-n5038364) y El Economista (2019, https://eleconomista.com.ar/negocios/hubo-acuerdo-cerrara-planta-loma-negra-barker-n25680) confirman que tras el conflicto gremial la planta NO cerró y quedó como centro de molienda y despacho con 160 trabajadores."}},{"type":"Feature","geometry":{"type":"Point","coordinates":[-60.159749,-33.382857]},"properties":{"id":"IND-CEM-003","empresa":"Loma Negra CIASA (Grupo InterCement)","planta":"Planta Ramallo (molienda con escoria \"Ecocemento\")","categoria":"Cemento, Cal y Yeso","categoria_cod":"CEM","subsector":"Cemento","tipo":"PLANTA","producto_principal":"Molienda de cemento (clinker + escoria de alto horno)","capacidad_declarada":"Sin dato público oficial","origen_materia_prima":"Clinker propio + escoria de Ternium San Nicolás","estado_operativo":"ACTIVA","ubicacion_texto":"Ing. Agustín Roca 315, Parque Industrial Comirsa, Ramallo, Bs. As.","localidad":"Ramallo","provincia":"Buenos Aires","notas":"Simbiosis industrial con Ternium San Nicolás (escoria de alto horno).","sin_ubicar":false,"lat":-33.382857,"lon":-60.159749,"precision_ubicacion":"EXACTA","metodo_geocodificacion":"Nominatim/OSM: Comirsa 1, Partido de Ramallo, Buenos Aires, Argentina (landuse/industrial)","capacidad_estimada":"~600.000 t/año de cemento con escoria (Ecocemento)","confianza_estimacion":"MEDIA","fuente_capacidad_estimada":"ESTIMACION_EXTERNA: La Nación, \"Cemento ecológico en Ramallo\" (1999), https://www.lanacion.com.ar/economia/cemento-ecologico-en-ramallo-nid131454/. Arranque en 300.000 t/año ampliable a 600.000 t/año para la planta Ecocemento (joint venture Loma Negra-Siderar); cifra específica de la planta aunque de fuente antigua."}},{"type":"Feature","geometry":{"type":"Point","coordinates":[-70.035223,-38.896906]},"properties":{"id":"IND-CEM-004","empresa":"Loma Negra CIASA (Grupo InterCement)","planta":"Planta Zapala","categoria":"Cemento, Cal y Yeso","categoria_cod":"CEM","subsector":"Cemento","tipo":"PLANTA","producto_principal":"Cemento portland","capacidad_declarada":"Sin dato público oficial","origen_materia_prima":"Caliza regional","estado_operativo":"ACTIVA","ubicacion_texto":"Av. Avellaneda y Coliqueo, Zapala, Neuquén","localidad":"Zapala","provincia":"Neuquén","notas":"","sin_ubicar":false,"lat":-38.896906,"lon":-70.035223,"precision_ubicacion":"EXACTA","metodo_geocodificacion":"Nominatim/OSM: Loma Negra, S/N, Michacheo, Zapala, Municipio de Zapala, Departamento Zapala, Neuquén, Q8340, Argentina (landuse/industrial)","capacidad_estimada":null,"confianza_estimacion":null,"fuente_capacidad_estimada":"NO_DISPONIBLE"}},{"type":"Feature","geometry":{"type":"Point","coordinates":[-65.227946,-28.467526]},"properties":{"id":"IND-CEM-005","empresa":"Loma Negra CIASA (Grupo InterCement)","planta":"Planta Catamarca","categoria":"Cemento, Cal y Yeso","categoria_cod":"CEM","subsector":"Cemento","tipo":"PLANTA","producto_principal":"Cemento portland","capacidad_declarada":"Sin dato público oficial","origen_materia_prima":"Caliza local","estado_operativo":"ACTIVA","ubicacion_texto":"Paraje La Calera, El Alto, Catamarca","localidad":"El Alto","provincia":"Catamarca","notas":"","sin_ubicar":false,"lat":-28.467526,"lon":-65.227946,"precision_ubicacion":"EXACTA","metodo_geocodificacion":"Nominatim/OSM: Loma Negra, Municipio de Tapso, Departamento El Alto, Catamarca, K4235, Argentina (landuse/industrial)","capacidad_estimada":null,"confianza_estimacion":null,"fuente_capacidad_estimada":"NO_DISPONIBLE"}},{"type":"Feature","geometry":{"type":"Point","coordinates":[-68.675022,-31.548879]},"properties":{"id":"IND-CEM-006","empresa":"Loma Negra CIASA (Grupo InterCement)","planta":"Planta San Juan","categoria":"Cemento, Cal y Yeso","categoria_cod":"CEM","subsector":"Cemento","tipo":"PLANTA","producto_principal":"Cemento (molienda)","capacidad_declarada":"Sin dato público oficial","origen_materia_prima":"Sin dato público oficial","estado_operativo":"ACTIVA","ubicacion_texto":"Ruta Provincial 12, Rivadavia, San Juan","localidad":"Rivadavia","provincia":"San Juan","notas":"","sin_ubicar":false,"lat":-31.548879,"lon":-68.675022,"precision_ubicacion":"EXACTA","metodo_geocodificacion":"Nominatim/OSM: Loma Negra, 16000 (O), Comuna La Bebida, Rivadavia, San Juan, 5478, Argentina (landuse/industrial)","capacidad_estimada":"~400 t/día de producción histórica (≈146.000 t/año); reconvertida en 2019 solo a molienda y despacho, sin cifra vigente","confianza_estimacion":"BAJA","fuente_capacidad_estimada":"ESTIMACION_EXTERNA: BAE Negocios / Cámara Minera San Juan (2019), https://www.baenegocios.com/negocios/Despues-de-60-anos-Loma-Negra-deja-de-producir-cemento-en-San-Juan-20190902-0025.html. Cifra previa al cierre de la línea de clínker; hoy solo muele y ensaca clínker de Catamarca."}},{"type":"Feature","geometry":{"type":"Point","coordinates":[-60.156107,-36.936653]},"properties":{"id":"IND-CEM-007","empresa":"Loma Negra CIASA (Grupo InterCement)","planta":"Planta Sierras Bayas","categoria":"Cemento, Cal y Yeso","categoria_cod":"CEM","subsector":"Cemento","tipo":"PLANTA","producto_principal":"Ex-molienda y embolsado (primera planta del país, 1919)","capacidad_declarada":"Cerrada — 0","origen_materia_prima":"Sin dato público oficial","estado_operativo":"CERRADA","ubicacion_texto":"Sierras Bayas, Olavarría, Bs. As.","localidad":"Sierras Bayas","provincia":"Buenos Aires","notas":"Cerrada en 2019. Primera planta de cemento del país (1919); valor patrimonial.","sin_ubicar":false,"lat":-36.936653,"lon":-60.156107,"precision_ubicacion":"EXACTA","metodo_geocodificacion":"Nominatim/OSM: Sierras Bayas, Partido de Olavarría, Buenos Aires, Argentina (boundary/administrative)","capacidad_estimada":null,"confianza_estimacion":null,"fuente_capacidad_estimada":"DOCUMENTO"}},{"type":"Feature","geometry":{"type":"Point","coordinates":[-64.362386,-31.478374]},"properties":{"id":"IND-CEM-008","empresa":"Holcim Argentina","planta":"Malagueño (Centro Industrial Córdoba)","categoria":"Cemento, Cal y Yeso","categoria_cod":"CEM","subsector":"Cemento","tipo":"PLANTA","producto_principal":"Clinker, cemento y morteros","capacidad_declarada":"Ampliación 2021 (US$120M): +512.000 t/año clinker y +635.000 t/año cemento; planta de morteros Tector 120.000 t/año","origen_materia_prima":"Caliza de Malagueño/Yocsina","estado_operativo":"ACTIVA","ubicacion_texto":"Malagueño, Depto. Santa María, Córdoba","localidad":"Malagueño","provincia":"Córdoba","notas":"","sin_ubicar":false,"lat":-31.478374,"lon":-64.362386,"precision_ubicacion":"EXACTA","metodo_geocodificacion":"Nominatim/OSM: Acceso a Fábrica Holcim, Camino Blanco, Malagueño, Municipio de Malagueño, Pedanía Calera, Departamento Santa María, Córdoba, X5186, Argentina (highway/residential)","capacidad_estimada":null,"confianza_estimacion":null,"fuente_capacidad_estimada":"DOCUMENTO"}},{"type":"Feature","geometry":{"type":"Point","coordinates":[-59.01284,-34.149783]},"properties":{"id":"IND-CEM-009","empresa":"Holcim Argentina","planta":"Planta Campana","categoria":"Cemento, Cal y Yeso","categoria_cod":"CEM","subsector":"Cemento","tipo":"PLANTA","producto_principal":"Cemento (molienda)","capacidad_declarada":"Sin dato público oficial","origen_materia_prima":"Clinker interno + insumos importados por puerto","estado_operativo":"ACTIVA","ubicacion_texto":"Ruta Nacional 9 km 81,5, Campana, Bs. As.","localidad":"Campana","provincia":"Buenos Aires","notas":"","sin_ubicar":false,"lat":-34.149783,"lon":-59.01284,"precision_ubicacion":"EXACTA","metodo_geocodificacion":"Nominatim/OSM: Holcim Argentina, Campana, Partido de Zárate, Buenos Aires, B2804NPA, Argentina (landuse/industrial)","capacidad_estimada":"más de 1.000.000 t/año de cemento","confianza_estimacion":"ALTA","fuente_capacidad_estimada":"ESTIMACION_EXTERNA: Holcim Argentina, comunicado \"Holcim Argentina celebra los 25 años de su Planta en Campana\" (nov. 2024), https://www.holcim.com.ar/prensa/holcim-argentina-celebra-los-25-anos-de-su-planta-en-campana. Fuente oficial de la empresa con cifra directa para esta planta."}},{"type":"Feature","geometry":{"type":"Point","coordinates":[-64.95658,-24.490395]},"properties":{"id":"IND-CEM-010","empresa":"Holcim Argentina","planta":"Planta Puesto Viejo","categoria":"Cemento, Cal y Yeso","categoria_cod":"CEM","subsector":"Cemento","tipo":"PLANTA","producto_principal":"Cemento","capacidad_declarada":"Sin dato público oficial","origen_materia_prima":"Caliza local","estado_operativo":"ACTIVA","ubicacion_texto":"Ruta 53 s/n, Puesto Viejo, Jujuy","localidad":"Puesto Viejo","provincia":"Jujuy","notas":"","sin_ubicar":false,"lat":-24.490395,"lon":-64.95658,"precision_ubicacion":"EXACTA","metodo_geocodificacion":"Nominatim/OSM: Planta de producción de cemento Holcim, Municipio de Puesto Viejo, Departamento El Carmen, Jujuy, Argentina (landuse/industrial)","capacidad_estimada":null,"confianza_estimacion":null,"fuente_capacidad_estimada":"NO_DISPONIBLE"}},{"type":"Feature","geometry":{"type":"Point","coordinates":[-68.843485,-32.73992]},"properties":{"id":"IND-CEM-011","empresa":"Holcim Argentina","planta":"Planta Capdeville","categoria":"Cemento, Cal y Yeso","categoria_cod":"CEM","subsector":"Cemento","tipo":"PLANTA","producto_principal":"Cemento","capacidad_declarada":"Sin dato público oficial","origen_materia_prima":"Caliza local","estado_operativo":"ACTIVA","ubicacion_texto":"Ruta Provincial 52 km 17,5, Capdeville, Las Heras, Mendoza","localidad":"Capdeville","provincia":"Mendoza","notas":"","sin_ubicar":false,"lat":-32.73992,"lon":-68.843485,"precision_ubicacion":"EXACTA","metodo_geocodificacion":"Nominatim/OSM: Holcim - Planta Capdeville, Distrito Capdevilla, Departamento Las Heras, Mendoza, Argentina (landuse/industrial)","capacidad_estimada":null,"confianza_estimacion":null,"fuente_capacidad_estimada":"NO_DISPONIBLE"}},{"type":"Feature","geometry":{"type":"Point","coordinates":[-64.364725,-31.445878]},"properties":{"id":"IND-CEM-012","empresa":"Holcim Argentina","planta":"Ex planta Yocsina","categoria":"Cemento, Cal y Yeso","categoria_cod":"CEM","subsector":"Cemento","tipo":"PLANTA","producto_principal":"Ex-molienda","capacidad_declarada":"Cerrada, producción unificada en Malagueño","origen_materia_prima":"Sin dato público oficial","estado_operativo":"CERRADA","ubicacion_texto":"Yocsina, Córdoba","localidad":"Yocsina","provincia":"Córdoba","notas":"Cerrada en 2021.","sin_ubicar":false,"lat":-31.445878,"lon":-64.364725,"precision_ubicacion":"EXACTA","metodo_geocodificacion":"Nominatim/OSM: Yocsina, Municipio de Malagueño, Pedanía Calera, Departamento Santa María, Córdoba, X5186, Argentina (place/village)","capacidad_estimada":null,"confianza_estimacion":null,"fuente_capacidad_estimada":"DOCUMENTO"}},{"type":"Feature","geometry":{"type":"Point","coordinates":[-60.25825,-36.966172]},"properties":{"id":"IND-CEM-013","empresa":"Cementos Avellaneda S.A. (Cementos Molins / Votorantim)","planta":"Planta Olavarría (San Jacinto)","categoria":"Cemento, Cal y Yeso","categoria_cod":"CEM","subsector":"Cemento","tipo":"PLANTA","producto_principal":"Clinker y cemento","capacidad_declarada":"Ampliación de línea en curso (obra IMPO en Parque Industrial Olavarría II)","origen_materia_prima":"Caliza Sierras de Tandilia","estado_operativo":"ACTIVA","ubicacion_texto":"Paraje San Jacinto, Olavarría, Bs. As. (inicio 1937)","localidad":"Olavarría","provincia":"Buenos Aires","notas":"","sin_ubicar":false,"lat":-36.966172,"lon":-60.25825,"precision_ubicacion":"EXACTA","metodo_geocodificacion":"Nominatim/OSM: San Jacinto, Olavarría, Partido de Olavarría, Buenos Aires, 7403, Argentina (place/isolated_dwelling)","capacidad_estimada":null,"confianza_estimacion":null,"fuente_capacidad_estimada":"DOCUMENTO"}},{"type":"Feature","geometry":{"type":"Point","coordinates":[-66.842473,-32.87729]},"properties":{"id":"IND-CEM-014","empresa":"Cementos Avellaneda S.A. (Cementos Molins / Votorantim)","planta":"Planta San Luis (La Calera)","categoria":"Cemento, Cal y Yeso","categoria_cod":"CEM","subsector":"Cemento","tipo":"PLANTA","producto_principal":"Cemento","capacidad_declarada":"Sin dato público oficial","origen_materia_prima":"Caliza local","estado_operativo":"ACTIVA","ubicacion_texto":"La Calera, Depto. Belgrano, San Luis (inicio 1975)","localidad":"La Calera","provincia":"San Luis","notas":"","sin_ubicar":false,"lat":-32.87729,"lon":-66.842473,"precision_ubicacion":"EXACTA","metodo_geocodificacion":"Nominatim/OSM: La Calera, Comisión Municipal de La Calera, Belgrano, San Luis, Argentina (place/village)","capacidad_estimada":"~1.000.000 t/año de cemento (ampliada desde 300.000 t/año)","confianza_estimacion":"ALTA","fuente_capacidad_estimada":"ESTIMACION_EXTERNA: International Cement Review / Global Cement Report, https://www.cemnet.com/News/story/162578/cementos-avellaneda-will-raise-capacity-at-its-la-calera-plant-by-2019.html. Prensa especializada del sector con cifra directa (0,3 Mt/a ampliada a 1 Mt/a)."}},{"type":"Feature","geometry":{"type":"Point","coordinates":[-58.602499,-34.673203]},"properties":{"id":"IND-CEM-015","empresa":"Cementos Avellaneda S.A. (Cementos Molins / Votorantim)","planta":"Planta hormigones San Justo","categoria":"Cemento, Cal y Yeso","categoria_cod":"CEM","subsector":"Hormigón","tipo":"PLANTA","producto_principal":"Hormigón elaborado","capacidad_declarada":"Sin dato público oficial","origen_materia_prima":"Cemento propio","estado_operativo":"ACTIVA","ubicacion_texto":"Chenaut 435, Villa Luzuriaga, Bs. As.","localidad":"Villa Luzuriaga","provincia":"Buenos Aires","notas":"","sin_ubicar":false,"lat":-34.673203,"lon":-58.602499,"precision_ubicacion":"EXACTA","metodo_geocodificacion":"Nominatim/OSM: 435, Chenaut, María Mazzarello, Villa Luzuriaga, Partido de La Matanza, Buenos Aires, 1753, Argentina (place/house)","capacidad_estimada":null,"confianza_estimacion":null,"fuente_capacidad_estimada":"NO_DISPONIBLE"}},{"type":"Feature","geometry":{"type":"Point","coordinates":[-58.56933,-34.738055]},"properties":{"id":"IND-CEM-016","empresa":"Cementos Avellaneda S.A. (Cementos Molins / Votorantim)","planta":"Planta hormigones Laferrere","categoria":"Cemento, Cal y Yeso","categoria_cod":"CEM","subsector":"Hormigón","tipo":"PLANTA","producto_principal":"Hormigón elaborado","capacidad_declarada":"Sin dato público oficial","origen_materia_prima":"Cemento propio","estado_operativo":"ACTIVA","ubicacion_texto":"Monseñor López May 1245, Isidro Casanova, Bs. As.","localidad":"Isidro Casanova","provincia":"Buenos Aires","notas":"","sin_ubicar":false,"lat":-34.738055,"lon":-58.56933,"precision_ubicacion":"EXACTA","metodo_geocodificacion":"Nominatim/OSM: Monseñor López May, Primero de Mayo, Isidro Casanova, Partido de La Matanza, Buenos Aires, 1757, Argentina (highway/residential)","capacidad_estimada":null,"confianza_estimacion":null,"fuente_capacidad_estimada":"NO_DISPONIBLE"}},{"type":"Feature","geometry":{"type":"Point","coordinates":[-58.590092,-34.510001]},"properties":{"id":"IND-CEM-017","empresa":"Cementos Avellaneda S.A. (Cementos Molins / Votorantim)","planta":"Planta hormigones José León Suárez","categoria":"Cemento, Cal y Yeso","categoria_cod":"CEM","subsector":"Hormigón","tipo":"PLANTA","producto_principal":"Hormigón elaborado","capacidad_declarada":"Sin dato público oficial","origen_materia_prima":"Cemento propio","estado_operativo":"ACTIVA","ubicacion_texto":"Camino Parque Buen Ayre y Bajada Debenedetti, José León Suárez, Bs. As.","localidad":"José León Suárez","provincia":"Buenos Aires","notas":"","sin_ubicar":false,"lat":-34.510001,"lon":-58.590092,"precision_ubicacion":"EXACTA","metodo_geocodificacion":"Nominatim/OSM: Camino Parque del Buen Ayre, Barrio Nuevo, Villa José León Suárez, Partido de General San Martín, Buenos Aires, B1655, Argentina (highway/motorway)","capacidad_estimada":null,"confianza_estimacion":null,"fuente_capacidad_estimada":"NO_DISPONIBLE"}},{"type":"Feature","geometry":{"type":"Point","coordinates":[-58.958684,-34.163663]},"properties":{"id":"IND-CEM-018","empresa":"Cementos Avellaneda S.A. (Cementos Molins / Votorantim)","planta":"Planta hormigones Campana","categoria":"Cemento, Cal y Yeso","categoria_cod":"CEM","subsector":"Hormigón","tipo":"PLANTA","producto_principal":"Hormigón elaborado","capacidad_declarada":"Sin dato público oficial","origen_materia_prima":"Cemento propio","estado_operativo":"ACTIVA","ubicacion_texto":"Camino a Capilla del Señor 10, Campana, Bs. As.","localidad":"Campana","provincia":"Buenos Aires","notas":"","sin_ubicar":false,"lat":-34.163663,"lon":-58.958684,"precision_ubicacion":"ESTIMADA","metodo_geocodificacion":"Nominatim/OSM: Campana, Partido de Campana, Buenos Aires, 2804, Argentina (place/town)","capacidad_estimada":null,"confianza_estimacion":null,"fuente_capacidad_estimada":"NO_DISPONIBLE"}},{"type":"Feature","geometry":{"type":"Point","coordinates":[-67.928267,-46.790103]},"properties":{"id":"IND-CEM-019","empresa":"PCR S.A. (Petroquímica Comodoro Rivadavia)","planta":"Planta Pico Truncado","categoria":"Cemento, Cal y Yeso","categoria_cod":"CEM","subsector":"Cemento","tipo":"PLANTA","producto_principal":"Clinker y cemento portland","capacidad_declarada":"~480.000 t/año cemento; horno de clinker 2.000 t/día (proyectado a 4.000 t/día); molienda 60 t/h","origen_materia_prima":"Caliza de yacimiento propio (reservas ~100 M t)","estado_operativo":"ACTIVA","ubicacion_texto":"Pico Truncado, Santa Cruz (predio de 50 ha; inaugurada 2008)","localidad":"Pico Truncado","provincia":"Santa Cruz","notas":"","sin_ubicar":false,"lat":-46.790103,"lon":-67.928267,"precision_ubicacion":"EXACTA","metodo_geocodificacion":"Nominatim/OSM: Planta de Cemento PCR Santa Cruz, Industrial, Pico Truncado, Deseado, Santa Cruz, Argentina (landuse/industrial)","capacidad_estimada":null,"confianza_estimacion":null,"fuente_capacidad_estimada":"DOCUMENTO"}},{"type":"Feature","geometry":{"type":"Point","coordinates":[-67.422569,-45.800746]},"properties":{"id":"IND-CEM-020","empresa":"PCR S.A. (Petroquímica Comodoro Rivadavia)","planta":"Planta Comodoro Rivadavia","categoria":"Cemento, Cal y Yeso","categoria_cod":"CEM","subsector":"Cemento","tipo":"PLANTA","producto_principal":"Molienda de cemento y despacho","capacidad_declarada":"Sin dato público oficial","origen_materia_prima":"Clinker desde Pico Truncado","estado_operativo":"ACTIVA","ubicacion_texto":"Comodoro Rivadavia, Chubut","localidad":"Comodoro Rivadavia","provincia":"Chubut","notas":"","sin_ubicar":false,"lat":-45.800746,"lon":-67.422569,"precision_ubicacion":"EXACTA","metodo_geocodificacion":"Nominatim/OSM: Estacionamiento PCR, Avenida Alejandro Maiz, Los Locos, Km. 8 - Don Bosco, Municipio de Comodoro Rivadavia, Departamento Escalante, Chubut, U9000, Argentina (amenity/parking)","capacidad_estimada":"~345.000 t/año de molienda de cemento (principalmente cemento petrolero)","confianza_estimacion":"MEDIA","fuente_capacidad_estimada":"ESTIMACION_EXTERNA: Informe de Calificación de PCR S.A. (FIX SCR / Allaria, jul. 2024), https://files.allaria.com.ar/attach/Calificaci%C3%B3n_-_Petroqu%C3%ADmica_Comodoro_Rivadavia_S.A._-_PCR_(1).pdf. Cifra específica de molienda en Comodoro (distinta de Pico Truncado); MEDIA por no lograr cita textual directa del PDF."}},{"type":"Feature","geometry":{"type":"Point","coordinates":[-68.691863,-32.072566]},"properties":{"id":"IND-CEM-021","empresa":"Caleras San Juan S.A.","planta":"Planta Cienaguita (4 hornos MAERZ)","categoria":"Cemento, Cal y Yeso","categoria_cod":"CEM","subsector":"Cal","tipo":"PLANTA","producto_principal":"Cal viva (siderurgia, minería del cobre/litio, construcción)","capacidad_declarada":"600.000 t/año (tras 4° horno, 2025); horno 3 individual: 120.000 t/año","origen_materia_prima":"Caliza de Los Berros/Cienaguita","estado_operativo":"ACTIVA","ubicacion_texto":"Cienaguita, Depto. Sarmiento, San Juan","localidad":"Cienaguita","provincia":"San Juan","notas":"Capitales 100% argentinos. Plan Maestro 2016-2025.","sin_ubicar":false,"lat":-32.072566,"lon":-68.691863,"precision_ubicacion":"EXACTA","metodo_geocodificacion":"Nominatim/OSM: La Cienaguita, Sarmiento, San Juan, Argentina (place/village)","capacidad_estimada":null,"confianza_estimacion":null,"fuente_capacidad_estimada":"DOCUMENTO"}},{"type":"Feature","geometry":{"type":"Point","coordinates":[-68.492616,-31.34267]},"properties":{"id":"IND-CEM-022","empresa":"Sibelco Argentina (grupo belga, ex Minera TEA)","planta":"Planta Albardón (La Laja) — \"Minera Tea\"","categoria":"Cemento, Cal y Yeso","categoria_cod":"CEM","subsector":"Cal","tipo":"PLANTA","producto_principal":"Cal para siderurgia, minería y construcción; sílice para vidrio/cerámica","capacidad_declarada":"600.000 t/año, en ampliación a 760.000 t/año (1ª etapa) y proyectado a 920.000 t/año (inversión total US$100M)","origen_materia_prima":"Caliza de Villicum/La Laja","estado_operativo":"ACTIVA","ubicacion_texto":"La Laja, Depto. Albardón, San Juan","localidad":"La Laja","provincia":"San Juan","notas":"","sin_ubicar":false,"lat":-31.34267,"lon":-68.492616,"precision_ubicacion":"EXACTA","metodo_geocodificacion":"Nominatim/OSM: La Laja, Villa Ampacama, Albardón, San Juan, Argentina (natural/bare_rock)","capacidad_estimada":null,"confianza_estimacion":null,"fuente_capacidad_estimada":"DOCUMENTO"}},{"type":"Feature","geometry":{"type":"Point","coordinates":[-68.654266,-31.9527]},"properties":{"id":"IND-CEM-023","empresa":"Sibelco Argentina (grupo belga)","planta":"Planta Los Berros (ex La Buena Esperanza)","categoria":"Cemento, Cal y Yeso","categoria_cod":"CEM","subsector":"Cal","tipo":"PLANTA","producto_principal":"Cal","capacidad_declarada":"Incluida en capacidad consolidada de Sibelco San Juan","origen_materia_prima":"Caliza local","estado_operativo":"ACTIVA","ubicacion_texto":"Los Berros, Depto. Sarmiento, San Juan","localidad":"Los Berros","provincia":"San Juan","notas":"","sin_ubicar":false,"lat":-31.9527,"lon":-68.654266,"precision_ubicacion":"EXACTA","metodo_geocodificacion":"Nominatim/OSM: Los Berros, Sarmiento, San Juan, 5431, Argentina (place/village)","capacidad_estimada":null,"confianza_estimacion":null,"fuente_capacidad_estimada":"DOCUMENTO"}},{"type":"Feature","geometry":{"type":"Point","coordinates":[-68.437024,-31.217583]},"properties":{"id":"IND-CEM-024","empresa":"Sibelco Argentina (grupo belga)","planta":"Planta El Villicum (ex El Volcán)","categoria":"Cemento, Cal y Yeso","categoria_cod":"CEM","subsector":"Cal","tipo":"PLANTA","producto_principal":"Cal","capacidad_declarada":"Incluida en capacidad consolidada de Sibelco San Juan","origen_materia_prima":"Caliza local","estado_operativo":"ACTIVA","ubicacion_texto":"El Villicum, Depto. Albardón, San Juan","localidad":"El Villicum","provincia":"San Juan","notas":"","sin_ubicar":false,"lat":-31.217583,"lon":-68.437024,"precision_ubicacion":"ESTIMADA","metodo_geocodificacion":"Nominatim/OSM: Albardón, San Juan, J5419, Argentina (boundary/administrative)","capacidad_estimada":null,"confianza_estimacion":null,"fuente_capacidad_estimada":"DOCUMENTO"}},{"type":"Feature","geometry":{"type":"Point","coordinates":[-68.654266,-31.9527]},"properties":{"id":"IND-CEM-025","empresa":"Grupo Calidra / CEFAS (mexicano)","planta":"Planta Los Berros (marca \"El Milagro\")","categoria":"Cemento, Cal y Yeso","categoria_cod":"CEM","subsector":"Cal","tipo":"PLANTA","producto_principal":"Cal viva y cal hidratada (marcas El Milagro, Sublime, Santa Elena)","capacidad_declarada":"~200.000 t/año (previo a duplicación proyectada a 2019)","origen_materia_prima":"Caliza local","estado_operativo":"ACTIVA","ubicacion_texto":"Los Berros, Depto. Sarmiento, San Juan","localidad":"Los Berros","provincia":"San Juan","notas":"","sin_ubicar":false,"lat":-31.9527,"lon":-68.654266,"precision_ubicacion":"EXACTA","metodo_geocodificacion":"Nominatim/OSM: Los Berros, Sarmiento, San Juan, 5431, Argentina (place/village)","capacidad_estimada":null,"confianza_estimacion":null,"fuente_capacidad_estimada":"DOCUMENTO"}},{"type":"Feature","geometry":{"type":"Point","coordinates":[-68.746588,-30.241601]},"properties":{"id":"IND-CEM-026","empresa":"Compañía Minera del Pacífico S.A. (Cementos Bío Bío + Soprocal)","planta":"Planta Jáchal (ex \"El Refugio\")","categoria":"Cemento, Cal y Yeso","categoria_cod":"CEM","subsector":"Cal","tipo":"PLANTA","producto_principal":"Cal","capacidad_declarada":"Parte del total provincial","origen_materia_prima":"Caliza local","estado_operativo":"ACTIVA","ubicacion_texto":"Jáchal, San Juan","localidad":"San José de Jáchal","provincia":"San Juan","notas":"Capitales chilenos. El documento no precisa el paraje de la planta.","sin_ubicar":false,"lat":-30.241601,"lon":-68.746588,"precision_ubicacion":"ESTIMADA","metodo_geocodificacion":"Nominatim/OSM: San José de Jáchal, Jáchal, San Juan, Argentina (boundary/administrative)","capacidad_estimada":null,"confianza_estimacion":null,"fuente_capacidad_estimada":"DOCUMENTO"}},{"type":"Feature","geometry":{"type":"Point","coordinates":[-64.684342,-30.862698]},"properties":{"id":"IND-CEM-027","empresa":"Grupo Calidra / CEFAS (mexicano)","planta":"Planta Quilpo","categoria":"Cemento, Cal y Yeso","categoria_cod":"CEM","subsector":"Cal","tipo":"PLANTA","producto_principal":"Ex-cal hidráulica (marcas Lougas y Feitis)","capacidad_declarada":"Cerrada — operación cesada en 2017","origen_materia_prima":"Caliza local (yacimiento agotado/discontinuado)","estado_operativo":"CERRADA","ubicacion_texto":"Canteras Quilpo, 28 km de Cruz del Eje, Córdoba","localidad":"Cruz del Eje","provincia":"Córdoba","notas":"","sin_ubicar":false,"lat":-30.862698,"lon":-64.684342,"precision_ubicacion":"EXACTA","metodo_geocodificacion":"Nominatim/OSM: Quilpo, Pedanía San Marcos, Departamento Cruz del Eje, Córdoba, X5280, Argentina (highway/unclassified)","capacidad_estimada":null,"confianza_estimacion":null,"fuente_capacidad_estimada":"DOCUMENTO"}},{"type":"Feature","geometry":{"type":"Point","coordinates":[-64.354327,-31.462388]},"properties":{"id":"IND-CEM-028","empresa":"Grupo Calidra / CEFAS (mexicano)","planta":"Planta Malagueño (\"Cal Malagueño\")","categoria":"Cemento, Cal y Yeso","categoria_cod":"CEM","subsector":"Cal","tipo":"PLANTA","producto_principal":"Cal aérea hidratada para revoques y mampostería","capacidad_declarada":"Incluida en capacidad consolidada de Calidra Cono Sur","origen_materia_prima":"Caliza de las Sierras Chicas","estado_operativo":"ACTIVA","ubicacion_texto":"Malagueño, Córdoba","localidad":"Malagueño","provincia":"Córdoba","notas":"","sin_ubicar":false,"lat":-31.462388,"lon":-64.354327,"precision_ubicacion":"EXACTA","metodo_geocodificacion":"Nominatim/OSM: Malagueño, Municipio de Malagueño, Pedanía Calera, Departamento Santa María, Córdoba, X5186, Argentina (place/town)","capacidad_estimada":null,"confianza_estimacion":null,"fuente_capacidad_estimada":"DOCUMENTO"}},{"type":"Feature","geometry":{"type":"Point","coordinates":[-60.323168,-36.893875]},"properties":{"id":"IND-CEM-029","empresa":"Grupo Calidra / CEFAS (mexicano)","planta":"Planta Olavarría","categoria":"Cemento, Cal y Yeso","categoria_cod":"CEM","subsector":"Cal","tipo":"PLANTA","producto_principal":"Cal (marca \"Malagueño\" y otras)","capacidad_declarada":"Incluida en capacidad consolidada de Calidra Cono Sur (>920.000 t/año junto con Albardón, Quilpo histórico, Olavarría y Zapala)","origen_materia_prima":"Caliza de Tandilia","estado_operativo":"ACTIVA","ubicacion_texto":"Olavarría, Bs. As.","localidad":"Olavarría","provincia":"Buenos Aires","notas":"","sin_ubicar":false,"lat":-36.893875,"lon":-60.323168,"precision_ubicacion":"ESTIMADA","metodo_geocodificacion":"Nominatim/OSM: Olavarría, Partido de Olavarría, Buenos Aires, B7400, Argentina (place/city)","capacidad_estimada":null,"confianza_estimacion":null,"fuente_capacidad_estimada":"DOCUMENTO"}},{"type":"Feature","geometry":{"type":"Point","coordinates":[-70.066857,-38.900621]},"properties":{"id":"IND-CEM-030","empresa":"Grupo Calidra / CEFAS (mexicano)","planta":"Planta Zapala","categoria":"Cemento, Cal y Yeso","categoria_cod":"CEM","subsector":"Cal","tipo":"PLANTA","producto_principal":"Cal","capacidad_declarada":"Incluida en capacidad consolidada de Calidra Cono Sur","origen_materia_prima":"Caliza local","estado_operativo":"ACTIVA","ubicacion_texto":"Zapala, Neuquén","localidad":"Zapala","provincia":"Neuquén","notas":"","sin_ubicar":false,"lat":-38.900621,"lon":-70.066857,"precision_ubicacion":"ESTIMADA","metodo_geocodificacion":"Nominatim/OSM: Municipio de Zapala, Departamento Zapala, Neuquén, Q8340, Argentina (boundary/administrative)","capacidad_estimada":null,"confianza_estimacion":null,"fuente_capacidad_estimada":"DOCUMENTO"}},{"type":"Feature","geometry":{"type":"Point","coordinates":[-68.879986,-33.039141]},"properties":{"id":"IND-CEM-031","empresa":"Knauf Argentina","planta":"Planta Luján de Cuyo","categoria":"Cemento, Cal y Yeso","categoria_cod":"CEM","subsector":"Yeso","tipo":"PLANTA","producto_principal":"Placas de yeso, perfiles de acero galvanizado y masilla","capacidad_declarada":"Mayor capacidad productiva de placas de yeso y masillas en polvo de Sudamérica (cifra propia no desagregada)","origen_materia_prima":"Yeso de canteras cuyanas","estado_operativo":"ACTIVA","ubicacion_texto":"Luján de Cuyo, Mendoza","localidad":"Luján de Cuyo","provincia":"Mendoza","notas":"Única planta del grupo Knauf en el país (2001).","sin_ubicar":false,"lat":-33.039141,"lon":-68.879986,"precision_ubicacion":"ESTIMADA","metodo_geocodificacion":"Nominatim/OSM: Distrito Ciudad de Luján de Cuyo, Departamento Luján de Cuyo, Mendoza, Argentina (boundary/administrative)","capacidad_estimada":null,"confianza_estimacion":null,"fuente_capacidad_estimada":"DOCUMENTO"}},{"type":"Feature","geometry":{"type":"Point","coordinates":[-68.509378,-31.484679]},"properties":{"id":"IND-CEM-032","empresa":"Saint-Gobain Placo","planta":"Planta Chimbas","categoria":"Cemento, Cal y Yeso","categoria_cod":"CEM","subsector":"Yeso","tipo":"PLANTA","producto_principal":"Placas de yeso laminado (marcas Placo y Tuyango)","capacidad_declarada":"Sin dato público oficial","origen_materia_prima":"Yeso de yacimientos sanjuaninos","estado_operativo":"ACTIVA","ubicacion_texto":"Chimbas, San Juan","localidad":"Chimbas","provincia":"San Juan","notas":"","sin_ubicar":false,"lat":-31.484679,"lon":-68.509378,"precision_ubicacion":"ESTIMADA","metodo_geocodificacion":"Nominatim/OSM: Chimbas, San Juan, 5413, Argentina (boundary/administrative)","capacidad_estimada":null,"confianza_estimacion":null,"fuente_capacidad_estimada":"NO_DISPONIBLE"}},{"type":"Feature","geometry":{"type":"Point","coordinates":[-64.604304,-37.378187]},"properties":{"id":"IND-CEM-033","empresa":"Durlock S.A. (Grupo Etex, belga)","planta":"Complejo industrial General Acha","categoria":"Cemento, Cal y Yeso","categoria_cod":"CEM","subsector":"Yeso","tipo":"PLANTA","producto_principal":"Placas de yeso y masillas (sistema Durlock)","capacidad_declarada":"24.000.000 m²/año (ampliada desde 7,5 M m²/año original tras inversión de US$19M en 1997)","origen_materia_prima":"Yeso pampeano","estado_operativo":"ACTIVA","ubicacion_texto":"General Acha, La Pampa","localidad":"General Acha","provincia":"La Pampa","notas":"Planta fundacional (1977).","sin_ubicar":false,"lat":-37.378187,"lon":-64.604304,"precision_ubicacion":"ESTIMADA","metodo_geocodificacion":"Nominatim/OSM: General Acha, Municipio de General Acha, Departamento Utracán, La Pampa, Argentina (boundary/administrative)","capacidad_estimada":null,"confianza_estimacion":null,"fuente_capacidad_estimada":"DOCUMENTO"}},{"type":"Feature","geometry":{"type":"Point","coordinates":[-69.584732,-35.468381]},"properties":{"id":"IND-CEM-034","empresa":"Durlock S.A. (Grupo Etex, belga)","planta":"Plantas Malargüe (2 plantas)","categoria":"Cemento, Cal y Yeso","categoria_cod":"CEM","subsector":"Yeso","tipo":"PLANTA","producto_principal":"Yesos tradicionales en polvo (Yemaco, Alpress, Aljez) y bloques macizos","capacidad_declarada":"Sin dato público oficial","origen_materia_prima":"Yeso cuyano","estado_operativo":"ACTIVA","ubicacion_texto":"Malargüe, Mendoza","localidad":"Malargüe","provincia":"Mendoza","notas":"El documento consigna DOS plantas en Malargüe desde 1997; se georreferencian como un único nodo por falta de domicilios individuales.","sin_ubicar":false,"lat":-35.468381,"lon":-69.584732,"precision_ubicacion":"ESTIMADA","metodo_geocodificacion":"Nominatim/OSM: Malargüe, Distrito Ciudad de Malargüe, Departamento Malargüe, Mendoza, Argentina (boundary/administrative)","capacidad_estimada":null,"confianza_estimacion":null,"fuente_capacidad_estimada":"NO_DISPONIBLE"}},{"type":"Feature","geometry":{"type":"Point","coordinates":[-67.542766,-39.048015]},"properties":{"id":"IND-CEM-035","empresa":"Durlock S.A. (ex \"Cía. Corral\", adquirida 2008)","planta":"Planta General Roca — yesera histórica (barrio Stefenelli)","categoria":"Cemento, Cal y Yeso","categoria_cod":"CEM","subsector":"Yeso","tipo":"PLANTA","producto_principal":"Yeso en bolsa","capacidad_declarada":"Sin dato público oficial","origen_materia_prima":"Yeso patagónico (Río Negro es la principal provincia productora de yeso del país)","estado_operativo":"ACTIVA","ubicacion_texto":"General Roca, Río Negro","localidad":"General Roca","provincia":"Río Negro","notas":"","sin_ubicar":false,"lat":-39.048015,"lon":-67.542766,"precision_ubicacion":"EXACTA","metodo_geocodificacion":"Nominatim/OSM: Padre Stefenelli, Municipio de General Roca, Departamento General Roca, Río Negro, 8232, Argentina (boundary/administrative)","capacidad_estimada":null,"confianza_estimacion":null,"fuente_capacidad_estimada":"NO_DISPONIBLE"}},{"type":"Feature","geometry":{"type":"Point","coordinates":[-67.537429,-39.017618]},"properties":{"id":"IND-CEM-036","empresa":"Durlock S.A. (Grupo Etex, belga)","planta":"Nueva planta Parque Industrial Roca II","categoria":"Cemento, Cal y Yeso","categoria_cod":"CEM","subsector":"Yeso","tipo":"PLANTA","producto_principal":"Placas de yeso (nueva línea, abastece Patagonia y exportación a Chile)","capacidad_declarada":"~70 empleos directos, ~200 indirectos","origen_materia_prima":"Yeso patagónico (canteras cercanas a la planta)","estado_operativo":"ACTIVA","ubicacion_texto":"Parque Industrial Roca II, General Roca, Río Negro","localidad":"General Roca","provincia":"Río Negro","notas":"Anunciada en 2018, inversión $1.000M.","sin_ubicar":false,"lat":-39.017618,"lon":-67.537429,"precision_ubicacion":"EXACTA","metodo_geocodificacion":"Nominatim/OSM: Parque Industrial, General Roca, Municipio de General Roca, Departamento General Roca, Río Negro, Argentina (boundary/administrative)","capacidad_estimada":"~20.000.000 m²/año de placas de yeso (capacidad de proyecto anunciada)","confianza_estimacion":"MEDIA","fuente_capacidad_estimada":"ESTIMACION_EXTERNA: Municipio de General Roca, https://www.generalroca.gov.ar/durlock-proyecta-instalar-nueva-planta-en-el-parque-industrial-ii/ y Gobierno de Río Negro (2018). Capacidad de diseño anunciada, no necesariamente la producción alcanzada."}},{"type":"Feature","geometry":{"type":"Point","coordinates":[-58.560784,-34.677419]},"properties":{"id":"IND-CEM-037","empresa":"Durlock S.A. / Grupo Etex","planta":"Planta San Justo (fibrocemento)","categoria":"Cemento, Cal y Yeso","categoria_cod":"CEM","subsector":"Fibrocemento","tipo":"PLANTA","producto_principal":"Placas de fibrocemento","capacidad_declarada":"Sin dato público oficial","origen_materia_prima":"Cemento y fibras","estado_operativo":"ACTIVA","ubicacion_texto":"San Justo, La Matanza, Bs. As.","localidad":"San Justo","provincia":"Buenos Aires","notas":"","sin_ubicar":false,"lat":-34.677419,"lon":-58.560784,"precision_ubicacion":"ESTIMADA","metodo_geocodificacion":"Nominatim/OSM: San Justo, Partido de La Matanza, Buenos Aires, Argentina (boundary/administrative)","capacidad_estimada":null,"confianza_estimacion":null,"fuente_capacidad_estimada":"NO_DISPONIBLE"}}]}