{"type":"FeatureCollection","features":[{"type":"Feature","geometry":{"type":"Point","coordinates":[-60.712625,-32.867582]},"properties":{"id":"IND-MAQ-001","empresa":"John Deere Argentina","planta":"Planta Granadero Baigorria","categoria":"Maquinaria Pesada, Agrícola, Vial y Carrocerías","categoria_cod":"MAQ","subsector":"Tractores","tipo":"PLANTA","producto_principal":"Tractores (series 5E, 6E, 6J, 7J) y motores","capacidad_declarada":"~1.000 tractores/año (un turno, ampliable con doble turno); ~850-2.500 empleados según ciclo","origen_materia_prima":"Componentes nacionales (fundiciones, cubiertas, baterías) + importados","estado_operativo":"ACTIVA","ubicacion_texto":"Juan Orsetti 481, Granadero Baigorria, Santa Fe (en el país desde 1958)","localidad":"Granadero Baigorria","provincia":"Santa Fe","notas":"","sin_ubicar":false,"lat":-32.867582,"lon":-60.712625,"precision_ubicacion":"EXACTA","metodo_geocodificacion":"Nominatim/OSM: John Deere Argentina, 481, Granadero Baigorria, Municipio de Granadero Baigorria, Gran Rosario, Departamento Rosario, Santa Fe, 2152, Argentina (landuse/industrial)","capacidad_estimada":null,"confianza_estimacion":null,"fuente_capacidad_estimada":"DOCUMENTO"}},{"type":"Feature","geometry":{"type":"Point","coordinates":[-62.718532,-31.879228]},"properties":{"id":"IND-MAQ-002","empresa":"Pauny S.A. (ex Zanello)","planta":"Planta Las Varillas","categoria":"Maquinaria Pesada, Agrícola, Vial y Carrocerías","categoria_cod":"MAQ","subsector":"Tractores","tipo":"PLANTA","producto_principal":"Tractores","capacidad_declarada":"~2.000 tractores/año (conjunto de sus dos plantas)","origen_materia_prima":"Componentes nacionales e importados","estado_operativo":"ACTIVA","ubicacion_texto":"Las Varillas, Córdoba (adquirida en subasta 2003, ex activos de Zanello)","localidad":"Las Varillas","provincia":"Córdoba","notas":"","sin_ubicar":false,"lat":-31.879228,"lon":-62.718532,"precision_ubicacion":"EXACTA","metodo_geocodificacion":"Nominatim/OSM: Pauny S.A., Las Varillas, Municipio de Las Varillas, Pedanía Sacanta, Departamento San Justo, Córdoba, X2400, Argentina (landuse/industrial)","capacidad_estimada":null,"confianza_estimacion":null,"fuente_capacidad_estimada":"DOCUMENTO"}},{"type":"Feature","geometry":{"type":"Point","coordinates":[-64.24344,-27.735708]},"properties":{"id":"IND-MAQ-003","empresa":"Pauny S.A.","planta":"Planta Santiago del Estero","categoria":"Maquinaria Pesada, Agrícola, Vial y Carrocerías","categoria_cod":"MAQ","subsector":"Tractores","tipo":"PLANTA","producto_principal":"Tractores / componentes","capacidad_declarada":"Incluida en los ~2.000 tractores/año del grupo","origen_materia_prima":"Sin dato público oficial","estado_operativo":"ACTIVA","ubicacion_texto":"Santiago del Estero (predio exacto a confirmar)","localidad":"Santiago del Estero","provincia":"Santiago del Estero","notas":"El documento marca el predio exacto como no confirmado; se referencia en la capital provincial. Ubicación aportada por investigación externa (capacidades_estimadas.json): Parque Industrial La Isla, departamento La Banda, Santiago del Estero. Fuente: La Nación (2006).","sin_ubicar":false,"lat":-27.735708,"lon":-64.24344,"precision_ubicacion":"ESTIMADA","metodo_geocodificacion":"Nominatim/OSM: La Banda, Municipio de La Banda, Departamento Banda, Santiago del Estero, G4300, Argentina (boundary/administrative)","capacidad_estimada":"aprox. 15 tractores de 120 HP por mes al inicio de la planta (2006), además de minibuses y motoniveladoras","confianza_estimacion":"BAJA","fuente_capacidad_estimada":"ESTIMACION_EXTERNA: La Nación (2006, https://www.lanacion.com.ar/economia/campo/pauny-zanello-con-una-nueva-planta-en-santiago-del-estero-nid817274/) y bichosdecampo.com: planta de 6.000 m² en el Parque Industrial La Isla (2006) más montaje de 1.650 m² (2012). Cifra de arranque, probablemente desactualizada."}},{"type":"Feature","geometry":{"type":"Point","coordinates":[-60.70277,-32.854251]},"properties":{"id":"IND-MAQ-004","empresa":"Agrinar (ex planta Massey Ferguson)","planta":"Planta Granadero Baigorria","categoria":"Maquinaria Pesada, Agrícola, Vial y Carrocerías","categoria_cod":"MAQ","subsector":"Tractores","tipo":"PLANTA","producto_principal":"Tractores y cosechadoras","capacidad_declarada":"Sin dato público oficial","origen_materia_prima":"Sin dato público oficial","estado_operativo":"ACTIVA","ubicacion_texto":"Granadero Baigorria, Santa Fe","localidad":"Granadero Baigorria","provincia":"Santa Fe","notas":"","sin_ubicar":false,"lat":-32.854251,"lon":-60.70277,"precision_ubicacion":"EXACTA","metodo_geocodificacion":"Nominatim/OSM: Agrinar, Urquiza, El Paraíso, Granadero Baigorria, Municipio de Granadero Baigorria, Gran Rosario, Departamento Rosario, Santa Fe, 2152, Argentina (building/industrial)","capacidad_estimada":null,"confianza_estimacion":null,"fuente_capacidad_estimada":"NO_DISPONIBLE"}},{"type":"Feature","geometry":{"type":"Point","coordinates":[-64.1059,-31.462455]},"properties":{"id":"IND-MAQ-005","empresa":"CNH Industrial","planta":"Planta Córdoba (Case IH / New Holland)","categoria":"Maquinaria Pesada, Agrícola, Vial y Carrocerías","categoria_cod":"MAQ","subsector":"Cosechadoras","tipo":"PLANTA","producto_principal":"Cosechadoras y tractores","capacidad_declarada":"Sin dato público oficial","origen_materia_prima":"Sin dato público oficial","estado_operativo":"ACTIVA","ubicacion_texto":"Córdoba (predio a confirmar)","localidad":"Córdoba","provincia":"Córdoba","notas":"El documento marca el predio exacto como no confirmado. Ubicación aportada por investigación externa (capacidades_estimadas.json): Complejo industrial CNH Industrial / FPT en Ferreyra, ciudad de Córdoba. Fuente: Maquinac.com (2013) y Cadena3.","sin_ubicar":false,"lat":-31.462455,"lon":-64.1059,"precision_ubicacion":"ESTIMADA","metodo_geocodificacion":"Nominatim/OSM: Ferreyra, Avenida Amadeo Sabattini, Nicolás Avellaneda, Córdoba, Municipio de Córdoba, Pedanía Capital, Departamento Capital, Córdoba, X5020, Argentina (railway/station)","capacidad_estimada":"hasta 2.000 cosechadoras y 4.000 tractores por año (más hasta 50.000 motores/año en la planta FPT del complejo)","confianza_estimacion":"MEDIA","fuente_capacidad_estimada":"ESTIMACION_EXTERNA: Maquinac.com (2013, 'CNH inauguró su planta industrial en Córdoba') y Cadena3/AgroNoa: complejo de dos plantas (US$130M) en Ferreyra diseñado para 2.000 cosechadoras, 4.000 tractores y 50.000 motores por año. Capacidad de diseño del complejo completo, no desagregada por línea."}},{"type":"Feature","geometry":{"type":"Point","coordinates":[-59.332374,-34.656287]},"properties":{"id":"IND-MAQ-006","empresa":"Agrale Argentina","planta":"Planta de montaje Mercedes","categoria":"Maquinaria Pesada, Agrícola, Vial y Carrocerías","categoria_cod":"MAQ","subsector":"Tractores","tipo":"PLANTA","producto_principal":"Tractores (montaje)","capacidad_declarada":"Sin dato público oficial","origen_materia_prima":"Componentes importados de Brasil","estado_operativo":"ACTIVA","ubicacion_texto":"Mercedes, Bs. As.","localidad":"Mercedes","provincia":"Buenos Aires","notas":"","sin_ubicar":false,"lat":-34.656287,"lon":-59.332374,"precision_ubicacion":"EXACTA","metodo_geocodificacion":"Nominatim/OSM: Agrale Argentina, Partido de Mercedes, Buenos Aires, Argentina (landuse/industrial)","capacidad_estimada":"aprox. 1.000 unidades/año (capacidad histórica de diseño; ritmo de arranque de 70 a 100 por mes)","confianza_estimacion":"BAJA","fuente_capacidad_estimada":"ESTIMACION_EXTERNA: El Cronista ('Agrale fabricará camiones en la ex planta del 3CV en Mercedes') y autoblog.com.ar: capacidad de diseño de ~1.000 unidades/año para la planta de Ruta 5 km 89,5 (200.000 m²), al momento de su habilitación."}},{"type":"Feature","geometry":{"type":"Point","coordinates":[-58.608902,-33.032556]},"properties":{"id":"IND-MAQ-008","empresa":"Metalúrgica Hermann S.R.L.","planta":"Planta Parque Industrial Gualeguaychú","categoria":"Maquinaria Pesada, Agrícola, Vial y Carrocerías","categoria_cod":"MAQ","subsector":"Remolques","tipo":"PLANTA","producto_principal":"Acoplados, carrocerías, semirremolques y bitrenes","capacidad_declarada":"Líder nacional desde 2006, ~15% del mercado; planta de 26.500 m² cubiertos en predio de 8 ha; ~130 unidades/mes, ~300 empleados","origen_materia_prima":"Chapa y perfiles de acero","estado_operativo":"ACTIVA","ubicacion_texto":"Parque Industrial Gualeguaychú (Ruta Nacional 14), Gualeguaychú, Entre Ríos","localidad":"Gualeguaychú","provincia":"Entre Ríos","notas":"","sin_ubicar":false,"lat":-33.032556,"lon":-58.608902,"precision_ubicacion":"EXACTA","metodo_geocodificacion":"Nominatim/OSM: Parque Industrial Gualeguaychú, Gualeguaychú, Distrito Costa Uruguay Sur, Departamento Gualeguaychú, Entre Ríos, Argentina (landuse/industrial)","capacidad_estimada":null,"confianza_estimacion":null,"fuente_capacidad_estimada":"DOCUMENTO"}},{"type":"Feature","geometry":{"type":"Point","coordinates":[-60.935536,-31.578058]},"properties":{"id":"IND-MAQ-009","empresa":"Sola y Brusa S.A.","planta":"Planta Franck","categoria":"Maquinaria Pesada, Agrícola, Vial y Carrocerías","categoria_cod":"MAQ","subsector":"Remolques","tipo":"PLANTA","producto_principal":"Semirremolques (bateas, portacontenedores, ganaderos doble piso)","capacidad_declarada":"2° lugar en patentamientos (77 u./mes en pico reciente); fundada en 1961","origen_materia_prima":"Chapa y perfiles de acero","estado_operativo":"ACTIVA","ubicacion_texto":"Ruta Provincial N°6 km 7, Franck, Santa Fe","localidad":"Franck","provincia":"Santa Fe","notas":"","sin_ubicar":false,"lat":-31.578058,"lon":-60.935536,"precision_ubicacion":"EXACTA","metodo_geocodificacion":"Nominatim/OSM: Sola y Brusa S.A, San Martín, Franck, Municipio de Franck, Departamento Las Colonias, Santa Fe, S3009WAA, Argentina (man_made/works)","capacidad_estimada":null,"confianza_estimacion":null,"fuente_capacidad_estimada":"DOCUMENTO"}},{"type":"Feature","geometry":{"type":"Point","coordinates":[-61.587544,-32.470604]},"properties":{"id":"IND-MAQ-010","empresa":"Semirremolques Vulcano S.A.","planta":"Planta Las Rosas","categoria":"Maquinaria Pesada, Agrícola, Vial y Carrocerías","categoria_cod":"MAQ","subsector":"Remolques","tipo":"PLANTA","producto_principal":"Semirremolques","capacidad_declarada":"Su titular (Carlos Moriconi) presidió la CAFAS","origen_materia_prima":"Chapa y perfiles de acero","estado_operativo":"ACTIVA","ubicacion_texto":"Ruta 178, Av. Dickinson 1151, Las Rosas, Santa Fe","localidad":"Las Rosas","provincia":"Santa Fe","notas":"","sin_ubicar":false,"lat":-32.470604,"lon":-61.587544,"precision_ubicacion":"EXACTA","metodo_geocodificacion":"Nominatim/OSM: 1151, Avenida Dickinson, Municipio de Las Rosas, Las Rosas, Departamento Belgrano, Santa Fe, S2520, Argentina (place/house)","capacidad_estimada":null,"confianza_estimacion":null,"fuente_capacidad_estimada":"DOCUMENTO"}},{"type":"Feature","geometry":{"type":"Point","coordinates":[-61.398773,-32.813658]},"properties":{"id":"IND-MAQ-011","empresa":"Helvética S.A.","planta":"Planta Cañada de Gómez","categoria":"Maquinaria Pesada, Agrícola, Vial y Carrocerías","categoria_cod":"MAQ","subsector":"Remolques","tipo":"PLANTA","producto_principal":"Acoplados y semirremolques","capacidad_declarada":"Líder histórico (fundada en 1904); nave de 15.000 m² cubiertos en predio de 9 ha","origen_materia_prima":"Chapa y perfiles de acero","estado_operativo":"ACTIVA","ubicacion_texto":"Parque Industrial de Cañada de Gómez (Ruta Nac. 9 y Ruta Prov. 91), Santa Fe","localidad":"Cañada de Gómez","provincia":"Santa Fe","notas":"","sin_ubicar":false,"lat":-32.813658,"lon":-61.398773,"precision_ubicacion":"EXACTA","metodo_geocodificacion":"Nominatim/OSM: Helvética, 1291, Cañada de Gómez, Municipio de Cañada de Gómez, Departamento Iriondo, Santa Fe, 2500, Argentina (landuse/industrial)","capacidad_estimada":null,"confianza_estimacion":null,"fuente_capacidad_estimada":"DOCUMENTO"}},{"type":"Feature","geometry":{"type":"Point","coordinates":[-60.619613,-33.057523]},"properties":{"id":"IND-MAQ-012","empresa":"Randon Argentina S.A. (brasileña)","planta":"Planta en Argentina","categoria":"Maquinaria Pesada, Agrícola, Vial y Carrocerías","categoria_cod":"MAQ","subsector":"Remolques","tipo":"PLANTA","producto_principal":"Semirremolques","capacidad_declarada":"~7% del mercado; única de las 12 principales que no es de capital nacional","origen_materia_prima":"Chapa y perfiles de acero","estado_operativo":"ACTIVA","ubicacion_texto":"Argentina (inscripta en DNRPA; predio exacto no confirmado en esta ronda)","localidad":"","provincia":"","notas":"El documento declara el predio como no confirmado. Ubicación aportada por investigación externa (capacidades_estimadas.json): Planta en Alvear, Santa Fe (Ruta Provincial 16 km 4,5, sur del Gran Rosario), desde 1994. Fuentes: https://www.lacapital.com.ar/economia/con-inversiones-randon-celebra-25-anos-el-pais-n2519236.html y https://www.cronista.com/negocios/grupo-brasileno-randon-aumenta-60-su-produccion-en-la-argentina/","sin_ubicar":false,"lat":-33.057523,"lon":-60.619613,"precision_ubicacion":"ESTIMADA","metodo_geocodificacion":"Nominatim/OSM: Alvear, Municipio de Alvear, Gran Rosario, Departamento Rosario, Santa Fe, Argentina (boundary/administrative)","capacidad_estimada":null,"confianza_estimacion":null,"fuente_capacidad_estimada":"DOCUMENTO"}},{"type":"Feature","geometry":{"type":"Point","coordinates":[-58.232023,-32.485185]},"properties":{"id":"IND-MAQ-013","empresa":"Lambert Hermanos","planta":"Planta Concepción del Uruguay","categoria":"Maquinaria Pesada, Agrícola, Vial y Carrocerías","categoria_cod":"MAQ","subsector":"Remolques","tipo":"PLANTA","producto_principal":"Acoplados y semirremolques","capacidad_declarada":"9° en patentamientos nacionales (2020)","origen_materia_prima":"Chapa y perfiles de acero","estado_operativo":"ACTIVA","ubicacion_texto":"Concepción del Uruguay, Entre Ríos","localidad":"Concepción del Uruguay","provincia":"Entre Ríos","notas":"","sin_ubicar":false,"lat":-32.485185,"lon":-58.232023,"precision_ubicacion":"ESTIMADA","metodo_geocodificacion":"Nominatim/OSM: Concepción del Uruguay, Distrito Molino, Departamento Uruguay, Entre Ríos, Argentina (boundary/administrative)","capacidad_estimada":null,"confianza_estimacion":null,"fuente_capacidad_estimada":"DOCUMENTO"}},{"type":"Feature","geometry":{"type":"Point","coordinates":[-60.195817,-32.172251]},"properties":{"id":"IND-MAQ-014","empresa":"Acoplados Gross (Sucesores de Emilio Gross S.R.L.)","planta":"Planta General Ramírez","categoria":"Maquinaria Pesada, Agrícola, Vial y Carrocerías","categoria_cod":"MAQ","subsector":"Remolques","tipo":"PLANTA","producto_principal":"Acoplados y semirremolques","capacidad_declarada":"11° en patentamientos nacionales (2020)","origen_materia_prima":"Chapa y perfiles de acero","estado_operativo":"ACTIVA","ubicacion_texto":"República de Entre Ríos 1880, General Ramírez, Entre Ríos","localidad":"General Ramírez","provincia":"Entre Ríos","notas":"","sin_ubicar":false,"lat":-32.172251,"lon":-60.195817,"precision_ubicacion":"EXACTA","metodo_geocodificacion":"Nominatim/OSM: Avenida República de Entre Ríos, Barrio San Carlos, General Ramírez, Distrito Isletas, Departamento Diamante, Entre Ríos, 3164, Argentina (highway/tertiary)","capacidad_estimada":null,"confianza_estimacion":null,"fuente_capacidad_estimada":"DOCUMENTO"}},{"type":"Feature","geometry":{"type":"Point","coordinates":[-58.758708,-34.470512]},"properties":{"id":"IND-MAQ-015","empresa":"Cometto S.A.","planta":"Planta Tortuguitas","categoria":"Maquinaria Pesada, Agrícola, Vial y Carrocerías","categoria_cod":"MAQ","subsector":"Remolques","tipo":"PLANTA","producto_principal":"Semirremolques especiales y equipos de transporte pesado","capacidad_declarada":"Miembro fundador de CAFAS","origen_materia_prima":"Chapa y perfiles de acero","estado_operativo":"ACTIVA","ubicacion_texto":"Ruta Panamericana km 35,700 y Henry Ford, Tortuguitas, Buenos Aires","localidad":"Tortuguitas","provincia":"Buenos Aires","notas":"","sin_ubicar":false,"lat":-34.470512,"lon":-58.758708,"precision_ubicacion":"ESTIMADA","metodo_geocodificacion":"Nominatim/OSM: Tortuguitas, Partido de Malvinas Argentinas, Buenos Aires, 1667, Argentina (boundary/administrative)","capacidad_estimada":null,"confianza_estimacion":null,"fuente_capacidad_estimada":"DOCUMENTO"}},{"type":"Feature","geometry":{"type":"Point","coordinates":[-60.882948,-32.863735]},"properties":{"id":"IND-MAQ-016","empresa":"Danés S.R.L.","planta":"Planta Roldán","categoria":"Maquinaria Pesada, Agrícola, Vial y Carrocerías","categoria_cod":"MAQ","subsector":"Remolques","tipo":"PLANTA","producto_principal":"Acoplados y semirremolques","capacidad_declarada":"Sin dato público oficial","origen_materia_prima":"Chapa y perfiles de acero","estado_operativo":"ACTIVA","ubicacion_texto":"Ruta A-012 km 52, Roldán, Santa Fe","localidad":"Roldán","provincia":"Santa Fe","notas":"","sin_ubicar":false,"lat":-32.863735,"lon":-60.882948,"precision_ubicacion":"EXACTA","metodo_geocodificacion":"Nominatim/OSM: Danés SRL, Ruta Nacional A012, Villa Eduardito, Roldán, Municipio de Roldán, Gran Rosario, Departamento San Lorenzo, Santa Fe, S2134, Argentina (man_made/works)","capacidad_estimada":null,"confianza_estimacion":null,"fuente_capacidad_estimada":"NO_DISPONIBLE"}},{"type":"Feature","geometry":{"type":"Point","coordinates":[-60.949412,-31.437307]},"properties":{"id":"IND-MAQ-017","empresa":"SICA Metalúrgica Argentina S.A.","planta":"Planta Esperanza","categoria":"Maquinaria Pesada, Agrícola, Vial y Carrocerías","categoria_cod":"MAQ","subsector":"Remolques","tipo":"PLANTA","producto_principal":"Acoplados y semirremolques","capacidad_declarada":"Sin dato público oficial","origen_materia_prima":"Chapa y perfiles de acero","estado_operativo":"ACTIVA","ubicacion_texto":"Rvdo. Padre Kreder 3746, Esperanza, Santa Fe","localidad":"Esperanza","provincia":"Santa Fe","notas":"","sin_ubicar":false,"lat":-31.437307,"lon":-60.949412,"precision_ubicacion":"EXACTA","metodo_geocodificacion":"Nominatim/OSM: Sica Metalúrgica Argentina S.A., 3746, Kreder, Esperanza, Municipio de Esperanza, Departamento Las Colonias, Santa Fe, 3080, Argentina (craft/metal_construction)","capacidad_estimada":null,"confianza_estimacion":null,"fuente_capacidad_estimada":"NO_DISPONIBLE"}},{"type":"Feature","geometry":{"type":"Point","coordinates":[-62.104385,-32.694693]},"properties":{"id":"IND-MAQ-018","empresa":"Taboga Hnos. S.A.C.I.","planta":"Planta Marcos Juárez","categoria":"Maquinaria Pesada, Agrícola, Vial y Carrocerías","categoria_cod":"MAQ","subsector":"Remolques","tipo":"PLANTA","producto_principal":"Acoplados (marca \"El Fierro\")","capacidad_declarada":"Sin dato público oficial","origen_materia_prima":"Chapa y perfiles de acero","estado_operativo":"ACTIVA","ubicacion_texto":"Av. Intendente Loinás 60, Marcos Juárez, Córdoba","localidad":"Marcos Juárez","provincia":"Córdoba","notas":"","sin_ubicar":false,"lat":-32.694693,"lon":-62.104385,"precision_ubicacion":"ESTIMADA","metodo_geocodificacion":"Nominatim/OSM: Municipio de Marcos Juárez, Pedanía Espinillos, Departamento Marcos Juárez, Córdoba, X2580, Argentina (boundary/administrative)","capacidad_estimada":null,"confianza_estimacion":null,"fuente_capacidad_estimada":"NO_DISPONIBLE"}},{"type":"Feature","geometry":{"type":"Point","coordinates":[-65.309441,-43.253124]},"properties":{"id":"IND-MAQ-019","empresa":"INDASYC S.A.","planta":"Planta Trelew","categoria":"Maquinaria Pesada, Agrícola, Vial y Carrocerías","categoria_cod":"MAQ","subsector":"Remolques","tipo":"PLANTA","producto_principal":"Acoplados y semirremolques (marca Sayi)","capacidad_declarada":"Única fábrica del rubro identificada en la Patagonia","origen_materia_prima":"Chapa y perfiles de acero","estado_operativo":"ACTIVA","ubicacion_texto":"Ruta Nacional N°3 km 1.460, Trelew, Chubut","localidad":"Trelew","provincia":"Chubut","notas":"","sin_ubicar":false,"lat":-43.253124,"lon":-65.309441,"precision_ubicacion":"ESTIMADA","metodo_geocodificacion":"Nominatim/OSM: Trelew, Municipio de Trelew, Departamento Rawson, Chubut, U9100, Argentina (place/city)","capacidad_estimada":null,"confianza_estimacion":null,"fuente_capacidad_estimada":"DOCUMENTO"}}]}