{"type":"FeatureCollection","features":[{"type":"Feature","geometry":{"type":"Point","coordinates":[-61.214212,-32.041052]},"properties":{"id":"IND-ENE-001","empresa":"Tadeo Czerweny S.A.","planta":"Planta industrial Gálvez","categoria":"Nodos Energéticos y Material Eléctrico Pesado","categoria_cod":"ENE","subsector":"Transformadores","tipo":"PLANTA","producto_principal":"Transformadores de distribución y potencia, subestaciones móviles","capacidad_declarada":"Transformadores de potencia hasta 100-300 MVA y hasta 500 kV","origen_materia_prima":"Chapa magnética, cobre, aislantes (mayormente importados)","estado_operativo":"ACTIVA","ubicacion_texto":"Bv. Argentino 374, Gálvez, Santa Fe","localidad":"Gálvez","provincia":"Santa Fe","notas":"","sin_ubicar":false,"lat":-32.041052,"lon":-61.214212,"precision_ubicacion":"EXACTA","metodo_geocodificacion":"Nominatim/OSM: 374, Bulevar Argentino, Florida, Gálvez, Municipio de Gálvez, Departamento San Jerónimo, Santa Fe, S2252BZG, Argentina (place/house)","capacidad_estimada":null,"confianza_estimacion":null,"fuente_capacidad_estimada":"DOCUMENTO"}},{"type":"Feature","geometry":{"type":"Point","coordinates":[-58.501762,-34.657863]},"properties":{"id":"IND-ENE-002","empresa":"Prysmian Energía Cables y Sistemas de Argentina","planta":"Planta \"La Rosa\"","categoria":"Nodos Energéticos y Material Eléctrico Pesado","categoria_cod":"ENE","subsector":"Cables de potencia","tipo":"PLANTA","producto_principal":"Cables de energía de media y alta tensión (hasta 245 kV) y cables ópticos","capacidad_declarada":"Centro de excelencia sudamericano para cables subterráneos de alta tensión (132-220 kV); inversión de US$15M en nueva línea (2018)","origen_materia_prima":"Cobre, aluminio, XLPE","estado_operativo":"ACTIVA","ubicacion_texto":"Barrio de Mataderos, CABA","localidad":"Mataderos","provincia":"Ciudad Autónoma de Buenos Aires","notas":"","sin_ubicar":false,"lat":-34.657863,"lon":-58.501762,"precision_ubicacion":"ESTIMADA","metodo_geocodificacion":"Nominatim/OSM: Mataderos, Buenos Aires, Comuna 9, Ciudad Autónoma de Buenos Aires, Argentina (boundary/administrative)","capacidad_estimada":null,"confianza_estimacion":null,"fuente_capacidad_estimada":"DOCUMENTO"}},{"type":"Feature","geometry":{"type":"Point","coordinates":[-58.739943,-34.661425]},"properties":{"id":"IND-ENE-003","empresa":"IMSA (Industria Metalúrgica Sud Americana)","planta":"Planta industrial Merlo","categoria":"Nodos Energéticos y Material Eléctrico Pesado","categoria_cod":"ENE","subsector":"Cables de potencia","tipo":"PLANTA","producto_principal":"Cables eléctricos de baja/media/alta tensión, alambres esmaltados de cobre y aluminio, metales semielaborados","capacidad_declarada":"s/d (planta integrada: laminación en caliente y frío de cobre, colada continua de alambrón, líneas de vulcanización y catenaria para MT/AT)","origen_materia_prima":"Cobre y aluminio (colada continua propia)","estado_operativo":"ACTIVA","ubicacion_texto":"Av. Pres. Juan Domingo Perón 26399, Merlo, Bs. As.","localidad":"Merlo","provincia":"Buenos Aires","notas":"Operando desde 1947. El documento aclara que la ubicación exacta no fue confirmada por fuente secundaria.","sin_ubicar":false,"lat":-34.661425,"lon":-58.739943,"precision_ubicacion":"EXACTA","metodo_geocodificacion":"Nominatim/OSM: IMSA, Lago del Bosque, Merlo, Partido de Merlo, Buenos Aires, Argentina (landuse/industrial)","capacidad_estimada":null,"confianza_estimacion":null,"fuente_capacidad_estimada":"DOCUMENTO"}},{"type":"Feature","geometry":{"type":"Point","coordinates":[-71.963934,-43.00767]},"properties":{"id":"IND-ENE-004","empresa":"Aluar Aluminio Argentino S.A.I.C.","planta":"Central Hidroeléctrica Futaleufú","categoria":"Nodos Energéticos y Material Eléctrico Pesado","categoria_cod":"ENE","subsector":"Generación hidroeléctrica","tipo":"CENTRAL_ENERGETICA","producto_principal":"Generación hidroeléctrica (autoabastecimiento industrial)","capacidad_declarada":"560 MW","origen_materia_prima":"Sin dato público oficial","estado_operativo":"ACTIVA","ubicacion_texto":"Futaleufú, Chubut","localidad":"Futaleufú","provincia":"Chubut","notas":"Abastece la planta de aluminio primario de Puerto Madryn. OSM no expone la presa ni la casa de máquinas: la coordenada es el embalse Amutui Quimei, referencia gruesa del complejo.","sin_ubicar":false,"lat":-43.00767,"lon":-71.963934,"precision_ubicacion":"ESTIMADA","metodo_geocodificacion":"Nominatim/OSM: Embalse Amutui Quimei, Departamento Futaleufú, Chubut, Argentina (water/reservoir)","capacidad_estimada":null,"confianza_estimacion":null,"fuente_capacidad_estimada":"DOCUMENTO"}},{"type":"Feature","geometry":{"type":"Point","coordinates":[-65.25908,-42.63904]},"properties":{"id":"IND-ENE-005","empresa":"Aluar Aluminio Argentino S.A.I.C.","planta":"Parque Eólico Aluar (PEAL)","categoria":"Nodos Energéticos y Material Eléctrico Pesado","categoria_cod":"ENE","subsector":"Generación eólica","tipo":"CENTRAL_ENERGETICA","producto_principal":"Generación eólica","capacidad_declarada":"246 MW actuales, proyectado a 582 MW (119 aerogeneradores)","origen_materia_prima":"Sin dato público oficial","estado_operativo":"ACTIVA","ubicacion_texto":"Puerto Madryn, Chubut","localidad":"Puerto Madryn","provincia":"Chubut","notas":"","sin_ubicar":false,"lat":-42.63904,"lon":-65.25908,"precision_ubicacion":"EXACTA","metodo_geocodificacion":"Nominatim/OSM: Parque Eólico Aluar I, Departamento Biedma, Chubut, Argentina (landuse/industrial)","capacidad_estimada":null,"confianza_estimacion":null,"fuente_capacidad_estimada":"DOCUMENTO"}},{"type":"Feature","geometry":{"type":"Point","coordinates":[-60.323168,-36.893875]},"properties":{"id":"IND-ENE-006","empresa":"Cementos Avellaneda / YPF Luz","planta":"Parque Eólico Cementos Avellaneda","categoria":"Nodos Energéticos y Material Eléctrico Pesado","categoria_cod":"ENE","subsector":"Generación eólica","tipo":"CENTRAL_ENERGETICA","producto_principal":"Generación eólica (autoabastecimiento de planta cementera)","capacidad_declarada":"63 MW (9 aerogeneradores Nordex Delta 7MW), factor de capacidad 47%","origen_materia_prima":"Sin dato público oficial","estado_operativo":"ACTIVA","ubicacion_texto":"Olavarría, Bs. As. (predio de la cementera, 450 ha)","localidad":"Olavarría","provincia":"Buenos Aires","notas":"","sin_ubicar":false,"lat":-36.893875,"lon":-60.323168,"precision_ubicacion":"ESTIMADA","metodo_geocodificacion":"Nominatim/OSM: Olavarría, Partido de Olavarría, Buenos Aires, B7400, Argentina (place/city)","capacidad_estimada":null,"confianza_estimacion":null,"fuente_capacidad_estimada":"DOCUMENTO"}}]}