{"type": "FeatureCollection", "features": [{"type": "Feature", "properties": {"mmsi": "755018000", "name": "CAPTAIN BILBO", "cog": 259.8, "sog": 0, "shipClass": "A", "destination": "CONFLUENCIA", "type": 32, "length": 275, "beam": 42, "timestamp": 1791507191112.7178}, "geometry": {"type": "Point", "coordinates": [-60.72029, -32.63093833333333]}}, {"type": "Feature", "properties": {"mmsi": "710032150", "name": "C TEMPORAL", "cog": 120, "sog": 0, "shipClass": "B", "destination": "No Reportado", "type": 0, "length": 0, "beam": 0, "timestamp": 1791507191676.6748}, "geometry": {"type": "Point", "coordinates": [-46.301745, -23.96341]}}, {"type": "Feature", "properties": {"mmsi": "257569000", "name": "BOW PROSPER", "cog": 350.3, "sog": 10.7, "shipClass": "A", "destination": "BRSSZ", "type": 89, "length": 183, "beam": 28, "timestamp": 1791507192023.4368}, "geometry": {"type": "Point", "coordinates": [-58.33193833333333, -34.09428833333333]}}, {"type": "Feature", "properties": {"mmsi": "710028160", "name": "DRATEC XXI", "cog": 69, "sog": 0.1, "shipClass": "B", "destination": "No Reportado", "type": 0, "length": 0, "beam": 0, "timestamp": 1791507192748.2212}, "geometry": {"type": "Point", "coordinates": [-46.309315, -23.931288333333335]}}, {"type": "Feature", "properties": {"mmsi": "372713000", "name": "NEW ELIAS", "cog": 166, "sog": 0, "shipClass": "A", "destination": "BR POU", "type": 70, "length": 289, "beam": 45, "timestamp": 1791507194822.3416}, "geometry": {"type": "Point", "coordinates": [-40.47959166666667, -20.81850166666667]}}, {"type": "Feature", "properties": {"mmsi": "710000698", "name": "ALCATRAZ", "cog": 55.9, "sog": 8.1, "shipClass": "A", "destination": "No Reportado", "type": 0, "length": 0, "beam": 0, "timestamp": 1791507203297.4792}, "geometry": {"type": "Point", "coordinates": [-40.86782166666667, -22.142409999999998]}}, {"type": "Feature", "properties": {"mmsi": "701006706", "name": "SVITZER MORA", "cog": 353.6, "sog": 0, "shipClass": "A", "destination": "No Reportado", "type": 0, "length": 0, "beam": 0, "timestamp": 1791507195901.891}, "geometry": {"type": "Point", "coordinates": [-58.38301, -34.573213333333335]}}, {"type": "Feature", "properties": {"mmsi": "710000467", "name": "HAMAL", "cog": 145.2, "sog": 0, "shipClass": "A", "destination": "SANTOS", "type": 52, "length": 24, "beam": 11, "timestamp": 1791507196190.8364}, "geometry": {"type": "Point", "coordinates": [-46.32316, -23.931876666666668]}}, {"type": "Feature", "properties": {"mmsi": "212300000", "name": "CARME", "cog": 162.8, "sog": 0.1, "shipClass": "A", "destination": "SANTOS", "type": 70, "length": 180, "beam": 30, "timestamp": 1791507197042.9165}, "geometry": {"type": "Point", "coordinates": [-46.17785333333334, -24.084386666666667]}}, {"type": "Feature", "properties": {"mmsi": "701000763", "name": "HUAFENG 816", "cog": 280.3, "sog": 0.3, "shipClass": "A", "destination": "MAR DEL PLATA", "type": 30, "length": 23, "beam": 5, "timestamp": 1791507197491.5283}, "geometry": {"type": "Point", "coordinates": [-57.53501833333333, -38.049105000000004]}}, {"type": "Feature", "properties": {"mmsi": "701001307", "name": "MAX DREAM", "cog": 219.4, "sog": 0, "shipClass": "A", "destination": "SAN LORENZO", "type": 50, "length": 11, "beam": 4, "timestamp": 1791507200644.452}, "geometry": {"type": "Point", "coordinates": [-60.72709166666667, -32.719755]}}, {"type": "Feature", "properties": {"mmsi": "636020610", "name": "ANDROUSA", "cog": 355.5, "sog": 0, "shipClass": "A", "destination": "No Reportado", "type": 0, "length": 0, "beam": 0, "timestamp": 1791507201313.576}, "geometry": {"type": "Point", "coordinates": [-46.29619, -23.961656666666666]}}, {"type": "Feature", "properties": {"mmsi": "710003973", "name": "LS 05", "cog": 44.1, "sog": 2.2, "shipClass": "B", "destination": "No Reportado", "type": 0, "length": 0, "beam": 0, "timestamp": 1791507201806.3882}, "geometry": {"type": "Point", "coordinates": [-46.308765, -23.939805]}}, {"type": "Feature", "properties": {"mmsi": "701000849", "name": "VIRGEN MARIA", "cog": 6.2, "sog": 0.2, "shipClass": "A", "destination": "No Reportado", "type": 0, "length": 0, "beam": 0, "timestamp": 1791507205882.4941}, "geometry": {"type": "Point", "coordinates": [-57.537835, -38.04607166666666]}}, {"type": "Feature", "properties": {"mmsi": "710029170", "name": "SN ARAGIPE", "cog": 74.3, "sog": 0, "shipClass": "A", "destination": "INTO_PORT-SSZ", "type": 52, "length": 25, "beam": 9, "timestamp": 1791507206161.566}, "geometry": {"type": "Point", "coordinates": [-46.31422666666666, -23.925688333333333]}}, {"type": "Feature", "properties": {"mmsi": "710003538", "name": "SAAM ARANA", "cog": 119.8, "sog": 0, "shipClass": "A", "destination": "SANTOS", "type": 95, "length": 24, "beam": 15, "timestamp": 1791507208212.2107}, "geometry": {"type": "Point", "coordinates": [-46.29318, -23.991656666666664]}}, {"type": "Feature", "properties": {"mmsi": "701001304", "name": "DELTARENA", "cog": 303.6, "sog": 4.7, "shipClass": "A", "destination": "BS.AS - KM 230", "type": 79, "length": 52, "beam": 8, "timestamp": 1791507209628.7366}, "geometry": {"type": "Point", "coordinates": [-58.570225, -34.284395]}}, {"type": "Feature", "properties": {"mmsi": "710000595", "name": "BRAM BREEZE", "cog": 243.5, "sog": 0, "shipClass": "A", "destination": "No Reportado", "type": 0, "length": 0, "beam": 0, "timestamp": 1791507210522.8455}, "geometry": {"type": "Point", "coordinates": [-43.21221833333333, -22.894566666666666]}}, {"type": "Feature", "properties": {"mmsi": "701514000", "name": "GC 66 RIO LUJAN", "cog": 185.5, "sog": 0, "shipClass": "A", "destination": "No Reportado", "type": 55, "length": 27, "beam": 5, "timestamp": 1791507210840.4053}, "geometry": {"type": "Point", "coordinates": [-57.53454333333333, -38.03691166666667]}}, {"type": "Feature", "properties": {"mmsi": "710352061", "name": "PESCAMAR III", "cog": 357.3, "sog": 0, "shipClass": "A", "destination": "No Reportado", "type": 30, "length": 19, "beam": 6, "timestamp": 1791507211224.6816}, "geometry": {"type": "Point", "coordinates": [-46.29285333333333, -23.986138333333333]}}, {"type": "Feature", "properties": {"mmsi": "710004833", "name": "SC X", "cog": 337.9, "sog": 0, "shipClass": "B", "destination": "No Reportado", "type": 0, "length": 0, "beam": 0, "timestamp": 1791507212329.7188}, "geometry": {"type": "Point", "coordinates": [-46.30789666666667, -23.943353333333334]}}, {"type": "Feature", "properties": {"mmsi": "710118360", "name": "SAFIRA VITORIA", "cog": 7.2, "sog": 0, "shipClass": "B", "destination": "No Reportado", "type": 0, "length": 0, "beam": 0, "timestamp": 1791507212836.858}, "geometry": {"type": "Point", "coordinates": [-40.721970000000006, -20.83615]}}, {"type": "Feature", "properties": {"mmsi": "710008820", "name": "Desconocido", "cog": 288.3, "sog": 7.5, "shipClass": "A", "destination": "No Reportado", "type": 0, "length": 0, "beam": 0, "timestamp": 1791507212836.9536}, "geometry": {"type": "Point", "coordinates": [-40.459833333333336, -21.959666666666667]}}, {"type": "Feature", "properties": {"mmsi": "710007363", "name": "C FALCAO", "cog": 360, "sog": 0, "shipClass": "B", "destination": "No Reportado", "type": 0, "length": 0, "beam": 0, "timestamp": 1791507213932.6172}, "geometry": {"type": "Point", "coordinates": [-46.296725, -23.96983]}}, {"type": "Feature", "properties": {"mmsi": "710000031", "name": "SERRA NEVADA", "cog": 280.5, "sog": 0, "shipClass": "A", "destination": "No Reportado", "type": 0, "length": 0, "beam": 0, "timestamp": 1791507214908.9446}, "geometry": {"type": "Point", "coordinates": [-43.09271666666667, -22.8244]}}, {"type": "Feature", "properties": {"mmsi": "538008846", "name": "NAVIOS GALAXY II", "cog": 202.7, "sog": 11.5, "shipClass": "A", "destination": "BR SSZ", "type": 70, "length": 229, "beam": 32, "timestamp": 1791507215587.6304}, "geometry": {"type": "Point", "coordinates": [-46.35162666666667, -24.038381666666666]}}, {"type": "Feature", "properties": {"mmsi": "710014630", "name": "LOCAR LH XXIII", "cog": 15.4, "sog": 0, "shipClass": "A", "destination": "No Reportado", "type": 0, "length": 32, "beam": 9, "timestamp": 1791507215587.724}, "geometry": {"type": "Point", "coordinates": [-46.31910333333334, -23.932866666666666]}}, {"type": "Feature", "properties": {"mmsi": "373938000", "name": "AG VALOR", "cog": 42.4, "sog": 7.8, "shipClass": "A", "destination": "BR", "type": 70, "length": 169, "beam": 27, "timestamp": 1791507215757.8298}, "geometry": {"type": "Point", "coordinates": [-40.990694999999995, -22.538610000000002]}}, {"type": "Feature", "properties": {"mmsi": "710032560", "name": "CBO IGUACU", "cog": 181.9, "sog": 6.8, "shipClass": "A", "destination": "No Reportado", "type": 0, "length": 0, "beam": 0, "timestamp": 1791507215835.4558}, "geometry": {"type": "Point", "coordinates": [-43.15517, -22.8771]}}, {"type": "Feature", "properties": {"mmsi": "710002128", "name": "PINGUIM", "cog": 240.2, "sog": 0, "shipClass": "A", "destination": "No Reportado", "type": 0, "length": 0, "beam": 0, "timestamp": 1791507216036.5918}, "geometry": {"type": "Point", "coordinates": [-43.162295, -22.851813333333332]}}, {"type": "Feature", "properties": {"mmsi": "710004551", "name": "BELOV HUMAITA", "cog": 245.8, "sog": 2.2, "shipClass": "A", "destination": "No Reportado", "type": 0, "length": 0, "beam": 0, "timestamp": 1791507216036.6897}, "geometry": {"type": "Point", "coordinates": [-43.1163, -22.822498333333332]}}, {"type": "Feature", "properties": {"mmsi": "710005689", "name": "NORMAND VALIANT", "cog": 7.2, "sog": 0, "shipClass": "A", "destination": "No Reportado", "type": 0, "length": 0, "beam": 0, "timestamp": 1791507216440.5986}, "geometry": {"type": "Point", "coordinates": [-43.12996166666667, -22.861646666666665]}}, {"type": "Feature", "properties": {"mmsi": "710000391", "name": "WEZEN", "cog": 194, "sog": 0.1, "shipClass": "A", "destination": "RIO DE JANEIRO", "type": 52, "length": 24, "beam": 10, "timestamp": 1791507216869.7158}, "geometry": {"type": "Point", "coordinates": [-43.12165666666667, -22.877936666666667]}}, {"type": "Feature", "properties": {"mmsi": "701006225", "name": "DONA ISABEL", "cog": 281.7, "sog": 6.6, "shipClass": "A", "destination": "No Reportado", "type": 0, "length": 0, "beam": 0, "timestamp": 1791507217667.9963}, "geometry": {"type": "Point", "coordinates": [-58.52532, -34.29902333333334]}}, {"type": "Feature", "properties": {"mmsi": "701000735", "name": "CERES", "cog": 178.7, "sog": 0, "shipClass": "A", "destination": "No Reportado", "type": 0, "length": 0, "beam": 0, "timestamp": 1791507217668.0908}, "geometry": {"type": "Point", "coordinates": [-57.53800666666667, -38.044941666666666]}}, {"type": "Feature", "properties": {"mmsi": "710001290", "name": "ATLANTICO", "cog": 360, "sog": 0, "shipClass": "A", "destination": "No Reportado", "type": 0, "length": 0, "beam": 0, "timestamp": 1791507217668.141}, "geometry": {"type": "Point", "coordinates": [-43.140231666666665, -22.89987]}}, {"type": "Feature", "properties": {"mmsi": "701006545", "name": "HERNANDARIAS", "cog": 138.1, "sog": 9.4, "shipClass": "A", "destination": "No Reportado", "type": 0, "length": 0, "beam": 0, "timestamp": 1791507217668.227}, "geometry": {"type": "Point", "coordinates": [-58.49955333333333, -34.31412]}}, {"type": "Feature", "properties": {"mmsi": "710007151", "name": "SVITZER ROCHA PEDRO", "cog": 360, "sog": 0, "shipClass": "A", "destination": "SANTOS", "type": 52, "length": 23, "beam": 11, "timestamp": 1791507217668.2717}, "geometry": {"type": "Point", "coordinates": [-46.31875166666667, -23.933018333333333]}}, {"type": "Feature", "properties": {"mmsi": "710007689", "name": "STIM STAR ARABIAN GU", "cog": 262.7, "sog": 0.1, "shipClass": "A", "destination": "No Reportado", "type": 0, "length": 0, "beam": 0, "timestamp": 1791507218768.648}, "geometry": {"type": "Point", "coordinates": [-43.12951666666667, -22.835613333333335]}}, {"type": "Feature", "properties": {"mmsi": "701140000", "name": "LUQINGYUANYU280", "cog": 225.8, "sog": 0.1, "shipClass": "A", "destination": "MADRYN", "type": 30, "length": 74, "beam": 10, "timestamp": 1791507218768.742}, "geometry": {"type": "Point", "coordinates": [-57.52874, -38.03423333333333]}}, {"type": "Feature", "properties": {"mmsi": "710002450", "name": "MAERSK VENTURA", "cog": 48.3, "sog": 9, "shipClass": "A", "destination": "No Reportado", "type": 0, "length": 0, "beam": 0, "timestamp": 1791507219416.302}, "geometry": {"type": "Point", "coordinates": [-40.74728833333334, -22.113723333333333]}}, {"type": "Feature", "properties": {"mmsi": "701000964", "name": "POPA", "cog": 318.1, "sog": 0, "shipClass": "A", "destination": "No Reportado", "type": 0, "length": 0, "beam": 0, "timestamp": 1791507220731.799}, "geometry": {"type": "Point", "coordinates": [-57.53506166666667, -38.049170000000004]}}, {"type": "Feature", "properties": {"mmsi": "710008780", "name": "ALPHARD", "cog": 205.8, "sog": 0, "shipClass": "A", "destination": "SANTOS SP", "type": 52, "length": 24, "beam": 10, "timestamp": 1791507220731.8955}, "geometry": {"type": "Point", "coordinates": [-46.31716333333333, -23.933601666666668]}}, {"type": "Feature", "properties": {"mmsi": "701508000", "name": "GC 72 BUENOS AIRES", "cog": 182.5, "sog": 0, "shipClass": "A", "destination": "No Reportado", "type": 55, "length": 27, "beam": 5, "timestamp": 1791507221052.4028}, "geometry": {"type": "Point", "coordinates": [-57.534555, -38.03688833333333]}}, {"type": "Feature", "properties": {"mmsi": "701157000", "name": "LU QING YUAN YU 275", "cog": 338, "sog": 0, "shipClass": "A", "destination": "ZONA DE PESCA", "type": 30, "length": 66, "beam": 11, "timestamp": 1791507221427.2651}, "geometry": {"type": "Point", "coordinates": [-57.530046666666664, -38.034196666666666]}}, {"type": "Feature", "properties": {"mmsi": "710003682", "name": "PROF. LUIZ CARLOS", "cog": 46.3, "sog": 0.1, "shipClass": "A", "destination": "RIO", "type": 90, "length": 30, "beam": 7, "timestamp": 1791507222177.8594}, "geometry": {"type": "Point", "coordinates": [-43.170048333333334, -22.916718333333332]}}, {"type": "Feature", "properties": {"mmsi": "755045702", "name": "NORA E", "cog": 360, "sog": 0, "shipClass": "A", "destination": "TROCIUK Y ESC", "type": 89, "length": 305, "beam": 64, "timestamp": 1791507223420.2947}, "geometry": {"type": "Point", "coordinates": [-60.754106666666665, -32.600291666666664]}}, {"type": "Feature", "properties": {"mmsi": "701000736", "name": "!!MARIANELA!!", "cog": 36.8, "sog": 0.2, "shipClass": "A", "destination": "No Reportado", "type": 0, "length": 0, "beam": 0, "timestamp": 1791507223420.3909}, "geometry": {"type": "Point", "coordinates": [-57.53534166666667, -38.04585]}}, {"type": "Feature", "properties": {"mmsi": "256449000", "name": "CMA CGM YUKON", "cog": 225.2, "sog": 20.6, "shipClass": "A", "destination": "No Reportado", "type": 0, "length": 0, "beam": 0, "timestamp": 1791507223617.7268}, "geometry": {"type": "Point", "coordinates": [-40.48084333333334, -22.11674]}}, {"type": "Feature", "properties": {"mmsi": "701006740", "name": "GUILLERMO C", "cog": 0, "sog": 0, "shipClass": "A", "destination": "SANTA FE", "type": 0, "length": 21, "beam": 0, "timestamp": 1791507224717.9324}, "geometry": {"type": "Point", "coordinates": [-60.72641, -32.63673]}}, {"type": "Feature", "properties": {"mmsi": "770576139", "name": "AUDAX TSURU 20", "cog": 206.5, "sog": 0, "shipClass": "A", "destination": "No Reportado", "type": 0, "length": 0, "beam": 0, "timestamp": 1791507232178.6763}, "geometry": {"type": "Point", "coordinates": [-58.379614999999994, -34.571479999999994]}}, {"type": "Feature", "properties": {"mmsi": "710458734", "name": "LETICIA F", "cog": 15.4, "sog": 5.8, "shipClass": "B", "destination": "No Reportado", "type": 0, "length": 0, "beam": 0, "timestamp": 1791507233265.519}, "geometry": {"type": "Point", "coordinates": [-40.67819, -21.128868333333333]}}, {"type": "Feature", "properties": {"mmsi": "219538000", "name": "MAERSK LABREA", "cog": 202.2, "sog": 0, "shipClass": "A", "destination": "No Reportado", "type": 0, "length": 0, "beam": 0, "timestamp": 1791507236181.494}, "geometry": {"type": "Point", "coordinates": [-58.36868333333334, -34.580715000000005]}}, {"type": "Feature", "properties": {"mmsi": "701516000", "name": "GC-64 MAR DEL PLATA", "cog": 208.9, "sog": 0, "shipClass": "A", "destination": "No Reportado", "type": 0, "length": 0, "beam": 0, "timestamp": 1791507236446.5195}, "geometry": {"type": "Point", "coordinates": [-58.579451666666664, -34.41596166666667]}}, {"type": "Feature", "properties": {"mmsi": "725000620", "name": "FRIOSUR IX", "cog": 299.6, "sog": 10.8, "shipClass": "A", "destination": "No Reportado", "type": 0, "length": 0, "beam": 0, "timestamp": 1791507236886.9148}, "geometry": {"type": "Point", "coordinates": [-72.95373666666666, -45.432645]}}, {"type": "Feature", "properties": {"mmsi": "563302200", "name": "IONA ISLAND", "cog": 186.7, "sog": 0.2, "shipClass": "A", "destination": "AA", "type": 70, "length": 180, "beam": 30, "timestamp": 1791507237758.4336}, "geometry": {"type": "Point", "coordinates": [-60.636915, -32.933006666666664]}}, {"type": "Feature", "properties": {"mmsi": "701000524", "name": "AMERICA I", "cog": 244.3, "sog": 0.2, "shipClass": "A", "destination": "No Reportado", "type": 0, "length": 0, "beam": 0, "timestamp": 1791507238128.1277}, "geometry": {"type": "Point", "coordinates": [-57.535605000000004, -38.04958333333333]}}, {"type": "Feature", "properties": {"mmsi": "538011571", "name": "LYRA M", "cog": 57.9, "sog": 0.4, "shipClass": "A", "destination": "AR SLO", "type": 70, "length": 190, "beam": 32, "timestamp": 1791507239386.2288}, "geometry": {"type": "Point", "coordinates": [-60.71500666666667, -32.67410666666667]}}, {"type": "Feature", "properties": {"mmsi": "710005647", "name": "DRATEC XXII", "cog": 236.1, "sog": 0, "shipClass": "B", "destination": "No Reportado", "type": 0, "length": 0, "beam": 0, "timestamp": 1791507239386.3462}, "geometry": {"type": "Point", "coordinates": [-46.31125, -23.924508333333332]}}, {"type": "Feature", "properties": {"mmsi": "710012550", "name": "SAAM PATAXO", "cog": 172.3, "sog": 0, "shipClass": "A", "destination": "No Reportado", "type": 0, "length": 0, "beam": 0, "timestamp": 1791507239518.6108}, "geometry": {"type": "Point", "coordinates": [-43.21285, -22.87005]}}, {"type": "Feature", "properties": {"mmsi": "710002850", "name": "SN CHUI", "cog": 209.2, "sog": 0, "shipClass": "A", "destination": "PORTO DE SANTOS", "type": 52, "length": 25, "beam": 9, "timestamp": 1791507239688.4785}, "geometry": {"type": "Point", "coordinates": [-43.11293833333333, -22.868403333333333]}}, {"type": "Feature", "properties": {"mmsi": "701000564", "name": "HUA I 616", "cog": 0, "sog": 0, "shipClass": "A", "destination": "BUENOS AIRES", "type": 30, "length": 55, "beam": 12, "timestamp": 1791507240115.669}, "geometry": {"type": "Point", "coordinates": [-58.3787, -34.57283833333334]}}, {"type": "Feature", "properties": {"mmsi": "563186300", "name": "HAFNIA AMMOLITE", "cog": 97.5, "sog": 11.5, "shipClass": "A", "destination": "No Reportado", "type": 0, "length": 0, "beam": 0, "timestamp": 1791507241432.0842}, "geometry": {"type": "Point", "coordinates": [-58.53301666666667, -34.29998833333333]}}, {"type": "Feature", "properties": {"mmsi": "636021012", "name": "MSC CAROLE", "cog": 271.2, "sog": 9.2, "shipClass": "A", "destination": "BRNVT", "type": 71, "length": 328, "beam": 48, "timestamp": 1791507241666.6106}, "geometry": {"type": "Point", "coordinates": [-48.55486666666666, -26.906175]}}, {"type": "Feature", "properties": {"mmsi": "247341900", "name": "GRANDE DAKAR", "cog": 21.1, "sog": 8.4, "shipClass": "A", "destination": "No Reportado", "type": 0, "length": 0, "beam": 0, "timestamp": 1791507241666.7056}, "geometry": {"type": "Point", "coordinates": [-46.369681666666665, -24.088303333333332]}}, {"type": "Feature", "properties": {"mmsi": "538012412", "name": "GOOD LUCK", "cog": 185.1, "sog": 0, "shipClass": "A", "destination": "SAN LORENZO", "type": 70, "length": 229, "beam": 32, "timestamp": 1791507242756.1194}, "geometry": {"type": "Point", "coordinates": [-60.779790000000006, -32.58461166666667]}}, {"type": "Feature", "properties": {"mmsi": "701006966", "name": "TIGRE", "cog": 360, "sog": 0, "shipClass": "A", "destination": "No Reportado", "type": 0, "length": 0, "beam": 0, "timestamp": 1791507243331.7332}, "geometry": {"type": "Point", "coordinates": [-60.72915166666667, -32.64377833333334]}}, {"type": "Feature", "properties": {"mmsi": "710482000", "name": "ALMIRANTE SABOIA", "cog": 0, "sog": 0, "shipClass": "A", "destination": "No Reportado", "type": 0, "length": 0, "beam": 0, "timestamp": 1791507243342.915}, "geometry": {"type": "Point", "coordinates": [-43.145833333333336, -22.860833333333336]}}, {"type": "Feature", "properties": {"mmsi": "710006428", "name": "SC 60", "cog": 224.9, "sog": 0, "shipClass": "B", "destination": "No Reportado", "type": 0, "length": 0, "beam": 0, "timestamp": 1791507243992.7256}, "geometry": {"type": "Point", "coordinates": [-46.367383333333336, -23.91857333333333]}}, {"type": "Feature", "properties": {"mmsi": "710007000", "name": "SVITZER IRLANDA D", "cog": 228.2, "sog": 0, "shipClass": "A", "destination": "SANTOS SP", "type": 52, "length": 32, "beam": 11, "timestamp": 1791507245341.5818}, "geometry": {"type": "Point", "coordinates": [-46.31797666666667, -23.933378333333334]}}, {"type": "Feature", "properties": {"mmsi": "725019006", "name": "ESMERALDA", "cog": 193.8, "sog": 10.6, "shipClass": "A", "destination": "No Reportado", "type": 0, "length": 0, "beam": 0, "timestamp": 1791507246928.3547}, "geometry": {"type": "Point", "coordinates": [-72.25222333333333, -34.499498333333335]}}, {"type": "Feature", "properties": {"mmsi": "636016404", "name": "MINOAN COURAGE", "cog": 187.3, "sog": 0, "shipClass": "A", "destination": "BR SSZ", "type": 70, "length": 225, "beam": 32, "timestamp": 1791507250786.3516}, "geometry": {"type": "Point", "coordinates": [-46.308546666666665, -23.954240000000002]}}]}