{"type":"FeatureCollection","features":[{"type":"Feature","geometry":{"type":"LineString","coordinates":[[-58.38,-34.6],[-58.55,-34.5],[-58.75,-34.35],[-58.98,-34.16],[-59.65,-33.35],[-60.2,-33.32],[-60.65,-32.95],[-61.35,-32.78],[-62.2,-32.4],[-63.25,-32.41],[-63.75,-32.15],[-64.18,-31.42],[-64.08,-30.75],[-63.7,-29.9],[-64.25,-27.8],[-65.2,-26.82],[-65.3,-24.18],[-65.6,-22.1]]},"properties":{"name":"Ruta Nacional 9 (Panamericana - Rosario - C\u00f3rdoba - NOA)","ref":"RN 9","cat":"Ruta Nacional","hwy":"motorway","surface":"Pavimentada / Autopista","lanes":"4-6"}},{"type":"Feature","geometry":{"type":"LineString","coordinates":[[-58.45,-34.6],[-58.9,-34.58],[-59.43,-34.65],[-60.0,-34.55],[-60.95,-34.58],[-61.85,-34.3],[-62.7,-34.2],[-63.4,-34.15],[-64.4,-33.95],[-65.45,-33.65],[-66.33,-33.3],[-67.45,-33.4],[-68.4,-33.15],[-68.84,-32.89],[-69.25,-32.85],[-69.75,-32.82]]},"properties":{"name":"Ruta Nacional 7 (Corredor Bioce\u00e1nico - Jun\u00edn - San Luis - Mendoza)","ref":"RN 7","cat":"Ruta Nacional","hwy":"motorway","surface":"Pavimentada / Autov\u00eda","lanes":"2-4"}},{"type":"Feature","geometry":{"type":"LineString","coordinates":[[-58.55,-34.75],[-58.75,-35.03],[-59.5,-35.5],[-59.95,-36.78],[-60.28,-37.3],[-61.3,-38.0],[-62.27,-38.72],[-62.99,-40.81],[-64.5,-41.5],[-65.03,-42.75],[-65.3,-43.3],[-66.0,-44.5],[-67.48,-45.86],[-67.7,-47.05],[-68.0,-48.5],[-69.22,-51.62],[-68.3,-54.8]]},"properties":{"name":"Ruta Nacional 3 (Corredor Atl\u00e1ntico y Patag\u00f3nico)","ref":"RN 3","cat":"Ruta Nacional","hwy":"trunk","surface":"Pavimentada / Autov\u00eda","lanes":"2-4"}},{"type":"Feature","geometry":{"type":"LineString","coordinates":[[-60.65,-32.95],[-60.7,-31.63],[-60.4,-30.5],[-60.5,-29.15],[-59.6,-28.0],[-58.98,-27.45],[-58.6,-26.8],[-58.17,-26.18],[-57.72,-25.28]]},"properties":{"name":"Ruta Nacional 11 (Eje Fluvial Paran\u00e1-Paraguay - Santa Fe - Chaco - Formosa)","ref":"RN 11","cat":"Ruta Nacional","hwy":"trunk","surface":"Pavimentada","lanes":"2"}},{"type":"Feature","geometry":{"type":"LineString","coordinates":[[-59.02,-34.09],[-58.8,-33.75],[-59.3,-33.15],[-60.0,-32.5],[-60.51,-31.73],[-59.8,-30.5],[-59.25,-29.14],[-58.83,-27.47],[-57.5,-27.4],[-55.89,-27.37],[-54.8,-26.5],[-54.57,-25.6]]},"properties":{"name":"Ruta Nacional 12 (Mesopotamia - Corrientes - Posadas - Cataratas del Iguaz\u00fa)","ref":"RN 12","cat":"Ruta Nacional","hwy":"trunk","surface":"Pavimentada","lanes":"2-4"}},{"type":"Feature","geometry":{"type":"LineString","coordinates":[[-58.7,-33.7],[-58.52,-32.48],[-58.2,-32.2],[-58.02,-31.39],[-57.9,-30.75],[-57.08,-29.71],[-56.5,-28.8],[-56.05,-28.05],[-55.5,-27.6],[-54.2,-26.8],[-53.65,-26.25]]},"properties":{"name":"Ruta Nacional 14 (Autov\u00eda del Mercosur - Corredor del R\u00edo Uruguay)","ref":"RN 14","cat":"Ruta Nacional","hwy":"motorway","surface":"Pavimentada / Autov\u00eda","lanes":"4"}},{"type":"Feature","geometry":{"type":"LineString","coordinates":[[-58.83,-27.45],[-58.98,-27.45],[-59.8,-27.1],[-60.45,-26.78],[-61.5,-26.2],[-62.8,-25.65],[-63.5,-25.5],[-64.95,-25.5]]},"properties":{"name":"Ruta Nacional 16 (Corredor Bioce\u00e1nico Norte - Resistencia - S\u00e1enz Pe\u00f1a - Salta)","ref":"RN 16","cat":"Ruta Nacional","hwy":"trunk","surface":"Pavimentada","lanes":"2"}},{"type":"Feature","geometry":{"type":"LineString","coordinates":[[-58.17,-26.18],[-59.1,-25.75],[-60.58,-24.7],[-61.85,-23.9],[-62.8,-23.5],[-63.8,-23.2]]},"properties":{"name":"Ruta Nacional 81 (Corredor Capricornio - Formosa - Las Lomitas - Salta)","ref":"RN 81","cat":"Ruta Nacional","hwy":"trunk","surface":"Pavimentada","lanes":"2"}},{"type":"Feature","geometry":{"type":"LineString","coordinates":[[-60.65,-32.95],[-61.5,-31.25],[-61.95,-29.88],[-63.2,-28.5],[-64.25,-27.8],[-65.0,-26.5],[-65.05,-24.5],[-63.8,-22.05]]},"properties":{"name":"Ruta Nacional 34 (Rosario - Santiago del Estero - Salta - Jujuy)","ref":"RN 34","cat":"Ruta Nacional","hwy":"trunk","surface":"Pavimentada","lanes":"2"}},{"type":"Feature","geometry":{"type":"LineString","coordinates":[[-65.6,-22.1],[-66.17,-26.07],[-67.03,-29.15],[-68.84,-32.89],[-69.58,-37.38],[-71.3,-41.13],[-71.5,-47.0],[-72.3,-51.7],[-69.22,-51.62]]},"properties":{"name":"Ruta Nacional 40 (Eje Cordillerano de los Andes)","ref":"RN 40","cat":"Ruta Nacional","hwy":"trunk","surface":"Pavimento / Ripio consolidado","lanes":"2"}},{"type":"Feature","geometry":{"type":"LineString","coordinates":[[-58.9,-34.45],[-59.6,-34.15],[-60.57,-33.89],[-61.95,-33.75],[-63.0,-33.4],[-64.35,-33.12]]},"properties":{"name":"Ruta Nacional 8 (Pilar - Pergamino - Venado Tuerto - R\u00edo Cuarto)","ref":"RN 8","cat":"Ruta Nacional","hwy":"motorway","surface":"Pavimentada / Autopista","lanes":"2-4"}},{"type":"Feature","geometry":{"type":"LineString","coordinates":[[-60.2,-33.32],[-60.57,-33.89],[-60.95,-34.58],[-62.5,-34.9],[-64.0,-35.05],[-66.0,-35.0],[-67.7,-35.0]]},"properties":{"name":"Ruta Nacional 188 (San Nicol\u00e1s - Pergamino - Jun\u00edn - General Alvear)","ref":"RN 188","cat":"Ruta Nacional","hwy":"trunk","surface":"Pavimentada","lanes":"2"}},{"type":"Feature","geometry":{"type":"LineString","coordinates":[[-57.55,-38.0],[-58.25,-37.85],[-59.13,-37.32],[-59.85,-36.78],[-60.3,-36.9],[-61.0,-36.2],[-61.9,-35.8]]},"properties":{"name":"Ruta Nacional 226 (Mar del Plata - Balcarce - Tandil - Olavarr\u00eda - Pehuaj\u00f3)","ref":"RN 226","cat":"Ruta Nacional","hwy":"trunk","surface":"Pavimentada / Autov\u00eda","lanes":"2-4"}},{"type":"Feature","geometry":{"type":"LineString","coordinates":[[-58.15,-34.85],[-58.0,-35.5],[-57.9,-36.5],[-57.75,-37.4],[-57.55,-38.0]]},"properties":{"name":"Ruta Provincial 2 (Autov\u00eda 2 - Buenos Aires a Mar del Plata)","ref":"RP 2","cat":"Ruta Provincial","hwy":"motorway","surface":"Pavimentada / Autov\u00eda","lanes":"4"}},{"type":"Feature","geometry":{"type":"LineString","coordinates":[[-59.02,-34.09],[-59.1,-34.57],[-58.8,-34.9],[-58.75,-35.03],[-57.95,-34.92]]},"properties":{"name":"Ruta Provincial 6 (Anillo Industrial Metropolitano Z\u00e1rate - La Plata)","ref":"RP 6","cat":"Ruta Provincial","hwy":"motorway","surface":"Pavimentada / Autov\u00eda","lanes":"4"}},{"type":"Feature","geometry":{"type":"LineString","coordinates":[[-57.85,-35.0],[-57.3,-35.55],[-56.7,-36.35],[-56.72,-36.7],[-57.0,-37.3],[-57.55,-38.0]]},"properties":{"name":"Ruta Provincial 11 (Corredor Interbalneario Costa Atl\u00e1ntica)","ref":"RP 11","cat":"Ruta Provincial","hwy":"primary","surface":"Pavimentada","lanes":"2-4"}},{"type":"Feature","geometry":{"type":"LineString","coordinates":[[-59.5,-33.8],[-59.45,-34.25],[-59.43,-34.65],[-59.2,-35.0],[-59.1,-35.18],[-58.8,-35.5],[-57.8,-36.1]]},"properties":{"name":"Ruta Provincial 41 (Anillo Rural Baradero - Mercedes - Lobos - Castelli)","ref":"RP 41","cat":"Ruta Provincial","hwy":"primary","surface":"Pavimentada","lanes":"2"}},{"type":"Feature","geometry":{"type":"LineString","coordinates":[[-60.0,-33.5],[-60.1,-34.05],[-60.0,-34.6],[-59.8,-35.6],[-60.1,-36.3],[-60.3,-36.9],[-61.35,-38.0],[-62.27,-38.72]]},"properties":{"name":"Ruta Provincial 51 (Corredor Cerealero Ramallo - Saladillo - Olavarr\u00eda - Bah\u00eda Blanca)","ref":"RP 51","cat":"Ruta Provincial","hwy":"primary","surface":"Pavimentada","lanes":"2"}},{"type":"Feature","geometry":{"type":"LineString","coordinates":[[-60.95,-34.58],[-60.85,-35.45],[-61.0,-36.25]]},"properties":{"name":"Ruta Provincial 65 (Jun\u00edn - 9 de Julio - Bol\u00edvar)","ref":"RP 65","cat":"Ruta Provincial","hwy":"primary","surface":"Pavimentada","lanes":"2"}},{"type":"Feature","geometry":{"type":"LineString","coordinates":[[-80.2,25.77],[-81.65,30.33],[-80.85,32.1],[-77.45,37.54],[-77.03,38.9],[-75.16,39.95],[-74.0,40.71],[-71.05,42.36]]},"properties":{"name":"Interstate 95 (US East Coast - Miami - DC - New York - Boston)","ref":"I-95","cat":"Ruta Nacional","hwy":"motorway","surface":"Autopista Interestatal","lanes":"6-10"}},{"type":"Feature","geometry":{"type":"LineString","coordinates":[[-118.25,34.05],[-112.07,33.45],[-106.48,31.76],[-98.49,29.42],[-95.36,29.76],[-90.07,29.95],[-81.65,30.33]]},"properties":{"name":"Interstate 10 (US Southern Transcontinental - Los Angeles - Houston - Florida)","ref":"I-10","cat":"Ruta Nacional","hwy":"motorway","surface":"Autopista Interestatal","lanes":"6-8"}},{"type":"Feature","geometry":{"type":"LineString","coordinates":[[-122.41,37.77],[-119.81,39.52],[-111.89,40.76],[-104.82,41.14],[-95.93,41.25],[-87.62,41.88],[-74.0,40.71]]},"properties":{"name":"Interstate 80 (US Transcontinental - San Francisco - Salt Lake - Chicago - NY)","ref":"I-80","cat":"Ruta Nacional","hwy":"motorway","surface":"Autopista Interestatal","lanes":"4-8"}},{"type":"Feature","geometry":{"type":"LineString","coordinates":[[-99.5,27.5],[-98.49,29.42],[-97.74,30.26],[-96.79,32.77],[-97.33,37.68],[-94.57,39.09],[-93.62,41.58],[-93.26,44.97]]},"properties":{"name":"Interstate 35 (NAFTA Corridor - Laredo - Austin - Dallas - Minneapolis)","ref":"I-35","cat":"Ruta Nacional","hwy":"motorway","surface":"Autopista Interestatal","lanes":"4-8"}}]}